id,place_name,address_name,road_address_name,x,y,phone,category_name,place_url,region_1depth_name,region_2depth_name,query,rect_level,rect_bbox
24530178,던킨 제주송악산점,제주특별자치도 서귀포시 대정읍 상모리 133,제주특별자치도 서귀포시 대정읍 형제해안로 322,126.2900694,33.20676362,064-792-0771,음식점 > 간식 > 도넛 > 던킨,http://place.map.kakao.com/24530178,,,던킨,0,"126.053125,33.0,126.384375,33.343333333333334"
1698319161,던킨 제주신화월드점,제주특별자치도 서귀포시 안덕면 서광리 산 24,제주특별자치도 서귀포시 안덕면 신화역사로304번길 38,126.316352,33.30497304,064-909-2301,음식점 > 간식 > 도넛 > 던킨,http://place.map.kakao.com/1698319161,,,던킨,0,"126.053125,33.0,126.384375,33.343333333333334"
1145375013,던킨 신세계아울렛 제주프리미엄점,제주특별자치도 서귀포시 안덕면 서광리 산 24,제주특별자치도 서귀포시 안덕면 신화역사로304번길 38,126.3168389,33.30656164,,음식점 > 간식 > 도넛 > 던킨,http://place.map.kakao.com/1145375013,,,던킨,0,"126.053125,33.0,126.384375,33.343333333333334"
1061385721,던킨 목포해상케이블카고하도점,전남 목포시 달동 846-1,전남 목포시 고하도안길 186,126.3607241,34.77435805,,음식점 > 간식 > 도넛 > 던킨,http://place.map.kakao.com/1061385721,,,던킨,0,"126.053125,34.656666666666666,126.384375,35.01"
17341435,던킨 충남태안점,충남 태안군 태안읍 동문리 886-7,충남 태안군 태안읍 후곡로 132,126.3051723,36.74814867,041-674-1984,음식점 > 간식 > 도넛 > 던킨,http://place.map.kakao.com/17341435,,,던킨,0,"126.053125,36.656666666666666,126.384375,37.01"
1440104242,던킨 서귀포동홍점,제주특별자치도 서귀포시 동홍동 93-2,제주특별자치도 서귀포시 동홍중앙로 77,126.5719246,33.25763046,064-767-2988,음식점 > 간식 > 도넛 > 던킨,http://place.map.kakao.com/1440104242,,,던킨,0,"126.365625,33.0,126.696875,33.343333333333334"
1141761640,던킨 서귀포혁신점,제주특별자치도 서귀포시 강정동 161-1,제주특별자치도 서귀포시 신서로48번길 31,126.5086574,33.25352048,064-739-5900,음식점 > 간식 > 도넛 > 던킨,http://place.map.kakao.com/1141761640,,,던킨,0,"126.365625,33.0,126.696875,33.343333333333334"
1482667109,던킨 신제주점,제주특별자치도 제주시 노형동 3782-8,제주특별자치도 제주시 노형8길 17,126.4789799,33.48397258,064-745-0145,음식점 > 간식 > 도넛 > 던킨,http://place.map.kakao.com/1482667109,,,던킨,0,"126.365625,33.32333333333334,126.696875,33.67666666666666"
69700701,던킨 제주연동점,제주특별자치도 제주시 연동 1482-4,제주특별자치도 제주시 국기로 17,126.4899878,33.48013881,064-742-7972,음식점 > 간식 > 도넛 > 던킨,http://place.map.kakao.com/69700701,,,던킨,0,"126.365625,33.32333333333334,126.696875,33.67666666666666"
7837996,던킨 제주시청점,제주특별자치도 제주시 이도이동 1772-1,제주특별자치도 제주시 중앙로 216,126.5292354,33.50007868,064-702-7600,음식점 > 간식 > 도넛 > 던킨,http://place.map.kakao.com/7837996,,,던킨,0,"126.365625,33.32333333333334,126.696875,33.67666666666666"
549218722,던킨 제주아라점,제주특별자치도 제주시 아라일동 2333-2,제주특별자치도 제주시 중앙로 504,126.5434236,33.47830507,064-751-0822,음식점 > 간식 > 도넛 > 던킨,http://place.map.kakao.com/549218722,,,던킨,0,"126.365625,33.32333333333334,126.696875,33.67666666666666"
1498540438,던킨 제주삼화점,제주특별자치도 제주시 도련일동 1938-5,제주특별자치도 제주시 건주로4길 6-4,126.5803373,33.51618534,064-753-8871,음식점 > 간식 > 도넛 > 던킨,http://place.map.kakao.com/1498540438,,,던킨,0,"126.365625,33.32333333333334,126.696875,33.67666666666666"
24530482,던킨 제주탑동점,제주특별자치도 제주시 삼도이동 1261-13,제주특별자치도 제주시 탑동로 24,126.5225664,33.5175323,064-726-0044,음식점 > 간식 > 도넛 > 던킨,http://place.map.kakao.com/24530482,,,던킨,0,"126.365625,33.32333333333334,126.696875,33.67666666666666"
885963053,던킨 제주화북점,제주특별자치도 제주시 화북일동 1989,제주특별자치도 제주시 진남로6길 4,126.5658064,33.51922862,064-702-1989,음식점 > 간식 > 도넛 > 던킨,http://place.map.kakao.com/885963053,,,던킨,0,"126.365625,33.32333333333334,126.696875,33.67666666666666"
407811375,던킨 제주한마음병원점,제주특별자치도 제주시 이도이동 1941-5,제주특별자치도 제주시 연신로 52,126.5462368,33.49628689,064-755-2255,음식점 > 간식 > 도넛 > 던킨,http://place.map.kakao.com/407811375,,,던킨,0,"126.365625,33.32333333333334,126.696875,33.67666666666666"
388693996,던킨 목포용해점,전남 목포시 연산동 1930-1,전남 목포시 용해지구로 61,126.3927034,34.8181908,061-272-0019,음식점 > 간식 > 도넛 > 던킨,http://place.map.kakao.com/388693996,,,던킨,0,"126.365625,34.656666666666666,126.696875,35.01"
628900459,던킨 남악도청점,전남 무안군 삼향읍 남악리 2147,전남 무안군 삼향읍 대죽서로 25-14,126.4608017,34.81115624,061-284-4558,음식점 > 간식 > 도넛 > 던킨,http://place.map.kakao.com/628900459,,,던킨,0,"126.365625,34.656666666666666,126.696875,35.01"
26567025,던킨 목포기독병원점,전남 목포시 상동 828-1,전남 목포시 백년대로297번길 3,126.4198528,34.80426602,061-284-7179,음식점 > 간식 > 도넛 > 던킨,http://place.map.kakao.com/26567025,,,던킨,0,"126.365625,34.656666666666666,126.696875,35.01"
2042588061,던킨 목포롯데마트맥스점,전남 목포시 상동 1134,전남 목포시 원형서로 15,126.4294688,34.79724633,061-277-0809,음식점 > 간식 > 도넛 > 던킨,http://place.map.kakao.com/2042588061,,,던킨,0,"126.365625,34.656666666666666,126.696875,35.01"
695248533,던킨 무안남악롯데마트점,전남 무안군 삼향읍 남악리 2622,전남 무안군 삼향읍 남악로162번길 80,126.4653503,34.80270677,061-262-5100,음식점 > 간식 > 도넛 > 던킨,http://place.map.kakao.com/695248533,,,던킨,0,"126.365625,34.656666666666666,126.696875,35.01"
89680714,던킨 군산에어베이스점,전북특별자치도 군산시 옥서면 선연리 385,,126.615698,35.92601638,070-7597-9070,음식점 > 간식 > 도넛 > 던킨,http://place.map.kakao.com/89680714,,,던킨,0,"126.365625,35.656666666666666,126.696875,36.01"
12430375,던킨 충남서천점,충남 서천군 서천읍 군사리 705-7,충남 서천군 서천읍 서천로 97,126.6891184,36.07756518,041-952-5006,음식점 > 간식 > 도넛 > 던킨,http://place.map.kakao.com/12430375,,,던킨,0,"126.365625,35.99,126.696875,36.343333333333334"
27028741,던킨 보령동대점,충남 보령시 동대동 489-20,충남 보령시 한내로터리길 65,126.6094329,36.34640373,041-933-1212,음식점 > 간식 > 도넛 > 던킨,http://place.map.kakao.com/27028741,,,던킨,0,"126.365625,36.32333333333334,126.696875,36.67666666666666"
13042058,던킨 충남홍성점,충남 홍성군 홍성읍 오관리 305-20,충남 홍성군 홍성읍 내포로 8,126.6662071,36.60083295,041-633-1007,음식점 > 간식 > 도넛 > 던킨,http://place.map.kakao.com/13042058,,,던킨,0,"126.365625,36.32333333333334,126.696875,36.67666666666666"
675566371,던킨 충남도청점,충남 홍성군 홍북읍 신경리 555,충남 홍성군 홍북읍 청사로174번길 2,126.6789881,36.65938684,041-631-1619,음식점 > 간식 > 도넛 > 던킨,http://place.map.kakao.com/675566371,,,던킨,0,"126.365625,36.32333333333334,126.696875,36.67666666666666"
981182119,던킨 당진기지시점,충남 당진시 시곡동 70-1,충남 당진시 서해로 6275,126.6830687,36.90277362,041-358-0728,음식점 > 간식 > 도넛 > 던킨,http://place.map.kakao.com/981182119,,,던킨,0,"126.365625,36.656666666666666,126.696875,37.01"
1539048604,던킨 서산예천점,충남 서산시 예천동 1273-6,충남 서산시 호수공원12로 18,126.4483035,36.77244247,041-664-2375,음식점 > 간식 > 도넛 > 던킨,http://place.map.kakao.com/1539048604,,,던킨,0,"126.365625,36.656666666666666,126.696875,37.01"
376459451,던킨 서산동문점,충남 서산시 동문동 48-1,충남 서산시 고운로 251,126.4632251,36.78423321,041-662-0901,음식점 > 간식 > 도넛 > 던킨,http://place.map.kakao.com/376459451,,,던킨,0,"126.365625,36.656666666666666,126.696875,37.01"
717189103,던킨 서산휴게소서울방향점,충남 서산시 해미면 삼송리 236-14,충남 서산시 해미면 서해안고속도로 242,126.566161,36.73429094,041-688-7714,음식점 > 간식 > 도넛 > 던킨,http://place.map.kakao.com/717189103,,,던킨,0,"126.365625,36.656666666666666,126.696875,37.01"
1202230587,던킨 김포구래점,경기 김포시 구래동 6882-4,경기 김포시 김포한강9로75번길 180,126.624277,37.64496084,031-992-7897,음식점 > 간식 > 도넛 > 던킨,http://place.map.kakao.com/1202230587,,,던킨,0,"126.365625,37.32333333333334,126.696875,37.67666666666666"
2081966491,던킨 인천용현점,인천 미추홀구 용현동 627-276,인천 미추홀구 낙섬중로 17,126.6360748,37.4501218,,음식점 > 간식 > 도넛 > 던킨,http://place.map.kakao.com/2081966491,,,던킨,0,"126.365625,37.32333333333334,126.696875,37.67666666666666"
1575193199,던킨 석바위시장역점,인천 미추홀구 주안동 1543,인천 미추홀구 경원대로834번길 27-12,126.6913786,37.45743768,032-421-0575,음식점 > 간식 > 도넛 > 던킨,http://place.map.kakao.com/1575193199,,,던킨,0,"126.365625,37.32333333333334,126.696875,37.67666666666666"
7835531,던킨 송도신도시점,인천 연수구 송도동 2-6,인천 연수구 신송로 122,126.6521092,37.39590925,032-858-1311,음식점 > 간식 > 도넛 > 던킨,http://place.map.kakao.com/7835531,,,던킨,0,"126.365625,37.32333333333334,126.696875,37.67666666666666"
724213690,던킨 인천사랑병원점,인천 미추홀구 주안동 157-14,인천 미추홀구 미추홀대로722번길 18,126.6813907,37.46168015,032-441-8839,음식점 > 간식 > 도넛 > 던킨,http://place.map.kakao.com/724213690,,,던킨,0,"126.365625,37.32333333333334,126.696875,37.67666666666666"
12323695,던킨 제물포역사점,인천 미추홀구 숭의동 450-39,인천 미추홀구 경인로 129,126.6568688,37.4668058,032-881-4332,음식점 > 간식 > 도넛 > 던킨,http://place.map.kakao.com/12323695,,,던킨,0,"126.365625,37.32333333333334,126.696875,37.67666666666666"
87245740,던킨 인천청라점,인천 서구 청라동 165-12,인천 서구 청라에메랄드로 99,126.6557303,37.53360457,032-724-9929,음식점 > 간식 > 도넛 > 던킨,http://place.map.kakao.com/87245740,,,던킨,0,"126.365625,37.32333333333334,126.696875,37.67666666666666"
426585495,던킨 송도센트럴점,인천 연수구 송도동 23-5,인천 연수구 센트럴로 160,126.6429062,37.39307875,032-277-0303,음식점 > 간식 > 도넛 > 던킨,http://place.map.kakao.com/426585495,,,던킨,0,"126.365625,37.32333333333334,126.696875,37.67666666666666"
12323274,던킨 인천신현점,인천 서구 가정동 504,인천 서구 가정로394번길 2,126.6732434,37.5198231,032-583-6320,음식점 > 간식 > 도넛 > 던킨,http://place.map.kakao.com/12323274,,,던킨,0,"126.365625,37.32333333333334,126.696875,37.67666666666666"
913488598,던킨 인천신동춘점,인천 연수구 동춘동 934,인천 연수구 앵고개로264번길 10-13,126.6717548,37.40759936,032-811-6134,음식점 > 간식 > 도넛 > 던킨,http://place.map.kakao.com/913488598,,,던킨,0,"126.365625,37.32333333333334,126.696875,37.67666666666666"
2071220207,던킨 인천W병원점,인천 미추홀구 주안동 1468-4,인천 미추홀구 인주대로 396,126.6806603,37.45110034,032-429-3883,음식점 > 간식 > 도넛 > 던킨,http://place.map.kakao.com/2071220207,,,던킨,0,"126.365625,37.32333333333334,126.696875,37.67666666666666"
12323823,던킨 김포장기점,경기 김포시 장기동 1618,경기 김포시 김포한강1로51번길 20,126.6671918,37.64386798,031-982-0559,음식점 > 간식 > 도넛 > 던킨,http://place.map.kakao.com/12323823,,,던킨,0,"126.365625,37.32333333333334,126.696875,37.67666666666666"
788610819,던킨 T2인천공항센트럴점,인천 중구 운서동 2868,,126.4373873,37.46816038,032-743-8310,음식점 > 간식 > 도넛 > 던킨,http://place.map.kakao.com/788610819,,,던킨,0,"126.365625,37.32333333333334,126.696875,37.67666666666666"
1147252257,던킨 인천영종점,인천 중구 중산동 1873-1,인천 중구 하늘중앙로225번길 3,126.5584223,37.48810029,032-751-4981,음식점 > 간식 > 도넛 > 던킨,http://place.map.kakao.com/1147252257,,,던킨,0,"126.365625,37.32333333333334,126.696875,37.67666666666666"
21549741,던킨 인천공항1호점,인천 중구 운서동 2840,인천 중구 공항로 272,126.4515265,37.45205388,032-743-8709,음식점 > 간식 > 도넛 > 던킨,http://place.map.kakao.com/21549741,,,던킨,0,"126.365625,37.32333333333334,126.696875,37.67666666666666"
1353430751,던킨 영종도운남점,인천 중구 운남동 1602-11,인천 중구 흰바위로 274,126.5054827,37.47779756,032-751-0613,음식점 > 간식 > 도넛 > 던킨,http://place.map.kakao.com/1353430751,,,던킨,0,"126.365625,37.32333333333334,126.696875,37.67666666666666"
1814814474,던킨 인천당하점,인천 서구 마전동 1057-1,인천 서구 원당대로 663,126.6750654,37.59391774,032-561-6871,음식점 > 간식 > 도넛 > 던킨,http://place.map.kakao.com/1814814474,,,던킨,0,"126.365625,37.32333333333334,126.696875,37.67666666666666"
920152856,던킨 김포운양역점,경기 김포시 운양동 1299-1,경기 김포시 김포한강1로 227,126.6829718,37.65405106,031-982-0955,음식점 > 간식 > 도넛 > 던킨,http://place.map.kakao.com/920152856,,,던킨,0,"126.365625,37.32333333333334,126.696875,37.67666666666666"
1045390067,던킨 T1인천공항키오스크점,인천 중구 운서동 2840,인천 중구 공항로 272,126.4533229,37.44948894,032-743-8313,음식점 > 간식 > 도넛 > 던킨,http://place.map.kakao.com/1045390067,,,던킨,0,"126.365625,37.32333333333334,126.696875,37.67666666666666"
1606474880,던킨 공항철도검암역점,인천 서구 검암동 414-204,인천 서구 검바위로 26,126.6735379,37.56902368,032-561-7736,음식점 > 간식 > 도넛 > 던킨,http://place.map.kakao.com/1606474880,,,던킨,0,"126.365625,37.32333333333334,126.696875,37.67666666666666"
1552645254,던킨 검암역사점,인천 서구 검암동 414-204,인천 서구 검바위로 26,126.6735424,37.5690309,032-569-1125,음식점 > 간식 > 도넛 > 던킨,http://place.map.kakao.com/1552645254,,,던킨,0,"126.365625,37.32333333333334,126.696875,37.67666666666666"
239978506,던킨 김포마산점,경기 김포시 마산동 648-2,경기 김포시 김포한강8로 167,126.6438383,37.63742625,031-998-3016,음식점 > 간식 > 도넛 > 던킨,http://place.map.kakao.com/239978506,,,던킨,0,"126.365625,37.32333333333334,126.696875,37.67666666666666"
12323422,던킨 김포양촌점,경기 김포시 양촌읍 학운리 2979,경기 김포시 양촌읍 황금로 117,126.6210324,37.61808411,031-999-8388,음식점 > 간식 > 도넛 > 던킨,http://place.map.kakao.com/12323422,,,던킨,0,"126.365625,37.32333333333334,126.696875,37.67666666666666"
12323634,던킨 간석홈플러스점,인천 남동구 간석동 616-3,인천 남동구 경원대로 971,126.689153,37.46948193,032-868-8977,음식점 > 간식 > 도넛 > 던킨,http://place.map.kakao.com/12323634,,,던킨,0,"126.365625,37.32333333333334,126.696875,37.67666666666666"
733267704,던킨 송도글로벌캠퍼스점,인천 연수구 송도동 190-2,인천 연수구 송도문화로28번길 28,126.653543,37.37785254,,음식점 > 간식 > 도넛 > 던킨,http://place.map.kakao.com/733267704,,,던킨,0,"126.365625,37.32333333333334,126.696875,37.67666666666666"
26556586,던킨 김포통진점,경기 김포시 통진읍 마송리 101-4,경기 김포시 통진읍 조강로 45,126.6003908,37.68992479,031-984-9845,음식점 > 간식 > 도넛 > 던킨,http://place.map.kakao.com/26556586,,,던킨,0,"126.365625,37.656666666666666,126.696875,38.01"
27529757,던킨 자유로휴게소점,경기 파주시 문발동 495-145,경기 파주시 자유로 2210,126.68426,37.69959613,031-943-5175,음식점 > 간식 > 도넛 > 던킨,http://place.map.kakao.com/27529757,,,던킨,0,"126.365625,37.656666666666666,126.696875,38.01"
705573921,던킨 제주금호리조트점,제주특별자치도 서귀포시 남원읍 남원리 2390,제주특별자치도 서귀포시 남원읍 태위로 522-12,126.7016883,33.27320829,064-766-8095,음식점 > 간식 > 도넛 > 던킨,http://place.map.kakao.com/705573921,,,던킨,0,"126.678125,33.0,127.009375,33.343333333333334"
1730599779,던킨 제주한화아쿠아점,제주특별자치도 서귀포시 성산읍 고성리 127-3,제주특별자치도 서귀포시 성산읍 섭지코지로 95,126.9277976,33.43297785,064-782-6900,음식점 > 간식 > 도넛 > 던킨,http://place.map.kakao.com/1730599779,,,던킨,0,"126.678125,33.32333333333334,127.009375,33.67666666666666"
111875619,던킨 광주진월점,광주 남구 진월동 263,광주 남구 서문대로 671,126.8987346,35.11929445,062-676-3636,음식점 > 간식 > 도넛 > 던킨,http://place.map.kakao.com/111875619,,,던킨,0,"126.678125,34.99,127.009375,35.343333333333334"
1187505830,던킨 광주상무점,광주 서구 치평동 1178-6,광주 서구 상무중앙로 29,126.8479255,35.14958481,062-383-3377,음식점 > 간식 > 도넛 > 던킨,http://place.map.kakao.com/1187505830,,,던킨,0,"126.678125,34.99,127.009375,35.343333333333334"
13041997,던킨 광주수완점,광주 광산구 수완동 1475,광주 광산구 임방울대로 330,126.8238896,35.18927325,062-959-0022,음식점 > 간식 > 도넛 > 던킨,http://place.map.kakao.com/13041997,,,던킨,0,"126.678125,34.99,127.009375,35.343333333333334"
8259301,던킨 광주전남대병원점,광주 동구 학동 113-2,광주 동구 제봉로 41,126.9204817,35.14218457,062-232-1532,음식점 > 간식 > 도넛 > 던킨,http://place.map.kakao.com/8259301,,,던킨,0,"126.678125,34.99,127.009375,35.343333333333334"
10305202,던킨 전남대점,광주 북구 용봉동 161-48,광주 북구 우치로 80,126.9128942,35.17464632,062-263-1215,음식점 > 간식 > 도넛 > 던킨,http://place.map.kakao.com/10305202,,,던킨,0,"126.678125,34.99,127.009375,35.343333333333334"
13042039,던킨 광주오치점,광주 북구 오치동 750-3,광주 북구 설죽로 348,126.8994378,35.19064398,062-262-5900,음식점 > 간식 > 도넛 > 던킨,http://place.map.kakao.com/13042039,,,던킨,0,"126.678125,34.99,127.009375,35.343333333333334"
1394152814,던킨 광주봉선점,광주 남구 봉선동 550-9,광주 남구 봉선중앙로 13,126.912591,35.12245099,062-672-9669,음식점 > 간식 > 도넛 > 던킨,http://place.map.kakao.com/1394152814,,,던킨,0,"126.678125,34.99,127.009375,35.343333333333334"
142820681,던킨 광주첨단점,광주 광산구 쌍암동 666-2,광주 광산구 첨단중앙로170번길 54,126.8447401,35.2203218,062-974-8685,음식점 > 간식 > 도넛 > 던킨,http://place.map.kakao.com/142820681,,,던킨,0,"126.678125,34.99,127.009375,35.343333333333334"
12323518,던킨 광주터미널점,광주 서구 광천동 49-1,광주 서구 무진대로 904,126.8793455,35.16038691,062-363-5777,음식점 > 간식 > 도넛 > 던킨,http://place.map.kakao.com/12323518,,,던킨,0,"126.678125,34.99,127.009375,35.343333333333334"
367236452,던킨 광주동림점,광주 서구 동천동 624,광주 서구 하남대로 692,126.8684977,35.17153985,062-526-8787,음식점 > 간식 > 도넛 > 던킨,http://place.map.kakao.com/367236452,,,던킨,0,"126.678125,34.99,127.009375,35.343333333333334"
1459310597,던킨 광주하남점,광주 광산구 산정동 143-13,광주 광산구 용아로 259,126.8015904,35.16646874,062-953-2300,음식점 > 간식 > 도넛 > 던킨,http://place.map.kakao.com/1459310597,,,던킨,0,"126.678125,34.99,127.009375,35.343333333333334"
27529163,던킨 나주혁신점,전남 나주시 빛가람동 189-2,전남 나주시 전력로 2,126.7852367,35.0216362,061-332-9114,음식점 > 간식 > 도넛 > 던킨,http://place.map.kakao.com/27529163,,,던킨,0,"126.678125,34.99,127.009375,35.343333333333334"
14500143,던킨 광주기독병원점,광주 남구 양림동 264,광주 남구 양림로 37,126.9120963,35.13668858,062-652-8685,음식점 > 간식 > 도넛 > 던킨,http://place.map.kakao.com/14500143,,,던킨,0,"126.678125,34.99,127.009375,35.343333333333334"
698193284,던킨 광주신용점,광주 북구 신용동 732,광주 북구 첨단연신로91번길 6,126.8636543,35.2065458,062-574-7077,음식점 > 간식 > 도넛 > 던킨,http://place.map.kakao.com/698193284,,,던킨,0,"126.678125,34.99,127.009375,35.343333333333334"
944028613,던킨 전남화순점,전남 화순군 화순읍 만연리 244,전남 화순군 화순읍 광덕로 204,126.9926473,35.06315143,061-373-3133,음식점 > 간식 > 도넛 > 던킨,http://place.map.kakao.com/944028613,,,던킨,0,"126.678125,34.99,127.009375,35.343333333333334"
1480669613,던킨 광주금호점,광주 서구 금호동 797-2,광주 서구 풍금로 165,126.8593722,35.13079443,062-672-7770,음식점 > 간식 > 도넛 > 던킨,http://place.map.kakao.com/1480669613,,,던킨,0,"126.678125,34.99,127.009375,35.343333333333334"
26855096,던킨 나주역점,전남 나주시 송월동 296-1,,126.7174169,35.01410143,061-336-5908,음식점 > 간식 > 도넛 > 던킨,http://place.map.kakao.com/26855096,,,던킨,0,"126.678125,34.99,127.009375,35.343333333333334"
27529120,던킨 광주아이맘병원점,광주 북구 양산동 235,광주 북구 하서로 400,126.874382,35.21049,062-573-0046,음식점 > 간식 > 도넛 > 던킨,http://place.map.kakao.com/27529120,,,던킨,0,"126.678125,34.99,127.009375,35.343333333333334"
12323493,던킨 광주첨단롯데마트점,광주 광산구 쌍암동 694-3,광주 광산구 첨단강변로99번길 22,126.8519267,35.2167885,062-974-0250,음식점 > 간식 > 도넛 > 던킨,http://place.map.kakao.com/12323493,,,던킨,0,"126.678125,34.99,127.009375,35.343333333333334"
11258660,던킨 광주월드컵점,광주 서구 풍암동 423-2,광주 서구 금화로 240,126.8767704,35.13278555,062-655-7757,음식점 > 간식 > 도넛 > 던킨,http://place.map.kakao.com/11258660,,,던킨,0,"126.678125,34.99,127.009375,35.343333333333334"
1147230827,던킨 광주이마트점,광주 서구 화정동 12-13,광주 서구 죽봉대로 61,126.882084,35.15880863,062-366-0007,음식점 > 간식 > 도넛 > 던킨,http://place.map.kakao.com/1147230827,,,던킨,0,"126.678125,34.99,127.009375,35.343333333333334"
832693222,던킨 정읍상동점,전북특별자치도 정읍시 상동 83-4,전북특별자치도 정읍시 학산로 89-7,126.8747047,35.56005493,070-8657-0450,음식점 > 간식 > 도넛 > 던킨,http://place.map.kakao.com/832693222,,,던킨,0,"126.678125,35.32333333333334,127.009375,35.67666666666666"
26855095,던킨 정읍역사점,전북특별자치도 정읍시 연지동 343-1,전북특별자치도 정읍시 서부산업도로 305,126.8424095,35.57549953,063-535-2229,음식점 > 간식 > 도넛 > 던킨,http://place.map.kakao.com/26855095,,,던킨,0,"126.678125,35.32333333333334,127.009375,35.67666666666666"
26484329,던킨 전북고창점,전북특별자치도 고창군 고창읍 읍내리 202-1,전북특별자치도 고창군 고창읍 중앙로 238,126.7013744,35.43490322,063-564-8788,음식점 > 간식 > 도넛 > 던킨,http://place.map.kakao.com/26484329,,,던킨,0,"126.678125,35.32333333333334,127.009375,35.67666666666666"
807816856,던킨 익산영등점,전북특별자치도 익산시 영등동 844-1,전북특별자치도 익산시 무왕로15길 5-14,126.9769738,35.95912534,063-831-1091,음식점 > 간식 > 도넛 > 던킨,http://place.map.kakao.com/807816856,,,던킨,0,"126.678125,35.656666666666666,127.009375,36.01"
569387947,던킨 군산조촌점,전북특별자치도 군산시 조촌동 2-18,전북특별자치도 군산시 궁포1로 24-9,126.7406277,35.97625464,063-465-6860,음식점 > 간식 > 도넛 > 던킨,http://place.map.kakao.com/569387947,,,던킨,0,"126.678125,35.656666666666666,127.009375,36.01"
1398856920,던킨 군산나운점,전북특별자치도 군산시 나운동 743-8,전북특별자치도 군산시 상신5길 2,126.698771,35.97127037,063-910-9700,음식점 > 간식 > 도넛 > 던킨,http://place.map.kakao.com/1398856920,,,던킨,0,"126.678125,35.656666666666666,127.009375,36.01"
145480891,던킨 익산역점,전북특별자치도 익산시 창인동2가 1,전북특별자치도 익산시 익산대로 153,126.9452563,35.94053958,063-855-0907,음식점 > 간식 > 도넛 > 던킨,http://place.map.kakao.com/145480891,,,던킨,0,"126.678125,35.656666666666666,127.009375,36.01"
13042086,던킨 부안성모병원점,전북특별자치도 부안군 부안읍 봉덕리 760,전북특별자치도 부안군 부안읍 수정길 19,126.7350793,35.72501819,063-582-8778,음식점 > 간식 > 도넛 > 던킨,http://place.map.kakao.com/13042086,,,던킨,0,"126.678125,35.656666666666666,127.009375,36.01"
24546423,던킨 동군산병원점,전북특별자치도 군산시 조촌동 671-13,전북특별자치도 군산시 조촌로 149,126.7371974,35.97753234,,음식점 > 간식 > 도넛 > 던킨,http://place.map.kakao.com/24546423,,,던킨,0,"126.678125,35.656666666666666,127.009375,36.01"
999008429,던킨 군산롯데마트점,전북특별자치도 군산시 수송동 833,전북특별자치도 군산시 수송로 185,126.7164112,35.96479923,063-465-9786,음식점 > 간식 > 도넛 > 던킨,http://place.map.kakao.com/999008429,,,던킨,0,"126.678125,35.656666666666666,127.009375,36.01"
302976880,던킨 원광대병원점,전북특별자치도 익산시 신동 272,전북특별자치도 익산시 무왕로 895,126.9596359,35.96458497,063-859-2312,음식점 > 간식 > 도넛 > 던킨,http://place.map.kakao.com/302976880,,,던킨,0,"126.678125,35.656666666666666,127.009375,36.01"
1265013380,던킨 군산이마트점,전북특별자치도 군산시 경암동 590-296,전북특별자치도 군산시 구암3.1로 137,126.7349732,35.98283301,,음식점 > 간식 > 도넛 > 던킨,http://place.map.kakao.com/1265013380,,,던킨,0,"126.678125,35.656666666666666,127.009375,36.01"
119382422,던킨 예산휴게소당진방향점,충남 예산군 신양면 서계양리 680-1,충남 예산군 신양면 당진영덕고속도로 33,126.8464729,36.61952439,041-335-0020,음식점 > 간식 > 도넛 > 던킨,http://place.map.kakao.com/119382422,,,던킨,0,"126.678125,36.32333333333334,127.009375,36.67666666666666"
1206534278,던킨 평택포승점,경기 평택시 포승읍 도곡리 1122-1,경기 평택시 포승읍 여술로 20,126.8447465,36.98771803,031-686-8534,음식점 > 간식 > 도넛 > 던킨,http://place.map.kakao.com/1206534278,,,던킨,0,"126.678125,36.656666666666666,127.009375,37.01"
272122170,던킨 행담도휴게소점,충남 당진시 신평면 매산리 513,충남 당진시 신평면 서해안고속도로 275,126.8076251,36.94474495,041-358-0700,음식점 > 간식 > 도넛 > 던킨,http://place.map.kakao.com/272122170,,,던킨,0,"126.678125,36.656666666666666,127.009375,37.01"
14857790,던킨 안산원곡점,경기 안산시 단원구 원곡동 828-6,경기 안산시 단원구 라성로 43,126.8003712,37.32752316,031-475-0320,음식점 > 간식 > 도넛 > 던킨,http://place.map.kakao.com/14857790,,,던킨,0,"126.678125,36.99,127.009375,37.343333333333334"
7835421,던킨 안산고잔점,경기 안산시 단원구 고잔동 708-2,경기 안산시 단원구 광덕대로 151,126.8292367,37.3099946,031-485-8998,음식점 > 간식 > 도넛 > 던킨,http://place.map.kakao.com/7835421,,,던킨,0,"126.678125,36.99,127.009375,37.343333333333334"
2067339976,던킨 안산선부점,경기 안산시 단원구 선부동 1081,경기 안산시 단원구 선부광장1로 69,126.8121917,37.33641226,031-401-2593,음식점 > 간식 > 도넛 > 던킨,http://place.map.kakao.com/2067339976,,,던킨,0,"126.678125,36.99,127.009375,37.343333333333334"
16174795,던킨 화성향남점,경기 화성시 향남읍 행정리 487-5,경기 화성시 향남읍 행정중앙2로 63-3,126.9220382,37.12978597,031-352-0639,음식점 > 간식 > 도넛 > 던킨,http://place.map.kakao.com/16174795,,,던킨,0,"126.678125,36.99,127.009375,37.343333333333334"
21213895,던킨 수원하나로점,경기 수원시 권선구 구운동 218-1,경기 수원시 권선구 서부로 1937,126.9668644,37.28270901,031-293-8802,음식점 > 간식 > 도넛 > 던킨,http://place.map.kakao.com/21213895,,,던킨,0,"126.678125,36.99,127.009375,37.343333333333334"
8263949,던킨 수원정자점,경기 수원시 장안구 정자동 877-4,경기 수원시 장안구 대평로 80,126.993409,37.2956686,031-242-7505,음식점 > 간식 > 도넛 > 던킨,http://place.map.kakao.com/8263949,,,던킨,0,"126.678125,36.99,127.009375,37.343333333333334"
12323381,던킨 수원대점,경기 화성시 봉담읍 와우리 62-4,경기 화성시 봉담읍 와우로 111,126.9780298,37.21448903,031-223-4634,음식점 > 간식 > 도넛 > 던킨,http://place.map.kakao.com/12323381,,,던킨,0,"126.678125,36.99,127.009375,37.343333333333334"
1194355565,던킨 수원능실마을점,경기 수원시 권선구 호매실동 1396-1,경기 수원시 권선구 호매실로90번길 98,126.9639084,37.26012716,031-227-8258,음식점 > 간식 > 도넛 > 던킨,http://place.map.kakao.com/1194355565,,,던킨,0,"126.678125,36.99,127.009375,37.343333333333334"
990739578,던킨 수원호매실점,경기 수원시 권선구 금곡동 1085-2,경기 수원시 권선구 금곡로 106,126.9420721,37.27403958,031-293-2030,음식점 > 간식 > 도넛 > 던킨,http://place.map.kakao.com/990739578,,,던킨,0,"126.678125,36.99,127.009375,37.343333333333334"
12323802,던킨 화성봉담점,경기 화성시 봉담읍 동화리 599-2,경기 화성시 봉담읍 동화길 85,126.9586066,37.21692027,031-298-6808,음식점 > 간식 > 도넛 > 던킨,http://place.map.kakao.com/12323802,,,던킨,0,"126.678125,36.99,127.009375,37.343333333333334"
1178031354,던킨 화성시청점,경기 화성시 남양읍 남양리 2072-13,경기 화성시 남양읍 시청로 121,126.8265251,37.20031577,031-355-8566,음식점 > 간식 > 도넛 > 던킨,http://place.map.kakao.com/1178031354,,,던킨,0,"126.678125,36.99,127.009375,37.343333333333334"
19004852,던킨 서수원이마트점,경기 수원시 권선구 구운동 925,경기 수원시 권선구 수인로 291,126.9702169,37.28260358,031-297-8802,음식점 > 간식 > 도넛 > 던킨,http://place.map.kakao.com/19004852,,,던킨,0,"126.678125,36.99,127.009375,37.343333333333334"
2096740770,던킨 평택청북점,경기 평택시 청북읍 옥길리 1157-5,경기 평택시 청북읍 청북남로 254,126.9159053,37.01948171,031-681-8500,음식점 > 간식 > 도넛 > 던킨,http://place.map.kakao.com/2096740770,,,던킨,0,"126.678125,36.99,127.009375,37.343333333333334"
120235476,던킨 원광종합병원점,경기 화성시 송산동 200-4,경기 화성시 화산북로 21,127.0080718,37.21015584,0507-2093-8895,음식점 > 간식 > 도넛 > 던킨,http://place.map.kakao.com/120235476,,,던킨,0,"126.678125,36.99,127.009375,37.343333333333334"
120929246,던킨 NC고잔점,경기 안산시 단원구 고잔동 725-1,경기 안산시 단원구 광덕대로 194,126.8310158,37.31346073,031-436-4499,음식점 > 간식 > 도넛 > 던킨,http://place.map.kakao.com/120929246,,,던킨,0,"126.678125,36.99,127.009375,37.343333333333334"
1790563440,던킨 평택휴게소점,경기 평택시 청북읍 현곡리 73-18,경기 평택시 청북읍 평택제천고속도로 6,126.944559,37.04474404,070-4172-8074,음식점 > 간식 > 도넛 > 던킨,http://place.map.kakao.com/1790563440,,,던킨,0,"126.678125,36.99,127.009375,37.343333333333334"
1645507366,던킨 송산포도휴게소점,경기 화성시 송산면 고정리 349-26,경기 화성시 송산면 평택시흥고속도로 25,126.7566628,37.23685377,031-355-1564,음식점 > 간식 > 도넛 > 던킨,http://place.map.kakao.com/1645507366,,,던킨,0,"126.678125,36.99,127.009375,37.343333333333334"
10305201,던킨 시청역점,서울 중구 태평로2가 360-1,서울 중구 세종대로 93,126.9766981,37.56476776,02-778-3122,음식점 > 간식 > 도넛 > 던킨,http://place.map.kakao.com/10305201,,,던킨,0,"126.678125,37.32333333333334,127.009375,37.67666666666666"
11094288,던킨 사당점,서울 동작구 사당동 266-7,서울 동작구 사당로 236,126.9738324,37.48315796,02-3471-3839,음식점 > 간식 > 도넛 > 던킨,http://place.map.kakao.com/11094288,,,던킨,0,"126.678125,37.32333333333334,127.009375,37.67666666666666"
10306024,던킨 홍대역점,서울 마포구 동교동 159-6,서울 마포구 양화로 157,126.9229956,37.55663778,02-335-4632,음식점 > 간식 > 도넛 > 던킨,http://place.map.kakao.com/10306024,,,던킨,0,"126.678125,37.32333333333334,127.009375,37.67666666666666"
7837423,던킨 화곡역점,서울 강서구 화곡동 1075,서울 강서구 화곡로 164,126.8398165,37.54128232,02-2690-1776,음식점 > 간식 > 도넛 > 던킨,http://place.map.kakao.com/7837423,,,던킨,0,"126.678125,37.32333333333334,127.009375,37.67666666666666"
776638068,던킨 신림양지병원점,서울 관악구 신림동 10-207,서울 관악구 남부순환로 1640,126.9327483,37.48439953,02-2088-5062,음식점 > 간식 > 도넛 > 던킨,http://place.map.kakao.com/776638068,,,던킨,0,"126.678125,37.32333333333334,127.009375,37.67666666666666"
7837645,던킨 북창점,서울 중구 북창동 42-3,서울 중구 남대문로1길 60,126.9778043,37.56369759,02-754-3494,음식점 > 간식 > 도넛 > 던킨,http://place.map.kakao.com/7837645,,,던킨,0,"126.678125,37.32333333333334,127.009375,37.67666666666666"
1610629910,던킨 연신내역점,서울 은평구 대조동 198-5,서울 은평구 연서로 220,126.9201437,37.61805204,02-356-2857,음식점 > 간식 > 도넛 > 던킨,http://place.map.kakao.com/1610629910,,,던킨,0,"126.678125,37.32333333333334,127.009375,37.67666666666666"
7835078,던킨 광명하안점,경기 광명시 하안동 33-3,경기 광명시 범안로 1055,126.8796303,37.46294486,02-864-0770,음식점 > 간식 > 도넛 > 던킨,http://place.map.kakao.com/7835078,,,던킨,0,"126.678125,37.32333333333334,127.009375,37.67666666666666"
1647238516,던킨 상도점,서울 동작구 상도동 535,서울 동작구 상도로30길 40,126.9432631,37.5042299,02-3280-8555,음식점 > 간식 > 도넛 > 던킨,http://place.map.kakao.com/1647238516,,,던킨,0,"126.678125,37.32333333333334,127.009375,37.67666666666666"
590155969,던킨 안양동안점,경기 안양시 동안구 비산동 1104-1,경기 안양시 동안구 시민대로159번길 25,126.9480205,37.39073315,031-388-2911,음식점 > 간식 > 도넛 > 던킨,http://place.map.kakao.com/590155969,,,던킨,0,"126.678125,37.32333333333334,127.009375,37.67666666666666"
7836014,던킨 평촌점,경기 안양시 동안구 평촌동 167,경기 안양시 동안구 귀인로 289,126.9708718,37.3885479,031-421-0801,음식점 > 간식 > 도넛 > 던킨,http://place.map.kakao.com/7836014,,,던킨,0,"126.678125,37.32333333333334,127.009375,37.67666666666666"
18996487,던킨 방송통신대점,서울 종로구 동숭동 169-1,서울 종로구 대학로 86,127.0025404,37.57942382,070-4648-1546,음식점 > 간식 > 도넛 > 던킨,http://place.map.kakao.com/18996487,,,던킨,0,"126.678125,37.32333333333334,127.009375,37.67666666666666"
665726950,던킨 금천독산점,서울 금천구 독산동 1042-4,서울 금천구 독산로 203,126.9023361,37.46503543,02-806-3690,음식점 > 간식 > 도넛 > 던킨,http://place.map.kakao.com/665726950,,,던킨,0,"126.678125,37.32333333333334,127.009375,37.67666666666666"
1046209755,던킨 서대문홍은점,서울 서대문구 홍은동 342-16,서울 서대문구 가좌로 146,126.923734,37.58503042,02-6014-2557,음식점 > 간식 > 도넛 > 던킨,http://place.map.kakao.com/1046209755,,,던킨,0,"126.678125,37.32333333333334,127.009375,37.67666666666666"
10313509,던킨 광명사거리역점,경기 광명시 광명동 158-513,경기 광명시 광명로 898,126.854571,37.47913936,02-2684-7806,음식점 > 간식 > 도넛 > 던킨,http://place.map.kakao.com/10313509,,,던킨,0,"126.678125,37.32333333333334,127.009375,37.67666666666666"
12323200,던킨 등촌점,서울 강서구 등촌동 664-1,서울 강서구 공항대로 335,126.8448879,37.55825938,02-2659-0727,음식점 > 간식 > 도넛 > 던킨,http://place.map.kakao.com/12323200,,,던킨,0,"126.678125,37.32333333333334,127.009375,37.67666666666666"
12323644,던킨 문래점,서울 영등포구 문래동3가 68,서울 영등포구 당산로 45,126.8945421,37.51897021,02-2069-0840,음식점 > 간식 > 도넛 > 던킨,http://place.map.kakao.com/12323644,,,던킨,0,"126.678125,37.32333333333334,127.009375,37.67666666666666"
937224962,던킨 경복궁도반병원점,서울 종로구 내자동 219,서울 종로구 새문안로5가길 33,126.9728404,37.57499774,02-6953-4447,음식점 > 간식 > 도넛 > 던킨,http://place.map.kakao.com/937224962,,,던킨,0,"126.678125,37.32333333333334,127.009375,37.67666666666666"
1478702119,던킨 신정네거리점,서울 양천구 신정동 972-6,서울 양천구 신월로 289,126.8530322,37.52134235,02-2691-1333,음식점 > 간식 > 도넛 > 던킨,http://place.map.kakao.com/1478702119,,,던킨,0,"126.678125,37.32333333333334,127.009375,37.67666666666666"
12323640,던킨 응암역점,서울 은평구 응암동 91-8,서울 은평구 은평로 85,126.9171173,37.59954093,02-352-2949,음식점 > 간식 > 도넛 > 던킨,http://place.map.kakao.com/12323640,,,던킨,0,"126.678125,37.32333333333334,127.009375,37.67666666666666"
2043009790,던킨 마곡역점,서울 강서구 마곡동 798-4,서울 강서구 마곡서로 56,126.8237752,37.55898029,070-8949-8989,음식점 > 간식 > 도넛 > 던킨,http://place.map.kakao.com/2043009790,,,던킨,0,"126.678125,37.32333333333334,127.009375,37.67666666666666"
12323275,던킨 부평동아점,인천 부평구 부평동 546-110,인천 부평구 부평문화로 42,126.7208142,37.49379444,032-330-3233,음식점 > 간식 > 도넛 > 던킨,http://place.map.kakao.com/12323275,,,던킨,0,"126.678125,37.32333333333334,127.009375,37.67666666666666"
27386544,던킨 부천상동점,경기 부천시 원미구 상동 534-6,경기 부천시 원미구 길주로 91,126.7529079,37.50634573,032-326-0477,음식점 > 간식 > 도넛 > 던킨,http://place.map.kakao.com/27386544,,,던킨,0,"126.678125,37.32333333333334,127.009375,37.67666666666666"
523601395,던킨 신풍역점,서울 영등포구 신길동 448-16,서울 영등포구 신길로 59,126.9078504,37.49791676,02-843-8808,음식점 > 간식 > 도넛 > 던킨,http://place.map.kakao.com/523601395,,,던킨,0,"126.678125,37.32333333333334,127.009375,37.67666666666666"
13041999,던킨 구로태평양물산점,서울 구로구 구로동 197-21,서울 구로구 디지털로31길 12,126.8947888,37.48508813,02-858-3106,음식점 > 간식 > 도넛 > 던킨,http://place.map.kakao.com/13041999,,,던킨,0,"126.678125,37.32333333333334,127.009375,37.67666666666666"
21234277,던킨 양천구청점,서울 양천구 신정동 321-6,서울 양천구 목동서로 349,126.865315,37.51753854,02-2655-0807,음식점 > 간식 > 도넛 > 던킨,http://place.map.kakao.com/21234277,,,던킨,0,"126.678125,37.32333333333334,127.009375,37.67666666666666"
1969133768,던킨 구로개봉점,서울 구로구 개봉동 359-1,서울 구로구 개봉로 7,126.8562139,37.48617824,02-2066-0017,음식점 > 간식 > 도넛 > 던킨,http://place.map.kakao.com/1969133768,,,던킨,0,"126.678125,37.32333333333334,127.009375,37.67666666666666"
1147157324,던킨 부천역곡점,경기 부천시 소사구 괴안동 110-9,경기 부천시 소사구 경인로 482,126.8093436,37.48304127,032-347-0010,음식점 > 간식 > 도넛 > 던킨,http://place.map.kakao.com/1147157324,,,던킨,0,"126.678125,37.32333333333334,127.009375,37.67666666666666"
1547068750,던킨 평촌학원가점,경기 안양시 동안구 평촌동 900-4,경기 안양시 동안구 평촌대로 136,126.9600482,37.38436309,031-381-3738,음식점 > 간식 > 도넛 > 던킨,http://place.map.kakao.com/1547068750,,,던킨,0,"126.678125,37.32333333333334,127.009375,37.67666666666666"
683371548,던킨 관악현대점,서울 관악구 봉천동 496-5,서울 관악구 은천로 105,126.9470582,37.48715218,02-877-0285,음식점 > 간식 > 도넛 > 던킨,http://place.map.kakao.com/683371548,,,던킨,0,"126.678125,37.32333333333334,127.009375,37.67666666666666"
1070426795,던킨 동대문시장점,서울 종로구 종로6가 262-1,서울 종로구 종로 266,127.0073634,37.57018031,02-2278-9090,음식점 > 간식 > 도넛 > 던킨,http://place.map.kakao.com/1070426795,,,던킨,0,"126.678125,37.32333333333334,127.009375,37.67666666666666"
12323183,던킨 인천구월로점,인천 남동구 구월동 26,인천 남동구 용천로 68,126.7148607,37.4556478,032-473-7755,음식점 > 간식 > 도넛 > 던킨,http://place.map.kakao.com/12323183,,,던킨,0,"126.678125,37.32333333333334,127.009375,37.67666666666666"
10314881,던킨 인천작전점,인천 계양구 작전동 438-1,인천 계양구 계양대로 45,126.7221718,37.52780144,032-552-8337,음식점 > 간식 > 도넛 > 던킨,http://place.map.kakao.com/10314881,,,던킨,0,"126.678125,37.32333333333334,127.009375,37.67666666666666"
920938025,던킨 부천시청점,경기 부천시 원미구 중동 1149,경기 부천시 원미구 길주로 246,126.7695807,37.5034773,032-325-6777,음식점 > 간식 > 도넛 > 던킨,http://place.map.kakao.com/920938025,,,던킨,0,"126.678125,37.32333333333334,127.009375,37.67666666666666"
18996502,던킨 공덕역사점,서울 마포구 도화동 25-13,서울 마포구 마포대로 92,126.9513912,37.54281715,02-704-7890,음식점 > 간식 > 도넛 > 던킨,http://place.map.kakao.com/18996502,,,던킨,0,"126.678125,37.32333333333334,127.009375,37.67666666666666"
868268595,던킨 김포공항국내선점,서울 강서구 공항동 1373,서울 강서구 하늘길 112,126.8038872,37.55864439,02-2663-2449,음식점 > 간식 > 도넛 > 던킨,http://place.map.kakao.com/868268595,,,던킨,0,"126.678125,37.32333333333334,127.009375,37.67666666666666"
2006335673,던킨 아현뉴타운점,서울 마포구 아현동 618-19,서울 마포구 마포대로 173-14,126.9536254,37.55099822,02-362-6755,음식점 > 간식 > 도넛 > 던킨,http://place.map.kakao.com/2006335673,,,던킨,0,"126.678125,37.32333333333334,127.009375,37.67666666666666"
1919117697,던킨 고양더자인병원점,경기 고양시 덕양구 행신동 995,경기 고양시 덕양구 중앙로 555,126.8353251,37.62318538,031-930-3111,음식점 > 간식 > 도넛 > 던킨,http://place.map.kakao.com/1919117697,,,던킨,0,"126.678125,37.32333333333334,127.009375,37.67666666666666"
739754432,던킨 안양역점,경기 안양시 만안구 안양동 674-228,경기 안양시 만안구 안양로314번길 20,126.9215565,37.40049374,031-443-1002,음식점 > 간식 > 도넛 > 던킨,http://place.map.kakao.com/739754432,,,던킨,0,"126.678125,37.32333333333334,127.009375,37.67666666666666"
7834811,던킨 화정역점,경기 고양시 덕양구 화정동 969-1,경기 고양시 덕양구 화정로 53,126.8318899,37.63504651,031-962-3269,음식점 > 간식 > 도넛 > 던킨,http://place.map.kakao.com/7834811,,,던킨,0,"126.678125,37.32333333333334,127.009375,37.67666666666666"
713911182,던킨 광명철산점,경기 광명시 철산동 382,경기 광명시 철산로 24,126.8690027,37.4759973,02-2688-1777,음식점 > 간식 > 도넛 > 던킨,http://place.map.kakao.com/713911182,,,던킨,0,"126.678125,37.32333333333334,127.009375,37.67666666666666"
12323399,던킨 백석역점,경기 고양시 일산동구 백석동 1331,경기 고양시 일산동구 중앙로 1047,126.7875138,37.64302793,031-908-1649,음식점 > 간식 > 도넛 > 던킨,http://place.map.kakao.com/12323399,,,던킨,0,"126.678125,37.32333333333334,127.009375,37.67666666666666"
13042806,던킨 공항철도서울역사점,서울 중구 봉래동2가 122-11,서울 중구 한강대로 405,126.9699406,37.55390922,02-312-3202,음식점 > 간식 > 도넛 > 던킨,http://place.map.kakao.com/13042806,,,Dunkin' Donuts,0,"126.678125,37.32333333333334,127.009375,37.67666666666666"
13042087,던킨 행신역점,경기 고양시 덕양구 행신동 707,경기 고양시 덕양구 무원로6번길 36,126.8338705,37.61410139,031-970-3240,음식점 > 간식 > 도넛 > 던킨,http://place.map.kakao.com/13042087,,,Dunkin' Donuts,0,"126.678125,37.32333333333334,127.009375,37.67666666666666"
1897076769,던킨 안양호계점,경기 안양시 동안구 호계동 943-16,경기 안양시 동안구 경수대로 597,126.9559408,37.37575955,031-457-0345,음식점 > 간식 > 도넛 > 던킨,http://place.map.kakao.com/1897076769,,,Dunkin' Donuts,0,"126.678125,37.32333333333334,127.009375,37.67666666666666"
1171767882,던킨 용산센트럴점,서울 용산구 한강로2가 422,서울 용산구 한강대로 95,126.9666529,37.5288191,02-790-8812,음식점 > 간식 > 도넛 > 던킨,http://place.map.kakao.com/1171767882,,,Dunkin' Donuts,0,"126.678125,37.32333333333334,127.009375,37.67666666666666"
7837243,던킨 염창점,서울 강서구 염창동 252-5,서울 강서구 양천로 723,126.8764381,37.54948576,02-2659-3137,음식점 > 간식 > 도넛 > 던킨,http://place.map.kakao.com/7837243,,,Dunkin' Donuts,0,"126.678125,37.32333333333334,127.009375,37.67666666666666"
7837251,던킨 부평삼산점,인천 부평구 삼산동 461-4,인천 부평구 길주로 659,126.736143,37.50704108,032-361-3321,음식점 > 간식 > 도넛 > 던킨,http://place.map.kakao.com/7837251,,,Dunkin' Donuts,0,"126.678125,37.32333333333334,127.009375,37.67666666666666"
2034195860,던킨 서울대병원점,서울 종로구 연건동 28-21,서울 종로구 대학로 101,126.9989868,37.5793842,02-763-3352,음식점 > 간식 > 도넛 > 던킨,http://place.map.kakao.com/2034195860,,,Dunkin' Donuts,0,"126.678125,37.32333333333334,127.009375,37.67666666666666"
12323188,던킨 연세안과병원점,서울 서대문구 신촌동 134,서울 서대문구 연세로 50-1,126.93801,37.56143361,02-2227-8016,음식점 > 간식 > 도넛 > 던킨,http://place.map.kakao.com/12323188,,,Dunkin' Donuts,0,"126.678125,37.32333333333334,127.009375,37.67666666666666"
13042016,던킨 시흥은행점,경기 시흥시 은행동 534-1,경기 시흥시 은행로155번길 11,126.7982001,37.44431807,031-312-5227,음식점 > 간식 > 도넛 > 던킨,http://place.map.kakao.com/13042016,,,Dunkin' Donuts,0,"126.678125,37.32333333333334,127.009375,37.67666666666666"
12323337,던킨 신도림홈플러스점,서울 구로구 신도림동 337,서울 구로구 경인로 661,126.8883548,37.50968059,070-8866-4345,음식점 > 간식 > 도넛 > 던킨,http://place.map.kakao.com/12323337,,,Dunkin' Donuts,0,"126.678125,37.32333333333334,127.009375,37.67666666666666"
1210418140,던킨 인천서창점,인천 남동구 서창동 664-1,인천 남동구 서창남로 52,126.7504496,37.42422799,032-464-1208,음식점 > 간식 > 도넛 > 던킨,http://place.map.kakao.com/1210418140,,,Dunkin' Donuts,0,"126.678125,37.32333333333334,127.009375,37.67666666666666"
27529325,던킨 센트럴시티K점,서울 서초구 반포동 19-3,서울 서초구 신반포로 176,127.0045386,37.50441643,02-6282-5722,음식점 > 간식 > 도넛 > 던킨,http://place.map.kakao.com/27529325,,,Dunkin' Donuts,0,"126.678125,37.32333333333334,127.009375,37.67666666666666"
1365881514,던킨 목동남로점,서울 구로구 고척동 186-5,서울 구로구 목동남로 6,126.8606362,37.50676252,,음식점 > 간식 > 도넛 > 던킨,http://place.map.kakao.com/1365881514,,,Dunkin' Donuts,0,"126.678125,37.32333333333334,127.009375,37.67666666666666"
142872252,던킨 구파발역점,서울 은평구 진관동 70-1,서울 은평구 진관2로 15-40,126.9189642,37.6382018,02-357-1009,음식점 > 간식 > 도넛 > 던킨,http://place.map.kakao.com/142872252,,,Dunkin' Donuts,0,"126.678125,37.32333333333334,127.009375,37.67666666666666"
13042031,던킨 웅진플레이도시점,경기 부천시 원미구 상동 572-1,경기 부천시 원미구 조마루로 2,126.7441813,37.50034179,032-324-2221,음식점 > 간식 > 도넛 > 던킨,http://place.map.kakao.com/13042031,,,Dunkin' Donuts,0,"126.678125,37.32333333333334,127.009375,37.67666666666666"
10314334,던킨 연대동문회관점,서울 서대문구 신촌동 134,서울 서대문구 연세로 50,126.9427264,37.56277398,02-313-6238,음식점 > 간식 > 도넛 > 던킨,http://place.map.kakao.com/10314334,,,Dunkin' Donuts,0,"126.678125,37.32333333333334,127.009375,37.67666666666666"
181006626,던킨 인천남동공단점,인천 남동구 논현동 444,인천 남동구 남동대로 258,126.7003407,37.40746352,070-8707-4574,음식점 > 간식 > 도넛 > 던킨,http://place.map.kakao.com/181006626,,,Dunkin' Donuts,0,"126.678125,37.32333333333334,127.009375,37.67666666666666"
12323614,던킨 영등포역사점,서울 영등포구 영등포동 618-496,서울 영등포구 경인로 846,126.9074733,37.51573023,02-2677-8249,음식점 > 간식 > 도넛 > 던킨,http://place.map.kakao.com/12323614,,,Dunkin' Donuts,0,"126.678125,37.32333333333334,127.009375,37.67666666666666"
12323196,던킨 시흥홈플러스점,서울 금천구 시흥동 992-47,서울 금천구 시흥대로 201,126.9009811,37.4519462,02-808-2019,음식점 > 간식 > 도넛 > 던킨,http://place.map.kakao.com/12323196,,,Dunkin' Donuts,0,"126.678125,37.32333333333334,127.009375,37.67666666666666"
356353858,던킨 부영태평빌딩점,서울 중구 태평로2가 150,서울 중구 세종대로 55,126.9750772,37.56155267,02-3789-9447,음식점 > 간식 > 도넛 > 던킨,http://place.map.kakao.com/356353858,,,Dunkin' Donuts,0,"126.678125,37.32333333333334,127.009375,37.67666666666666"
7837416,던킨 일산후곡점,경기 고양시 일산서구 일산동 1078,경기 고양시 일산서구 일산로 550,126.7671878,37.67824941,031-915-2006,음식점 > 간식 > 도넛 > 던킨,http://place.map.kakao.com/7837416,,,던킨,0,"126.678125,37.656666666666666,127.009375,38.01"
1452363834,던킨 파주운정점,경기 파주시 목동동 939-3,경기 파주시 청암로17번길 55,126.7348156,37.72794268,031-944-8988,음식점 > 간식 > 도넛 > 던킨,http://place.map.kakao.com/1452363834,,,던킨,0,"126.678125,37.656666666666666,127.009375,38.01"
12323835,던킨 일산중산점,경기 고양시 일산동구 중산동 1688,경기 고양시 일산동구 고양대로 762,126.7812463,37.68183968,031-977-6442,음식점 > 간식 > 도넛 > 던킨,http://place.map.kakao.com/12323835,,,던킨,0,"126.678125,37.656666666666666,127.009375,38.01"
1303860677,던킨 운정야당점,경기 파주시 야당동 1070,경기 파주시 경의로 1080,126.7597444,37.71379593,031-945-6448,음식점 > 간식 > 도넛 > 던킨,http://place.map.kakao.com/1303860677,,,던킨,0,"126.678125,37.656666666666666,127.009375,38.01"
7837822,던킨 파주금릉점,경기 파주시 금촌동 986-2,경기 파주시 금빛로 27,126.7663983,37.75210677,031-957-8978,음식점 > 간식 > 도넛 > 던킨,http://place.map.kakao.com/7837822,,,던킨,0,"126.678125,37.656666666666666,127.009375,38.01"
213102280,던킨 파주문산점,경기 파주시 문산읍 문산리 8-9,경기 파주시 문산읍 문산로 43,126.7839144,37.85754324,031-994-1991,음식점 > 간식 > 도넛 > 던킨,http://place.map.kakao.com/213102280,,,던킨,0,"126.678125,37.656666666666666,127.009375,38.01"
1847508970,던킨 운정로데오점,경기 파주시 와동동 1442,경기 파주시 경의로1240번길 14-39,126.7620438,37.7260682,031-949-2224,음식점 > 간식 > 도넛 > 던킨,http://place.map.kakao.com/1847508970,,,던킨,0,"126.678125,37.656666666666666,127.009375,38.01"
730292569,던킨 파주임진각점,경기 파주시 문산읍 마정리 1360-44,경기 파주시 문산읍 임진각로 148-73,126.7402852,37.89142528,031-953-0111,음식점 > 간식 > 도넛 > 던킨,http://place.map.kakao.com/730292569,,,던킨,0,"126.678125,37.656666666666666,127.009375,38.01"
12323826,던킨 일산풍동점,경기 고양시 일산동구 풍동 1275,경기 고양시 일산동구 숲속마을1로 76,126.8003278,37.66789666,031-904-3511,음식점 > 간식 > 도넛 > 던킨,http://place.map.kakao.com/12323826,,,던킨,0,"126.678125,37.656666666666666,127.009375,38.01"
13042030,던킨 일산식사점,경기 고양시 일산동구 식사동 1582-1,경기 고양시 일산동구 위시티로 32,126.8086962,37.67531477,031-966-1101,음식점 > 간식 > 도넛 > 던킨,http://place.map.kakao.com/13042030,,,던킨,0,"126.678125,37.656666666666666,127.009375,38.01"
1230794858,던킨 주엽롯데마트점,경기 고양시 일산서구 주엽동 15,경기 고양시 일산서구 중앙로 1496,126.7552394,37.67318605,031-922-6863,음식점 > 간식 > 도넛 > 던킨,http://place.map.kakao.com/1230794858,,,던킨,0,"126.678125,37.656666666666666,127.009375,38.01"
1447588365,던킨 운정초롱꽃마을점,경기 파주시 동패동 2125-3,경기 파주시 양지로 131,126.7233753,37.70974202,031-943-5020,음식점 > 간식 > 도넛 > 던킨,http://place.map.kakao.com/1447588365,,,던킨,0,"126.678125,37.656666666666666,127.009375,38.01"
1532548679,던킨도너츠 킨텍스1전시장점,경기 고양시 일산서구 대화동 2600,경기 고양시 일산서구 킨텍스로 217-60,126.7462707,37.66893701,031-995-8307,음식점 > 간식 > 도넛 > 던킨,http://place.map.kakao.com/1532548679,,,던킨,0,"126.678125,37.656666666666666,127.009375,38.01"
12323376,던킨 대화역점,경기 고양시 일산서구 대화동 2222-3,경기 고양시 일산서구 중앙로 1559,126.748204,37.67541828,031-925-0045,음식점 > 간식 > 도넛 > 던킨,http://place.map.kakao.com/12323376,,,던킨,0,"126.678125,37.656666666666666,127.009375,38.01"
809748025,던킨 파주운정이마트점,경기 파주시 동패동 1763,경기 파주시 한울로 123,126.745102,37.71038834,031-948-8978,음식점 > 간식 > 도넛 > 던킨,http://place.map.kakao.com/809748025,,,던킨,0,"126.678125,37.656666666666666,127.009375,38.01"
949632751,던킨 양주휴게소일산방향점,경기 양주시 장흥면 삼하리 250-16,경기 양주시 장흥면 수도권제1순환고속도로 58,126.9157932,37.67914468,0507-1304-7308,음식점 > 간식 > 도넛 > 던킨,http://place.map.kakao.com/949632751,,,던킨,0,"126.678125,37.656666666666666,127.009375,38.01"
19009056,던킨 파주교하점,경기 파주시 동패동 1695-4,경기 파주시 청석로 266,126.71765,37.72542335,031-943-6863,음식점 > 간식 > 도넛 > 던킨,http://place.map.kakao.com/19009056,,,던킨,0,"126.678125,37.656666666666666,127.009375,38.01"
21882600,던킨 고양하나로점,경기 고양시 일산서구 대화동 2324,경기 고양시 일산서구 대화로 362,126.7467499,37.68302481,031-922-8333,음식점 > 간식 > 도넛 > 던킨,http://place.map.kakao.com/21882600,,,던킨,0,"126.678125,37.656666666666666,127.009375,38.01"
27071558,던킨 전주아중점,전북특별자치도 전주시 덕진구 인후동1가 855-1,전북특별자치도 전주시 덕진구 무삼지로 76,127.1633038,35.83226217,063-246-0408,음식점 > 간식 > 도넛 > 던킨,http://place.map.kakao.com/27071558,,,던킨,0,"126.990625,35.656666666666666,127.321875,36.01"
1315938818,던킨 전주혁신의료타워점,전북특별자치도 완주군 이서면 갈산리 691,전북특별자치도 완주군 이서면 갈산로 46,127.0558699,35.83675016,063-244-0200,음식점 > 간식 > 도넛 > 던킨,http://place.map.kakao.com/1315938818,,,던킨,0,"126.990625,35.656666666666666,127.321875,36.01"
871320868,던킨 전주대점,전북특별자치도 전주시 완산구 효자동2가 1246-14,전북특별자치도 전주시 완산구 서원로 66,127.1016923,35.81343608,063-902-8700,음식점 > 간식 > 도넛 > 던킨,http://place.map.kakao.com/871320868,,,던킨,0,"126.990625,35.656666666666666,127.321875,36.01"
1358289069,던킨 전주고속터미널점,전북특별자치도 전주시 덕진구 금암동 767-2,전북특별자치도 전주시 덕진구 가리내로 70,127.1292637,35.83447744,063-273-2871,음식점 > 간식 > 도넛 > 던킨,http://place.map.kakao.com/1358289069,,,던킨,0,"126.990625,35.656666666666666,127.321875,36.01"
1774470067,던킨 전주효천점,전북특별자치도 전주시 완산구 효자동2가 778,전북특별자치도 전주시 완산구 천잠로 145,127.0991853,35.80035365,063-222-8022,음식점 > 간식 > 도넛 > 던킨,http://place.map.kakao.com/1774470067,,,던킨,0,"126.990625,35.656666666666666,127.321875,36.01"
1059693227,던킨 전주에코점,전북특별자치도 전주시 덕진구 송천동2가 1326-7,전북특별자치도 전주시 덕진구 세병로 28,127.127803,35.87394946,063-255-3114,음식점 > 간식 > 도넛 > 던킨,http://place.map.kakao.com/1059693227,,,던킨,0,"126.990625,35.656666666666666,127.321875,36.01"
1560985479,던킨 전주이마트점,전북특별자치도 전주시 완산구 서신동 767,전북특별자치도 전주시 완산구 당산로 111,127.1204475,35.83259035,070-4035-7704,음식점 > 간식 > 도넛 > 던킨,http://place.map.kakao.com/1560985479,,,던킨,0,"126.990625,35.656666666666666,127.321875,36.01"
565282609,던킨 전주효자홈플러스점,전북특별자치도 전주시 완산구 효자동1가 431-5,전북특별자치도 전주시 완산구 용머리로 31,127.1137485,35.80636119,063-227-1110,음식점 > 간식 > 도넛 > 던킨,http://place.map.kakao.com/565282609,,,던킨,0,"126.990625,35.656666666666666,127.321875,36.01"
12323267,던킨 전주송천점,전북특별자치도 전주시 덕진구 송천동1가 481-4,전북특별자치도 전주시 덕진구 송천중앙로 153,127.1211057,35.86079,063-906-2500,음식점 > 간식 > 도넛 > 던킨,http://place.map.kakao.com/12323267,,,던킨,0,"126.990625,35.656666666666666,127.321875,36.01"
1168426463,던킨 전주평화점,전북특별자치도 전주시 완산구 평화동2가 306-4,전북특별자치도 전주시 완산구 모악로 4688,127.1306679,35.78771757,063-223-3422,음식점 > 간식 > 도넛 > 던킨,http://place.map.kakao.com/1168426463,,,던킨,0,"126.990625,35.656666666666666,127.321875,36.01"
13042020,던킨 논산터미널점,충남 논산시 취암동 1045-1,충남 논산시 계백로 1000,127.0880075,36.2029324,041-734-8802,음식점 > 간식 > 도넛 > 던킨,http://place.map.kakao.com/13042020,,,던킨,0,"126.990625,35.99,127.321875,36.343333333333334"
949872390,던킨 충남계룡점,충남 계룡시 엄사면 엄사리 282,충남 계룡시 엄사면 엄사중앙로 66,127.2420612,36.2880739,042-551-0453,음식점 > 간식 > 도넛 > 던킨,http://place.map.kakao.com/949872390,,,던킨,0,"126.990625,35.99,127.321875,36.343333333333334"
22824212,던킨 탄천휴게소하행점,충남 공주시 탄천면 장선리 151-13,충남 공주시 탄천면 논산천안고속도로 27,127.0701323,36.31928568,041-854-3521,음식점 > 간식 > 도넛 > 던킨,http://place.map.kakao.com/22824212,,,던킨,0,"126.990625,35.99,127.321875,36.343333333333334"
1166728475,던킨 세종정부청사점,세종특별자치시 어진동 548,세종특별자치시 한누리대로 496,127.2620717,36.50767681,044-868-9303,음식점 > 간식 > 도넛 > 던킨,http://place.map.kakao.com/1166728475,,,던킨,0,"126.990625,36.32333333333334,127.321875,36.67666666666666"
995348771,던킨 세종고운점,세종특별자치시 고운동 2112,세종특별자치시 마음안1로 137,127.2343181,36.51975595,044-866-7758,음식점 > 간식 > 도넛 > 던킨,http://place.map.kakao.com/995348771,,,던킨,0,"126.990625,36.32333333333334,127.321875,36.67666666666666"
144135024,던킨 세종보람점,세종특별자치시 보람동 738,세종특별자치시 한누리대로 2165,127.2875441,36.47711581,070-7543-3594,음식점 > 간식 > 도넛 > 던킨,http://place.map.kakao.com/144135024,,,던킨,0,"126.990625,36.32333333333334,127.321875,36.67666666666666"
366520521,던킨 세종나성점,세종특별자치시 나성동 809,세종특별자치시 나성북로 30,127.2598603,36.48894843,044-216-6201,음식점 > 간식 > 도넛 > 던킨,http://place.map.kakao.com/366520521,,,던킨,0,"126.990625,36.32333333333334,127.321875,36.67666666666666"
138079808,던킨 대전노은점,대전 유성구 지족동 905-3,대전 유성구 노은로 150,127.31829,36.37297568,042-825-1528,음식점 > 간식 > 도넛 > 던킨,http://place.map.kakao.com/138079808,,,던킨,0,"126.990625,36.32333333333334,127.321875,36.67666666666666"
27529297,던킨 세종연구단지점,세종특별자치시 반곡동 850,세종특별자치시 시청대로 370,127.3051488,36.4953142,044-862-5520,음식점 > 간식 > 도넛 > 던킨,http://place.map.kakao.com/27529297,,,던킨,0,"126.990625,36.32333333333334,127.321875,36.67666666666666"
1175771239,던킨 세종아름점,세종특별자치시 아름동 1296,세종특별자치시 보듬3로 100,127.2487454,36.51183443,044-868-1225,음식점 > 간식 > 도넛 > 던킨,http://place.map.kakao.com/1175771239,,,던킨,0,"126.990625,36.32333333333334,127.321875,36.67666666666666"
1012488221,던킨 공주터미널점,충남 공주시 신관동 609,충남 공주시 신관로 74,127.1348615,36.46840865,041-855-0898,음식점 > 간식 > 도넛 > 던킨,http://place.map.kakao.com/1012488221,,,던킨,0,"126.990625,36.32333333333334,127.321875,36.67666666666666"
27529692,던킨 이인휴게소점,충남 공주시 이인면 이인리 4,충남 공주시 이인면 논산천안고속도로 32,127.0696365,36.35276401,041-856-8351,음식점 > 간식 > 도넛 > 던킨,http://place.map.kakao.com/27529692,,,던킨,0,"126.990625,36.32333333333334,127.321875,36.67666666666666"
446727705,던킨 천안청수점,충남 천안시 동남구 청당동 491,충남 천안시 동남구 청수4로 18,127.1526717,36.78351976,041-566-6168,음식점 > 간식 > 도넛 > 던킨,http://place.map.kakao.com/446727705,,,던킨,0,"126.990625,36.656666666666666,127.321875,37.01"
1725257002,던킨 천안신불당점,충남 천안시 서북구 불당동 1494,충남 천안시 서북구 불당26로 122,127.1086786,36.81939811,041-569-5671,음식점 > 간식 > 도넛 > 던킨,http://place.map.kakao.com/1725257002,,,던킨,0,"126.990625,36.656666666666666,127.321875,37.01"
1359418175,던킨 천안백석점,충남 천안시 서북구 백석동 946,충남 천안시 서북구 한들3로 78-3,127.1237022,36.83072207,041-551-1021,음식점 > 간식 > 도넛 > 던킨,http://place.map.kakao.com/1359418175,,,던킨,0,"126.990625,36.656666666666666,127.321875,37.01"
932746309,던킨 안성아양점,경기 안성시 석정동 383-4,경기 안성시 아양1길 18,127.2564866,37.00910352,031-676-0209,음식점 > 간식 > 도넛 > 던킨,http://place.map.kakao.com/932746309,,,던킨,0,"126.990625,36.656666666666666,127.321875,37.01"
10304518,던킨 천안신방점,충남 천안시 서북구 쌍용동 393,충남 천안시 서북구 충무로 178,127.1270051,36.79443088,041-579-7077,음식점 > 간식 > 도넛 > 던킨,http://place.map.kakao.com/10304518,,,던킨,0,"126.990625,36.656666666666666,127.321875,37.01"
107789054,던킨 아산배방점,충남 아산시 배방읍 공수리 1545,충남 아산시 배방읍 모산로 97,127.053311,36.77414587,041-544-1217,음식점 > 간식 > 도넛 > 던킨,http://place.map.kakao.com/107789054,,,던킨,0,"126.990625,36.656666666666666,127.321875,37.01"
562221984,던킨 평택비전점,경기 평택시 비전동 1103,경기 평택시 비전5로 20-18,127.1136014,36.99887015,031-655-1103,음식점 > 간식 > 도넛 > 던킨,http://place.map.kakao.com/562221984,,,던킨,0,"126.990625,36.656666666666666,127.321875,37.01"
1857397828,던킨 천안순천향대병원점,충남 천안시 동남구 봉명동 223-17,충남 천안시 동남구 순천향4길 40,127.1356537,36.80202942,041-574-1106,음식점 > 간식 > 도넛 > 던킨,http://place.map.kakao.com/1857397828,,,던킨,0,"126.990625,36.656666666666666,127.321875,37.01"
853119734,던킨 아산탕정점,충남 아산시 탕정면 갈산리 843,충남 아산시 탕정면 탕정면로 54-3,127.0634549,36.79843134,041-425-1413,음식점 > 간식 > 도넛 > 던킨,http://place.map.kakao.com/853119734,,,던킨,0,"126.990625,36.656666666666666,127.321875,37.01"
1666703558,던킨 아산탕정역점,충남 아산시 탕정면 매곡리 1206,충남 아산시 탕정면 한들물빛6로 46,127.0880319,36.78867195,041-549-2022,음식점 > 간식 > 도넛 > 던킨,http://place.map.kakao.com/1666703558,,,던킨,0,"126.990625,36.656666666666666,127.321875,37.01"
1440096776,던킨 천안성성점,충남 천안시 서북구 성성동 664,충남 천안시 서북구 성성8로 14-5,127.1289785,36.84069352,041-555-8181,음식점 > 간식 > 도넛 > 던킨,http://place.map.kakao.com/1440096776,,,던킨,0,"126.990625,36.656666666666666,127.321875,37.01"
13042029,던킨 안성공도점,경기 안성시 공도읍 만정리 820-2,경기 안성시 공도읍 공도로 83,127.1703962,36.99978799,0507-2087-1220,음식점 > 간식 > 도넛 > 던킨,http://place.map.kakao.com/13042029,,,던킨,0,"126.990625,36.656666666666666,127.321875,37.01"
12323432,던킨 평택민자역사점,경기 평택시 평택동 185-568,경기 평택시 평택로 51,127.0852852,36.99070212,031-646-6350,음식점 > 간식 > 도넛 > 던킨,http://place.map.kakao.com/12323432,,,던킨,0,"126.990625,36.656666666666666,127.321875,37.01"
141856501,던킨 아산충무병원점,충남 아산시 모종동 432-2,충남 아산시 문화로 381,127.0199466,36.77929251,041-541-0222,음식점 > 간식 > 도넛 > 던킨,http://place.map.kakao.com/141856501,,,던킨,0,"126.990625,36.656666666666666,127.321875,37.01"
401774245,던킨 천안터미널점,충남 천안시 동남구 신부동 354-1,충남 천안시 동남구 만남로 43,127.156728,36.8196824,041-565-1447,음식점 > 간식 > 도넛 > 던킨,http://place.map.kakao.com/401774245,,,던킨,0,"126.990625,36.656666666666666,127.321875,37.01"
244277683,던킨 평택용죽점,경기 평택시 용이동 684-1,경기 평택시 용죽3로 24,127.1253368,36.99411774,031-655-3555,음식점 > 간식 > 도넛 > 던킨,http://place.map.kakao.com/244277683,,,던킨,0,"126.990625,36.656666666666666,127.321875,37.01"
19083210,던킨 천안서부점,충남 천안시 동남구 대흥동 57-1,충남 천안시 동남구 대흥로 239,127.1464059,36.80934451,041-621-1025,음식점 > 간식 > 도넛 > 던킨,http://place.map.kakao.com/19083210,,,던킨,0,"126.990625,36.656666666666666,127.321875,37.01"
374346098,던킨 천안신부점,충남 천안시 동남구 신부동 354-1,충남 천안시 동남구 만남로 43,127.1544909,36.81914917,041-553-8377,음식점 > 간식 > 도넛 > 던킨,http://place.map.kakao.com/374346098,,,던킨,0,"126.990625,36.656666666666666,127.321875,37.01"
261903559,던킨 망향휴게소점,충남 천안시 서북구 성거읍 요방리 121,충남 천안시 서북구 성거읍 돌다리길 23-37,127.180987,36.85547952,041-557-4000,음식점 > 간식 > 도넛 > 던킨,http://place.map.kakao.com/261903559,,,던킨,0,"126.990625,36.656666666666666,127.321875,37.01"
27529753,던킨 입장휴게소점,충남 천안시 서북구 입장면 가산리 362-2,충남 천안시 서북구 입장면 연곡길 407,127.1927186,36.94303773,041-588-7868,음식점 > 간식 > 도넛 > 던킨,http://place.map.kakao.com/27529753,,,던킨,0,"126.990625,36.656666666666666,127.321875,37.01"
1536832666,던킨 천안휴게소점,충남 천안시 동남구 수신면 신풍리 447-3,충남 천안시 동남구 수신면 성남로 793-40,127.2639746,36.73021483,041-627-2054,음식점 > 간식 > 도넛 > 던킨,http://place.map.kakao.com/1536832666,,,던킨,0,"126.990625,36.656666666666666,127.321875,37.01"
1195752015,던킨 천안역사점,충남 천안시 동남구 대흥동 57-1,충남 천안시 동남구 대흥로 239,127.1468228,36.81232036,041-621-1208,음식점 > 간식 > 도넛 > 던킨,http://place.map.kakao.com/1195752015,,,던킨,0,"126.990625,36.656666666666666,127.321875,37.01"
79222622,던킨 평택험프리스DSC점,경기 평택시 팽성읍 안정리 113-276,경기 평택시 팽성읍 안정순환로 118,127.0431555,36.95909679,070-7597-7320,음식점 > 간식 > 도넛 > 던킨,http://place.map.kakao.com/79222622,,,던킨,0,"126.990625,36.656666666666666,127.321875,37.01"
79219409,던킨 평택험프리스모닝캄점,경기 평택시 팽성읍 안정리 113-276,경기 평택시 팽성읍 안정순환로 118,127.0431555,36.95909679,070-7597-7290,음식점 > 간식 > 도넛 > 던킨,http://place.map.kakao.com/79219409,,,던킨,0,"126.990625,36.656666666666666,127.321875,37.01"
949173234,던킨 수원매교점,경기 수원시 권선구 세류동 97-113,경기 수원시 권선구 효원로94번길 1,127.0122153,37.26616271,031-223-0010,음식점 > 간식 > 도넛 > 던킨,http://place.map.kakao.com/949173234,,,던킨,0,"126.990625,36.99,127.321875,37.343333333333334"
892359850,던킨 성복역파크나인점,경기 용인시 수지구 성복동 814,경기 용인시 수지구 성복1로 13,127.076448,37.31042649,031-262-0618,음식점 > 간식 > 도넛 > 던킨,http://place.map.kakao.com/892359850,,,던킨,0,"126.990625,36.99,127.321875,37.343333333333334"
854913343,던킨 안성의료원점,경기 안성시 당왕동 437-2,경기 안성시 남파로 101,127.2615007,37.01651386,031-676-2888,음식점 > 간식 > 도넛 > 던킨,http://place.map.kakao.com/854913343,,,던킨,0,"126.990625,36.99,127.321875,37.343333333333334"
544841122,던킨 수원인계점,경기 수원시 팔달구 인계동 1120,경기 수원시 팔달구 권광로 184,127.0330429,37.26400974,070-4288-5887,음식점 > 간식 > 도넛 > 던킨,http://place.map.kakao.com/544841122,,,던킨,0,"126.990625,36.99,127.321875,37.343333333333334"
133629379,던킨 동탄나루마을점,경기 화성시 반송동 218-2,경기 화성시 동탄솔빛로 64,127.0746839,37.19411638,031-613-2970,음식점 > 간식 > 도넛 > 던킨,http://place.map.kakao.com/133629379,,,던킨,0,"126.990625,36.99,127.321875,37.343333333333334"
1460941786,던킨 죽전보정점,경기 용인시 기흥구 보정동 1266-1,경기 용인시 기흥구 보정로 117,127.1137501,37.31999072,031-272-9900,음식점 > 간식 > 도넛 > 던킨,http://place.map.kakao.com/1460941786,,,던킨,0,"126.990625,36.99,127.321875,37.343333333333334"
426167989,던킨 수원망포점,경기 수원시 영통구 영통동 977-4,경기 수원시 영통구 영통로217번길 6,127.0568264,37.24702055,031-202-0100,음식점 > 간식 > 도넛 > 던킨,http://place.map.kakao.com/426167989,,,던킨,0,"126.990625,36.99,127.321875,37.343333333333334"
13042075,던킨 오산세교점,경기 오산시 금암동 512-4,경기 오산시 수청로 188,127.0458895,37.17727322,031-377-1173,음식점 > 간식 > 도넛 > 던킨,http://place.map.kakao.com/13042075,,,던킨,0,"126.990625,36.99,127.321875,37.343333333333334"
89508923,던킨 용인쥬네브점,경기 용인시 기흥구 중동 833,경기 용인시 기흥구 동백죽전대로 444,127.1521202,37.27811432,031-679-0744,음식점 > 간식 > 도넛 > 던킨,http://place.map.kakao.com/89508923,,,던킨,0,"126.990625,36.99,127.321875,37.343333333333334"
1976633926,던킨 용인역북점,경기 용인시 처인구 역북동 753-2,경기 용인시 처인구 명지로60번길 8-14,127.1881082,37.23210494,031-322-1123,음식점 > 간식 > 도넛 > 던킨,http://place.map.kakao.com/1976633926,,,던킨,0,"126.990625,36.99,127.321875,37.343333333333334"
908347731,던킨 수지구청점,경기 용인시 수지구 풍덕천동 1082-6,경기 용인시 수지구 수지로296번길 51-10,127.0952985,37.32177485,031-263-2900,음식점 > 간식 > 도넛 > 던킨,http://place.map.kakao.com/908347731,,,던킨,0,"126.990625,36.99,127.321875,37.343333333333334"
14661287,던킨 용인마북점,경기 용인시 기흥구 마북동 174-3,경기 용인시 기흥구 마북로 152,127.1234967,37.30351455,031-281-2220,음식점 > 간식 > 도넛 > 던킨,http://place.map.kakao.com/14661287,,,던킨,0,"126.990625,36.99,127.321875,37.343333333333334"
1585195316,던킨 평택동삭점,경기 평택시 동삭동 849-2,경기 평택시 상서재로2길 56-10,127.1034273,37.01522866,031-654-1312,음식점 > 간식 > 도넛 > 던킨,http://place.map.kakao.com/1585195316,,,던킨,0,"126.990625,36.99,127.321875,37.343333333333334"
7837819,던킨 평택서정점,경기 평택시 서정동 818-36,경기 평택시 관광특구로 19,127.0610457,37.06714919,031-611-7359,음식점 > 간식 > 도넛 > 던킨,http://place.map.kakao.com/7837819,,,던킨,0,"126.990625,36.99,127.321875,37.343333333333334"
2086060162,던킨 고덕로데오점,경기 평택시 고덕동 1886-3,경기 평택시 고덕갈평5길 28,127.0482182,37.05655488,031-611-1161,음식점 > 간식 > 도넛 > 던킨,http://place.map.kakao.com/2086060162,,,던킨,0,"126.990625,36.99,127.321875,37.343333333333334"
405137738,던킨 용인동천점,경기 용인시 수지구 동천동 946-4,경기 용인시 수지구 손곡로 107,127.0906977,37.3359562,031-264-7477,음식점 > 간식 > 도넛 > 던킨,http://place.map.kakao.com/405137738,,,던킨,0,"126.990625,36.99,127.321875,37.343333333333334"
1911774693,던킨 수원컨벤션센터점,경기 수원시 영통구 하동 1017,경기 수원시 영통구 광교중앙로 140,127.0594469,37.28582893,031-303-6901,음식점 > 간식 > 도넛 > 던킨,http://place.map.kakao.com/1911774693,,,던킨,0,"126.990625,36.99,127.321875,37.343333333333334"
12323408,던킨 용인둔전점,경기 용인시 처인구 포곡읍 둔전리 158,경기 용인시 처인구 포곡읍 포곡로 121,127.2184635,37.27016062,031-334-0327,음식점 > 간식 > 도넛 > 던킨,http://place.map.kakao.com/12323408,,,던킨,0,"126.990625,36.99,127.321875,37.343333333333334"
12323416,던킨 수원터미널점,경기 수원시 권선구 권선동 1189,경기 수원시 권선구 경수대로 270,127.0198291,37.25108723,031-226-9050,음식점 > 간식 > 도넛 > 던킨,http://place.map.kakao.com/12323416,,,던킨,0,"126.990625,36.99,127.321875,37.343333333333334"
345350931,던킨 평택고덕점,경기 평택시 고덕동 2088-10,경기 평택시 고덕여염12길 184,127.0520442,37.04183691,031-668-5578,음식점 > 간식 > 도넛 > 던킨,http://place.map.kakao.com/345350931,,,던킨,0,"126.990625,36.99,127.321875,37.343333333333334"
132699611,던킨 오산이마트점,경기 오산시 원동 360-6,경기 오산시 경기대로 181,127.0726898,37.14065162,031-377-8037,음식점 > 간식 > 도넛 > 던킨,http://place.map.kakao.com/132699611,,,던킨,0,"126.990625,36.99,127.321875,37.343333333333334"
337098026,던킨 수원월드컵점,경기 수원시 팔달구 우만동 산 5-1,경기 수원시 팔달구 창룡대로210번길 41,127.0350267,37.2901069,031-254-1588,음식점 > 간식 > 도넛 > 던킨,http://place.map.kakao.com/337098026,,,던킨,0,"126.990625,36.99,127.321875,37.343333333333334"
1927349573,던킨 동탄호수공원점,경기 화성시 산척동 728-5,경기 화성시 동탄순환대로 127-9,127.1072811,37.16655332,031-378-8885,음식점 > 간식 > 도넛 > 던킨,http://place.map.kakao.com/1927349573,,,던킨,0,"126.990625,36.99,127.321875,37.343333333333334"
1668459663,던킨 동탄역점,경기 화성시 오산동 969-3,경기 화성시 동탄대로 489,127.098414,37.19735905,031-376-6229,음식점 > 간식 > 도넛 > 던킨,http://place.map.kakao.com/1668459663,,,던킨,0,"126.990625,36.99,127.321875,37.343333333333334"
24530172,던킨 오산휴게소상행점,경기 오산시 지곶동 산 60,경기 오산시 수도권제2순환고속도로 13,127.0365417,37.17900649,031-370-5570,음식점 > 간식 > 도넛 > 던킨,http://place.map.kakao.com/24530172,,,던킨,0,"126.990625,36.99,127.321875,37.343333333333334"
261252834,던킨 동탄제일병원점,경기 화성시 석우동 43,경기 화성시 삼성1로 130,127.0792532,37.21548184,031-8015-5883,음식점 > 간식 > 도넛 > 던킨,http://place.map.kakao.com/261252834,,,던킨,0,"126.990625,36.99,127.321875,37.343333333333334"
12323813,던킨 기흥휴게소부산방향점,경기 용인시 기흥구 공세동 260-1,경기 용인시 기흥구 공세로 173,127.1044778,37.23540246,031-286-9956,음식점 > 간식 > 도넛 > 던킨,http://place.map.kakao.com/12323813,,,던킨,0,"126.990625,36.99,127.321875,37.343333333333334"
1807098155,던킨 동탄하나로점,경기 화성시 영천동 603-1,경기 화성시 동탄순환대로27길 30,127.1043569,37.20816027,031-378-8802,음식점 > 간식 > 도넛 > 던킨,http://place.map.kakao.com/1807098155,,,던킨,0,"126.990625,36.99,127.321875,37.343333333333334"
1326323652,던킨 기흥삼성전자K1점,경기 용인시 기흥구 농서동 산 24,경기 용인시 기흥구 삼성로 1,127.0801855,37.22887079,031-8000-3131,음식점 > 간식 > 도넛 > 던킨,http://place.map.kakao.com/1326323652,,,던킨,0,"126.990625,36.99,127.321875,37.343333333333334"
1238654770,던킨 병점홈플러스점,경기 화성시 병점동 399-4,경기 화성시 경기대로 985,127.036753,37.20374574,031-237-0329,음식점 > 간식 > 도넛 > 던킨,http://place.map.kakao.com/1238654770,,,던킨,0,"126.990625,36.99,127.321875,37.343333333333334"
159260066,던킨 죽전역사점,경기 용인시 수지구 죽전동 1286,경기 용인시 수지구 포은대로 530,127.1072976,37.32530924,070-8888-3174,음식점 > 간식 > 도넛 > 던킨,http://place.map.kakao.com/159260066,,,던킨,0,"126.990625,36.99,127.321875,37.343333333333334"
13042084,던킨 화성삼성전자2호점,경기 화성시 반월동 948,경기 화성시 삼성전자로 1,127.0638176,37.22139033,031-325-6002,음식점 > 간식 > 도넛 > 던킨,http://place.map.kakao.com/13042084,,,던킨,0,"126.990625,36.99,127.321875,37.343333333333334"
1956613656,던킨 흥덕이마트점,경기 용인시 기흥구 영덕동 985-3,경기 용인시 기흥구 흥덕중앙로 60,127.0734815,37.27592764,070-8657-3412,음식점 > 간식 > 도넛 > 던킨,http://place.map.kakao.com/1956613656,,,던킨,0,"126.990625,36.99,127.321875,37.343333333333334"
139139454,던킨 평택고덕궁리점,경기 평택시 고덕면 궁리 72-33,경기 평택시 고덕면 궁2길 68-1,127.033999,37.01777476,031-667-4959,음식점 > 간식 > 도넛 > 던킨,http://place.map.kakao.com/139139454,,,던킨,0,"126.990625,36.99,127.321875,37.343333333333334"
1988877449,던킨 한국외대글로벌캠퍼스점,경기 용인시 처인구 모현읍 왕산리 산 55-4,경기 용인시 처인구 모현읍 외대로 81,127.2655023,37.3373915,,음식점 > 간식 > 도넛 > 던킨,http://place.map.kakao.com/1988877449,,,던킨,0,"126.990625,36.99,127.321875,37.343333333333334"
12323309,던킨 용인휴게소상행점,경기 용인시 처인구 고림동 81-2,경기 용인시 처인구 주북로 66-14,127.2388855,37.24819615,0507-1365-3660,음식점 > 간식 > 도넛 > 던킨,http://place.map.kakao.com/12323309,,,던킨,0,"126.990625,36.99,127.321875,37.343333333333334"
1322209527,던킨 삼성미래기술캠퍼스점,경기 수원시 영통구 매탄동 560,경기 수원시 영통구 삼성로 130,127.0534621,37.25205175,031-8061-5914,음식점 > 간식 > 도넛 > 던킨,http://place.map.kakao.com/1322209527,,,던킨,0,"126.990625,36.99,127.321875,37.343333333333334"
616021738,던킨 오산휴게소하행점,경기 오산시 지곶동 산 58-1,경기 오산시 수도권제2순환고속도로 13,127.0363323,37.17901196,031-370-5519,음식점 > 간식 > 도넛 > 던킨,http://place.map.kakao.com/616021738,,,던킨,0,"126.990625,36.99,127.321875,37.343333333333334"
402974992,던킨 용인한숲시티점,경기 용인시 처인구 남사읍 완장리 954,경기 용인시 처인구 남사읍 한숲로 84,127.1729388,37.15587476,031-321-4662,음식점 > 간식 > 도넛 > 던킨,http://place.map.kakao.com/402974992,,,Dunkin' Donuts,0,"126.990625,36.99,127.321875,37.343333333333334"
12323804,던킨 오산휴게소동탄방향점,경기 오산시 금암동 산 41-2,경기 오산시 수도권제2순환고속도로 14,127.0383701,37.17589457,031-370-5519,음식점 > 간식 > 도넛 > 던킨,http://place.map.kakao.com/12323804,,,Dunkin' Donuts,0,"126.990625,36.99,127.321875,37.343333333333334"
12323169,던킨 용인휴게소강릉방향점,경기 용인시 처인구 고림동 12-6,경기 용인시 처인구 주북로94번길 30-1,127.2423722,37.24553189,0507-1477-3663,음식점 > 간식 > 도넛 > 던킨,http://place.map.kakao.com/12323169,,,Dunkin' Donuts,0,"126.990625,36.99,127.321875,37.343333333333334"
18521904,던킨 영통홈플러스점,경기 수원시 영통구 영통동 994-2,경기 수원시 영통구 봉영로 1576,127.0725453,37.25207764,031-205-8181,음식점 > 간식 > 도넛 > 던킨,http://place.map.kakao.com/18521904,,,Dunkin' Donuts,0,"126.990625,36.99,127.321875,37.343333333333334"
15611140,던킨 화성삼성전자1호점,경기 화성시 반월동 948,경기 화성시 삼성전자로 1,127.066556,37.22186457,031-325-5002,음식점 > 간식 > 도넛 > 던킨,http://place.map.kakao.com/15611140,,,Dunkin' Donuts,0,"126.990625,36.99,127.321875,37.343333333333334"
12323412,던킨 안성휴게소서울방향점,경기 안성시 원곡면 산하리 421-4,경기 안성시 원곡면 경부고속도로 372,127.1325698,37.076671,031-611-5793,음식점 > 간식 > 도넛 > 던킨,http://place.map.kakao.com/12323412,,,Dunkin' Donuts,0,"126.990625,36.99,127.321875,37.343333333333334"
8263107,던킨 원더스강남점,서울 서초구 서초동 1328-1,서울 서초구 강남대로 373,127.0281115,37.49604012,02-3475-1031,음식점 > 간식 > 도넛 > 던킨,http://place.map.kakao.com/8263107,,,던킨,0,"126.990625,37.32333333333334,127.321875,37.67666666666666"
1032646285,던킨 원더스청담점,서울 강남구 신사동 652-15,서울 강남구 도산대로 329,127.037916,37.52321709,02-543-1219,음식점 > 간식 > 도넛 > 던킨,http://place.map.kakao.com/1032646285,,,던킨,0,"126.990625,37.32333333333334,127.321875,37.67666666666666"
12323208,던킨 선릉역점,서울 강남구 대치동 890-20,서울 강남구 테헤란로 422,127.0529343,37.50538135,02-556-1657,음식점 > 간식 > 도넛 > 던킨,http://place.map.kakao.com/12323208,,,던킨,0,"126.990625,37.32333333333334,127.321875,37.67666666666666"
21396876,던킨 약수역점,서울 중구 신당동 369-35,서울 중구 다산로 128,127.0110457,37.55502436,02-2238-6045,음식점 > 간식 > 도넛 > 던킨,http://place.map.kakao.com/21396876,,,던킨,0,"126.990625,37.32333333333334,127.321875,37.67666666666666"
2081892484,던킨 송파사거리점,서울 송파구 송파동 96-6,서울 송파구 송파대로 388,127.1101923,37.50236489,02-2202-8108,음식점 > 간식 > 도넛 > 던킨,http://place.map.kakao.com/2081892484,,,던킨,0,"126.990625,37.32333333333334,127.321875,37.67666666666666"
481458089,던킨 양재중앙점,서울 서초구 양재동 376-1,서울 서초구 동산로 54,127.0448626,37.47155905,02-578-2708,음식점 > 간식 > 도넛 > 던킨,http://place.map.kakao.com/481458089,,,던킨,0,"126.990625,37.32333333333334,127.321875,37.67666666666666"
13042022,던킨 길음뉴타운점,서울 성북구 길음동 1286-10,서울 성북구 길음로7길 6,127.0223642,37.60456481,02-6349-1007,음식점 > 간식 > 도넛 > 던킨,http://place.map.kakao.com/13042022,,,던킨,0,"126.990625,37.32333333333334,127.321875,37.67666666666666"
18757119,던킨 중곡점,서울 광진구 중곡동 241-15,서울 광진구 긴고랑로 43,127.0811805,37.56290772,02-466-5162,음식점 > 간식 > 도넛 > 던킨,http://place.map.kakao.com/18757119,,,던킨,0,"126.990625,37.32333333333334,127.321875,37.67666666666666"
1503848601,던킨 건대입구역점,서울 광진구 화양동 4-20,서울 광진구 능동로 110,127.0712193,37.54040271,02-447-1018,음식점 > 간식 > 도넛 > 던킨,http://place.map.kakao.com/1503848601,,,던킨,0,"126.990625,37.32333333333334,127.321875,37.67666666666666"
15382164,던킨 쌍문역점,서울 도봉구 창동 655-20,서울 도봉구 도봉로 468,127.0341898,37.64728407,02-993-3131,음식점 > 간식 > 도넛 > 던킨,http://place.map.kakao.com/15382164,,,던킨,0,"126.990625,37.32333333333334,127.321875,37.67666666666666"
12323187,던킨 먹골역점,서울 중랑구 묵동 175-7,서울 중랑구 동일로 918,127.0776089,37.61242687,02-977-9227,음식점 > 간식 > 도넛 > 던킨,http://place.map.kakao.com/12323187,,,던킨,0,"126.990625,37.32333333333334,127.321875,37.67666666666666"
1814766207,던킨 장안중앙점,서울 동대문구 장안동 93-80,서울 동대문구 사가정로25길 60,127.0711202,37.58148191,02-2214-6004,음식점 > 간식 > 도넛 > 던킨,http://place.map.kakao.com/1814766207,,,던킨,0,"126.990625,37.32333333333334,127.321875,37.67666666666666"
7835705,던킨 올림픽공원점,서울 송파구 방이동 40-6,서울 송파구 올림픽로 378,127.1121424,37.51697464,02-423-3525,음식점 > 간식 > 도넛 > 던킨,http://place.map.kakao.com/7835705,,,던킨,0,"126.990625,37.32333333333334,127.321875,37.67666666666666"
12323344,던킨 청담점,서울 강남구 삼성동 189,서울 강남구 삼성로 651,127.0500318,37.51835077,02-544-4080,음식점 > 간식 > 도넛 > 던킨,http://place.map.kakao.com/12323344,,,던킨,0,"126.990625,37.32333333333334,127.321875,37.67666666666666"
12323710,던킨 왕십리민자역사점,서울 성동구 행당동 168-151,서울 성동구 왕십리광장로 17,127.0382464,37.56097157,02-2200-1519,음식점 > 간식 > 도넛 > 던킨,http://place.map.kakao.com/12323710,,,던킨,0,"126.990625,37.32333333333334,127.321875,37.67666666666666"
12323651,던킨 잠원점,서울 서초구 잠원동 51,서울 서초구 잠원로 204,127.0142168,37.51973003,02-591-8782,음식점 > 간식 > 도넛 > 던킨,http://place.map.kakao.com/12323651,,,던킨,0,"126.990625,37.32333333333334,127.321875,37.67666666666666"
1137049418,던킨 송파방이점,서울 송파구 오금동 19-2,서울 송파구 마천로7길 5,127.1277244,37.50852993,02-6449-1927,음식점 > 간식 > 도넛 > 던킨,http://place.map.kakao.com/1137049418,,,던킨,0,"126.990625,37.32333333333334,127.321875,37.67666666666666"
12332749,던킨 광장점,서울 광진구 광장동 470-3,서울 광진구 아차산로 502,127.0970029,37.54128805,02-458-5020,음식점 > 간식 > 도넛 > 던킨,http://place.map.kakao.com/12332749,,,던킨,0,"126.990625,37.32333333333334,127.321875,37.67666666666666"
7838355,던킨 강동구청역점,서울 강동구 성내동 319-33,서울 강동구 올림픽로 552,127.1209786,37.53075486,02-473-2021,음식점 > 간식 > 도넛 > 던킨,http://place.map.kakao.com/7838355,,,던킨,0,"126.990625,37.32333333333334,127.321875,37.67666666666666"
18759165,던킨 노원KT점,서울 노원구 상계동 723,서울 노원구 노해로 502,127.0635346,37.65423921,02-935-0022,음식점 > 간식 > 도넛 > 던킨,http://place.map.kakao.com/18759165,,,던킨,0,"126.990625,37.32333333333334,127.321875,37.67666666666666"
1317772896,던킨 남양주다산점,경기 남양주시 다산동 6054-1,경기 남양주시 다산중앙로146번길 12-12,127.1544448,37.6252922,031-558-6188,음식점 > 간식 > 도넛 > 던킨,http://place.map.kakao.com/1317772896,,,던킨,0,"126.990625,37.32333333333334,127.321875,37.67666666666666"
2061691565,던킨 군자역점,서울 광진구 군자동 1-4,서울 광진구 능동로 281-1,127.0781267,37.55520265,02-467-7321,음식점 > 간식 > 도넛 > 던킨,http://place.map.kakao.com/2061691565,,,던킨,0,"126.990625,37.32333333333334,127.321875,37.67666666666666"
257660683,던킨 수내역점,경기 성남시 분당구 수내동 20-1,경기 성남시 분당구 백현로101번길 21,127.113022,37.37768609,031-714-0606,음식점 > 간식 > 도넛 > 던킨,http://place.map.kakao.com/257660683,,,던킨,0,"126.990625,37.32333333333334,127.321875,37.67666666666666"
665703876,던킨 DD SPC스퀘어점,서울 강남구 역삼동 831-23,서울 강남구 강남대로 352,127.0297686,37.49436204,02-508-2818,음식점 > 간식 > 도넛 > 던킨,http://place.map.kakao.com/665703876,,,던킨,0,"126.990625,37.32333333333334,127.321875,37.67666666666666"
12323251,던킨 고덕역점,서울 강동구 명일동 48-3,서울 강동구 동남로73길 17,127.1551699,37.5528335,02-441-9700,음식점 > 간식 > 도넛 > 던킨,http://place.map.kakao.com/12323251,,,던킨,0,"126.990625,37.32333333333334,127.321875,37.67666666666666"
19001419,던킨 양재사옥점,서울 서초구 양재동 11-149,서울 서초구 남부순환로 2620,127.0373379,37.48447043,02-529-4107,음식점 > 간식 > 도넛 > 던킨,http://place.map.kakao.com/19001419,,,던킨,0,"126.990625,37.32333333333334,127.321875,37.67666666666666"
2082428616,던킨 동대문푸르지오시티점,서울 동대문구 용두동 104-3,서울 동대문구 왕산로 86,127.0324226,37.5778859,02-929-0909,음식점 > 간식 > 도넛 > 던킨,http://place.map.kakao.com/2082428616,,,던킨,0,"126.990625,37.32333333333334,127.321875,37.67666666666666"
12323623,던킨 교대법원점,서울 서초구 서초동 1694-25,서울 서초구 서초중앙로 142,127.0137473,37.49450555,,음식점 > 간식 > 도넛 > 던킨,http://place.map.kakao.com/12323623,,,던킨,0,"126.990625,37.32333333333334,127.321875,37.67666666666666"
612928724,던킨 광주태전점,경기 광주시 태전동 162-4,경기 광주시 태전동로 23,127.2337288,37.38662568,031-767-2802,음식점 > 간식 > 도넛 > 던킨,http://place.map.kakao.com/612928724,,,던킨,0,"126.990625,37.32333333333334,127.321875,37.67666666666666"
1574474643,던킨 남양주별내점,경기 남양주시 별내동 1006-2,경기 남양주시 별내중앙로 26,127.1258929,37.64550097,031-574-2486,음식점 > 간식 > 도넛 > 던킨,http://place.map.kakao.com/1574474643,,,던킨,0,"126.990625,37.32333333333334,127.321875,37.67666666666666"
12323250,던킨 암사역점,서울 강동구 암사동 502-17,서울 강동구 올림픽로 775,127.1272322,37.55038016,02-427-3498,음식점 > 간식 > 도넛 > 던킨,http://place.map.kakao.com/12323250,,,던킨,0,"126.990625,37.32333333333334,127.321875,37.67666666666666"
13042815,던킨 마들점,서울 노원구 상계동 651,서울 노원구 동일로 1541,127.0572097,37.66565969,02-930-4242,음식점 > 간식 > 도넛 > 던킨,http://place.map.kakao.com/13042815,,,던킨,0,"126.990625,37.32333333333334,127.321875,37.67666666666666"
508993138,던킨 성남금광점,경기 성남시 중원구 금광동 3678,경기 성남시 중원구 광명로323번길 6,127.1617401,37.44565641,031-743-3777,음식점 > 간식 > 도넛 > 던킨,http://place.map.kakao.com/508993138,,,던킨,0,"126.990625,37.32333333333334,127.321875,37.67666666666666"
895713994,던킨 하남미사강변점,경기 하남시 망월동 970-1,경기 하남시 미사강변대로226번길 26,127.185418,37.56981779,031-794-3059,음식점 > 간식 > 도넛 > 던킨,http://place.map.kakao.com/895713994,,,던킨,0,"126.990625,37.32333333333334,127.321875,37.67666666666666"
175481011,던킨 미사역점,경기 하남시 망월동 1140,경기 하남시 미사강변한강로 290-3,127.1956982,37.56370867,031-791-8817,음식점 > 간식 > 도넛 > 던킨,http://place.map.kakao.com/175481011,,,던킨,0,"126.990625,37.32333333333334,127.321875,37.67666666666666"
7835255,던킨 성남태평점,경기 성남시 수정구 태평동 6146,경기 성남시 수정구 성남대로 1254,127.1277912,37.44155513,031-755-5519,음식점 > 간식 > 도넛 > 던킨,http://place.map.kakao.com/7835255,,,던킨,0,"126.990625,37.32333333333334,127.321875,37.67666666666666"
925844317,던킨 이문점,서울 동대문구 이문동 255-229,서울 동대문구 신이문로 6,127.0626155,37.60283934,02-968-0122,음식점 > 간식 > 도넛 > 던킨,http://place.map.kakao.com/925844317,,,던킨,0,"126.990625,37.32333333333334,127.321875,37.67666666666666"
10305339,던킨 분당아름마을점,경기 성남시 분당구 이매동 131-8,경기 성남시 분당구 판교로 446,127.1234003,37.40523799,031-704-6969,음식점 > 간식 > 도넛 > 던킨,http://place.map.kakao.com/10305339,,,던킨,0,"126.990625,37.32333333333334,127.321875,37.67666666666666"
12323336,던킨 공릉역점,서울 노원구 공릉동 386-5,서울 노원구 동일로 1078,127.0731337,37.62596076,02-972-3232,음식점 > 간식 > 도넛 > 던킨,http://place.map.kakao.com/12323336,,,던킨,0,"126.990625,37.32333333333334,127.321875,37.67666666666666"
1378475247,던킨 강남고속터미널점,서울 서초구 반포동 19-4,서울 서초구 신반포로 194,127.0069691,37.50602461,02-533-4393,음식점 > 간식 > 도넛 > 던킨,http://place.map.kakao.com/1378475247,,,던킨,0,"126.990625,37.32333333333334,127.321875,37.67666666666666"
15487478,던킨 분당파크뷰점,경기 성남시 분당구 정자동 6,경기 성남시 분당구 정자일로 248,127.1069778,37.37269463,031-783-3440,음식점 > 간식 > 도넛 > 던킨,http://place.map.kakao.com/15487478,,,던킨,0,"126.990625,37.32333333333334,127.321875,37.67666666666666"
841585987,던킨 위례호반점,경기 성남시 수정구 창곡동 513-3,경기 성남시 수정구 위례동로 135,127.1502236,37.47226947,031-759-1790,음식점 > 간식 > 도넛 > 던킨,http://place.map.kakao.com/841585987,,,던킨,0,"126.990625,37.32333333333334,127.321875,37.67666666666666"
13042046,던킨 중계브라운스톤점,서울 노원구 중계동 506,서울 노원구 동일로203가길 29,127.0647039,37.63962102,02-949-1511,음식점 > 간식 > 도넛 > 던킨,http://place.map.kakao.com/13042046,,,던킨,0,"126.990625,37.32333333333334,127.321875,37.67666666666666"
12323374,던킨 분당서현1호점,경기 성남시 분당구 서현동 93,경기 성남시 분당구 중앙공원로40번길 4,127.1294942,37.3805687,031-708-1110,음식점 > 간식 > 도넛 > 던킨,http://place.map.kakao.com/12323374,,,Dunkin' Donuts,0,"126.990625,37.32333333333334,127.321875,37.67666666666666"
12323205,던킨 역삼GS타워점,서울 강남구 역삼동 679-1,서울 강남구 논현로 508,127.0376689,37.50193905,02-568-6560,음식점 > 간식 > 도넛 > 던킨,http://place.map.kakao.com/12323205,,,Dunkin' Donuts,0,"126.990625,37.32333333333334,127.321875,37.67666666666666"
26473057,던킨 중앙보훈병원점,서울 강동구 둔촌동 6-2,서울 강동구 진황도로61길 53,127.1477173,37.52969009,02-473-8240,음식점 > 간식 > 도넛 > 던킨,http://place.map.kakao.com/26473057,,,Dunkin' Donuts,0,"126.990625,37.32333333333334,127.321875,37.67666666666666"
7837422,던킨 남양주호평점,경기 남양주시 호평동 640-2,경기 남양주시 늘을2로 20,127.243949,37.65447079,031-594-2884,음식점 > 간식 > 도넛 > 던킨,http://place.map.kakao.com/7837422,,,Dunkin' Donuts,0,"126.990625,37.32333333333334,127.321875,37.67666666666666"
21332237,던킨 광운대역점,서울 노원구 월계동 85,서울 노원구 석계로 98-2,127.0614039,37.62362488,02-941-0805,음식점 > 간식 > 도넛 > 던킨,http://place.map.kakao.com/21332237,,,Dunkin' Donuts,0,"126.990625,37.32333333333334,127.321875,37.67666666666666"
18996518,던킨 동대문홈플러스점,서울 동대문구 용두동 33-1,서울 동대문구 천호대로 133,127.0387876,37.57450885,02-963-9035,음식점 > 간식 > 도넛 > 던킨,http://place.map.kakao.com/18996518,,,Dunkin' Donuts,0,"126.990625,37.32333333333334,127.321875,37.67666666666666"
10314885,던킨 테크노마트점,서울 광진구 구의동 546-4,서울 광진구 광나루로56길 85,127.0957374,37.53559657,02-3424-1990,음식점 > 간식 > 도넛 > 던킨,http://place.map.kakao.com/10314885,,,Dunkin' Donuts,0,"126.990625,37.32333333333334,127.321875,37.67666666666666"
18996491,던킨 삼육서울병원점,서울 동대문구 휘경동 29-1,서울 동대문구 망우로 82,127.0653464,37.58794537,,음식점 > 간식 > 도넛 > 던킨,http://place.map.kakao.com/18996491,,,Dunkin' Donuts,0,"126.990625,37.32333333333334,127.321875,37.67666666666666"
19332386,던킨 창동하나로점,서울 도봉구 창동 1-10,서울 도봉구 마들로11길 20,127.051277,37.65506327,02-991-0450,음식점 > 간식 > 도넛 > 던킨,http://place.map.kakao.com/19332386,,,Dunkin' Donuts,0,"126.990625,37.32333333333334,127.321875,37.67666666666666"
19410178,던킨 성남이마트점,경기 성남시 수정구 태평동 7336,경기 성남시 수정구 수정로 201,127.1416298,37.4441505,031-757-6923,음식점 > 간식 > 도넛 > 던킨,http://place.map.kakao.com/19410178,,,Dunkin' Donuts,0,"126.990625,37.32333333333334,127.321875,37.67666666666666"
121267101,던킨 가천대점,경기 성남시 수정구 복정동 620-2,경기 성남시 수정구 성남대로 1342,127.1273885,37.44927545,031-752-0926,음식점 > 간식 > 도넛 > 던킨,http://place.map.kakao.com/121267101,,,Dunkin' Donuts,0,"126.990625,37.32333333333334,127.321875,37.67666666666666"
17575268,던킨 서울랜드점,경기 과천시 막계동 82,,127.0191349,37.4340235,02-509-6000,음식점 > 간식 > 도넛 > 던킨,http://place.map.kakao.com/17575268,,,Dunkin' Donuts,0,"126.990625,37.32333333333334,127.321875,37.67666666666666"
7835592,던킨 의정부중앙점,경기 의정부시 의정부동 197-13,경기 의정부시 평화로 544,127.0474954,37.7404269,031-842-7766,음식점 > 간식 > 도넛 > 던킨,http://place.map.kakao.com/7835592,,,던킨,0,"126.990625,37.656666666666666,127.321875,38.01"
12323407,던킨 회룡역점,경기 의정부시 호원동 428,경기 의정부시 평화로 359,127.047772,37.72412824,031-875-8250,음식점 > 간식 > 도넛 > 던킨,http://place.map.kakao.com/12323407,,,던킨,0,"126.990625,37.656666666666666,127.321875,38.01"
1476660567,던킨 양주옥정점,경기 양주시 옥정동 963-13,경기 양주시 옥정로 196,127.091985,37.81883932,031-857-0508,음식점 > 간식 > 도넛 > 던킨,http://place.map.kakao.com/1476660567,,,던킨,0,"126.990625,37.656666666666666,127.321875,38.01"
827373911,던킨 의정부고산점,경기 의정부시 산곡동 688-5,경기 의정부시 월유로 16,127.1099552,37.72872664,031-821-8088,음식점 > 간식 > 도넛 > 던킨,http://place.map.kakao.com/827373911,,,던킨,0,"126.990625,37.656666666666666,127.321875,38.01"
920087070,던킨 의정부녹양점,경기 의정부시 녹양동 412-8,경기 의정부시 체육로 306-28,127.0414387,37.75991982,031-877-1164,음식점 > 간식 > 도넛 > 던킨,http://place.map.kakao.com/920087070,,,던킨,0,"126.990625,37.656666666666666,127.321875,38.01"
1152493170,던킨 동두천지행점,경기 동두천시 지행동 695-3,경기 동두천시 지행로 65,127.0545018,37.89260912,031-858-4728,음식점 > 간식 > 도넛 > 던킨,http://place.map.kakao.com/1152493170,,,던킨,0,"126.990625,37.656666666666666,127.321875,38.01"
2072683825,던킨 포천송우리점,경기 포천시 소흘읍 송우리 187,경기 포천시 소흘읍 솔모루로 75,127.1466263,37.82842511,010-7364-2070,음식점 > 간식 > 도넛 > 던킨,http://place.map.kakao.com/2072683825,,,던킨,0,"126.990625,37.656666666666666,127.321875,38.01"
19007746,던킨 남양주장현점,경기 남양주시 진접읍 장현리 659,경기 남양주시 진접읍 장현로47번길 6-2,127.1794031,37.71598817,031-572-3306,음식점 > 간식 > 도넛 > 던킨,http://place.map.kakao.com/19007746,,,던킨,0,"126.990625,37.656666666666666,127.321875,38.01"
22729985,던킨 포천신읍점,경기 포천시 신읍동 43-4,경기 포천시 중앙로119번길 2,127.2028857,37.89723542,031-536-8311,음식점 > 간식 > 도넛 > 던킨,http://place.map.kakao.com/22729985,,,던킨,0,"126.990625,37.656666666666666,127.321875,38.01"
199588636,던킨 양주덕정점,경기 양주시 덕정동 286-44,경기 양주시 회정로 107,127.0650753,37.83763228,031-862-2884,음식점 > 간식 > 도넛 > 던킨,http://place.map.kakao.com/199588636,,,던킨,0,"126.990625,37.656666666666666,127.321875,38.01"
13042082,던킨 마석우리점,경기 남양주시 화도읍 마석우리 383-2,경기 남양주시 화도읍 비룡로 62,127.3020054,37.65749798,031-595-8934,음식점 > 간식 > 도넛 > 던킨,http://place.map.kakao.com/13042082,,,던킨,0,"126.990625,37.656666666666666,127.321875,38.01"
21294039,던킨 양주이마트점,경기 양주시 회정동 98,경기 양주시 평화로 1713,127.0539054,37.8417715,010-8733-3351,음식점 > 간식 > 도넛 > 던킨,http://place.map.kakao.com/21294039,,,던킨,0,"126.990625,37.656666666666666,127.321875,38.01"
179726443,던킨 진접홈플러스점,경기 남양주시 진접읍 장현리 216-1,경기 남양주시 진접읍 금강로 1447,127.1892218,37.72139577,,음식점 > 간식 > 도넛 > 던킨,http://place.map.kakao.com/179726443,,,던킨,0,"126.990625,37.656666666666666,127.321875,38.01"
20225637,던킨 포천이마트점,경기 포천시 설운동 2,경기 포천시 호국로 915,127.1601209,37.84796363,010-8733-3351,음식점 > 간식 > 도넛 > 던킨,http://place.map.kakao.com/20225637,,,던킨,0,"126.990625,37.656666666666666,127.321875,38.01"
26855091,던킨 전곡터미널점,경기 연천군 전곡읍 전곡리 304-1,경기 연천군 전곡읍 온골로 38,127.0683686,38.02435472,031-833-9869,음식점 > 간식 > 도넛 > 던킨,http://place.map.kakao.com/26855091,,,던킨,0,"126.990625,37.99,127.321875,38.343333333333334"
13042060,던킨 순천조례점,전남 순천시 조례동 988-4,전남 순천시 신월큰길 23,127.5191096,34.96040791,061-726-5556,음식점 > 간식 > 도넛 > 던킨,http://place.map.kakao.com/13042060,,,던킨,0,"127.303125,34.656666666666666,127.634375,35.01"
13042021,던킨 광양읍점,전남 광양시 광양읍 읍내리 98-3,전남 광양시 광양읍 희양현로 55,127.5888263,34.97491929,061-763-2100,음식점 > 간식 > 도넛 > 던킨,http://place.map.kakao.com/13042021,,,던킨,0,"127.303125,34.656666666666666,127.634375,35.01"
26300813,던킨 순천터미널점,전남 순천시 장천동 18-22,전남 순천시 장천3길 13,127.4910467,34.94741496,061-742-2121,음식점 > 간식 > 도넛 > 던킨,http://place.map.kakao.com/26300813,,,던킨,0,"127.303125,34.656666666666666,127.634375,35.01"
223391107,던킨 순천용당점,전남 순천시 용당동 580-3,전남 순천시 용당삼산로 11,127.489833,34.97304694,061-753-1016,음식점 > 간식 > 도넛 > 던킨,http://place.map.kakao.com/223391107,,,던킨,0,"127.303125,34.656666666666666,127.634375,35.01"
457092984,던킨 순천신대점,전남 순천시 해룡면 신대리 1978-1,전남 순천시 해룡면 향매로 69,127.5471494,34.93416472,061-725-0808,음식점 > 간식 > 도넛 > 던킨,http://place.map.kakao.com/457092984,,,던킨,0,"127.303125,34.656666666666666,127.634375,35.01"
693117290,던킨 황전휴게소전망대,전남 순천시 황전면 선변리 595-8,전남 순천시 황전면 순천완주고속도로 28,127.4549034,35.15338807,061-782-1154,음식점 > 간식 > 도넛 > 던킨,http://place.map.kakao.com/693117290,,,던킨,0,"127.303125,34.99,127.634375,35.343333333333334"
1004868919,던킨 대전목동점,대전 중구 목동 15-3,대전 중구 목중로 7,127.4124536,36.33503036,042-226-8882,음식점 > 간식 > 도넛 > 던킨,http://place.map.kakao.com/1004868919,,,던킨,0,"127.303125,35.99,127.634375,36.343333333333334"
26093192,던킨 대전자생병원점,대전 서구 탄방동 644,대전 서구 문정로48번길 58,127.3842852,36.34387918,042-488-3309,음식점 > 간식 > 도넛 > 던킨,http://place.map.kakao.com/26093192,,,던킨,0,"127.303125,35.99,127.634375,36.343333333333334"
1801444303,던킨 대전도안점,대전 유성구 상대동 571,대전 유성구 상대복용로29번길 52,127.3322321,36.33662935,042-825-4474,음식점 > 간식 > 도넛 > 던킨,http://place.map.kakao.com/1801444303,,,던킨,0,"127.303125,35.99,127.634375,36.343333333333334"
1639484989,던킨 대전효동점,대전 동구 효동 132-14,대전 동구 계족로 10,127.44117,36.31606618,042-282-1286,음식점 > 간식 > 도넛 > 던킨,http://place.map.kakao.com/1639484989,,,던킨,0,"127.303125,35.99,127.634375,36.343333333333334"
1577276665,던킨 대전태평점,대전 중구 태평동 395-1,대전 중구 태평로 71,127.3936167,36.32350203,042-636-6489,음식점 > 간식 > 도넛 > 던킨,http://place.map.kakao.com/1577276665,,,던킨,0,"127.303125,35.99,127.634375,36.343333333333334"
1607230583,던킨 대전대림빌딩점,대전 중구 대흥동 452-3,대전 중구 보문로 246,127.4227246,36.32441015,070-8277-4250,음식점 > 간식 > 도넛 > 던킨,http://place.map.kakao.com/1607230583,,,던킨,0,"127.303125,35.99,127.634375,36.343333333333334"
1851049776,던킨 대전관저점,대전 서구 관저동 1405,대전 서구 관저로 172,127.3408864,36.29870401,042-541-3130,음식점 > 간식 > 도넛 > 던킨,http://place.map.kakao.com/1851049776,,,던킨,0,"127.303125,35.99,127.634375,36.343333333333334"
1951507677,던킨 대전역사점,대전 동구 정동 1-1,대전 동구 중앙로 215,127.4346507,36.33259963,042-223-3303,음식점 > 간식 > 도넛 > 던킨,http://place.map.kakao.com/1951507677,,,던킨,0,"127.303125,35.99,127.634375,36.343333333333334"
1456247137,던킨 충북옥천점,충북 옥천군 옥천읍 금구리 172-8,충북 옥천군 옥천읍 삼금로 39,127.5679908,36.30189611,043-731-4478,음식점 > 간식 > 도넛 > 던킨,http://place.map.kakao.com/1456247137,,,던킨,0,"127.303125,35.99,127.634375,36.343333333333334"
710272797,던킨 충남금산점,충남 금산군 금산읍 상리 22-7,충남 금산군 금산읍 비단로 297,127.4901321,36.10970534,041-752-7977,음식점 > 간식 > 도넛 > 던킨,http://place.map.kakao.com/710272797,,,던킨,0,"127.303125,35.99,127.634375,36.343333333333334"
1998002440,던킨 대전패션아일랜드점,대전 동구 가오동 557,대전 동구 은어송로 72,127.4579858,36.30696683,042-280-9140,음식점 > 간식 > 도넛 > 던킨,http://place.map.kakao.com/1998002440,,,던킨,0,"127.303125,35.99,127.634375,36.343333333333334"
826832905,던킨 인삼랜드휴게소상점,충남 금산군 군북면 외부리 721,충남 금산군 군북면 대암길 34-30,127.4973314,36.15499448,041-754-9200,음식점 > 간식 > 도넛 > 던킨,http://place.map.kakao.com/826832905,,,던킨,0,"127.303125,35.99,127.634375,36.343333333333334"
27529701,던킨 금산인삼랜드휴게소하남방향점,충남 금산군 군북면 외부리 721-3,충남 금산군 군북면 대암길 34-30,127.4976455,36.15492379,,음식점 > 간식 > 도넛 > 던킨,http://place.map.kakao.com/27529701,,,던킨,0,"127.303125,35.99,127.634375,36.343333333333334"
573576343,던킨 옥천휴게소 부산방향점,충북 옥천군 옥천읍 매화리 251-4,충북 옥천군 옥천읍 서대구일로 265-19,127.5952306,36.29688734,043-731-8521,음식점 > 간식 > 도넛 > 던킨,http://place.map.kakao.com/573576343,,,던킨,0,"127.303125,35.99,127.634375,36.343333333333334"
12323166,던킨 청주터미널점,충북 청주시 흥덕구 가경동 1449-3,충북 청주시 흥덕구 풍산로 18,127.4328868,36.62596314,043-237-7333,음식점 > 간식 > 도넛 > 던킨,http://place.map.kakao.com/12323166,,,던킨,0,"127.303125,36.32333333333334,127.634375,36.67666666666666"
7836897,던킨 대전타임월드점,대전 서구 둔산동 1014,대전 서구 둔산로31번길 10-23,127.3782461,36.35277863,042-488-8943,음식점 > 간식 > 도넛 > 던킨,http://place.map.kakao.com/7836897,,,던킨,0,"127.303125,36.32333333333334,127.634375,36.67666666666666"
263022594,던킨 한남대점,대전 대덕구 중리동 250-1,대전 대덕구 홍도로 136,127.4272241,36.35810801,042-622-8834,음식점 > 간식 > 도넛 > 던킨,http://place.map.kakao.com/263022594,,,던킨,0,"127.303125,36.32333333333334,127.634375,36.67666666666666"
1017305824,던킨 청주신봉점,충북 청주시 흥덕구 신봉동 51,충북 청주시 흥덕구 사운로 303,127.470556,36.65406078,043-273-3350,음식점 > 간식 > 도넛 > 던킨,http://place.map.kakao.com/1017305824,,,던킨,0,"127.303125,36.32333333333334,127.634375,36.67666666666666"
19083862,던킨 대전터미널서관점,대전 동구 용전동 63-3,대전 동구 동서대로 1689,127.4370508,36.3507225,042-622-2710,음식점 > 간식 > 도넛 > 던킨,http://place.map.kakao.com/19083862,,,던킨,0,"127.303125,36.32333333333334,127.634375,36.67666666666666"
21437866,던킨 신탄진생산점,대전 대덕구 신탄진동 239-1,대전 대덕구 신탄진로738번길 104,127.4335078,36.43999594,,음식점 > 간식 > 도넛 > 던킨,http://place.map.kakao.com/21437866,,,던킨,0,"127.303125,36.32333333333334,127.634375,36.67666666666666"
2138749511,던킨 충북도청점,충북 청주시 상당구 북문로1가 36-9,충북 청주시 상당구 상당로 73,127.4903935,36.63474621,043-258-2112,음식점 > 간식 > 도넛 > 던킨,http://place.map.kakao.com/2138749511,,,던킨,0,"127.303125,36.32333333333334,127.634375,36.67666666666666"
788313806,던킨 청주동남지구점,충북 청주시 상당구 용암동 3093,충북 청주시 상당구 중고개로 119,127.5186555,36.616166,070-8666-1019,음식점 > 간식 > 도넛 > 던킨,http://place.map.kakao.com/788313806,,,던킨,0,"127.303125,36.32333333333334,127.634375,36.67666666666666"
2025858081,던킨 대전송촌점,대전 대덕구 송촌동 449-2,대전 대덕구 송촌북로 42,127.4367601,36.36609215,042-622-0375,음식점 > 간식 > 도넛 > 던킨,http://place.map.kakao.com/2025858081,,,던킨,0,"127.303125,36.32333333333334,127.634375,36.67666666666666"
7836012,던킨 충북청주대점,충북 청주시 청원구 우암동 323-7,충북 청주시 청원구 직지대로 880,127.4874891,36.65079459,043-222-9788,음식점 > 간식 > 도넛 > 던킨,http://place.map.kakao.com/7836012,,,던킨,0,"127.303125,36.32333333333334,127.634375,36.67666666666666"
1114117939,던킨 충남대점,대전 유성구 궁동 482-4,대전 유성구 대학로 86,127.3446117,36.36097832,042-477-0999,음식점 > 간식 > 도넛 > 던킨,http://place.map.kakao.com/1114117939,,,던킨,0,"127.303125,36.32333333333334,127.634375,36.67666666666666"
2067349161,던킨 대전신탄진점,대전 대덕구 석봉동 194-6,대전 대덕구 대덕대로 1600,127.4255103,36.45026909,042-322-3619,음식점 > 간식 > 도넛 > 던킨,http://place.map.kakao.com/2067349161,,,던킨,0,"127.303125,36.32333333333334,127.634375,36.67666666666666"
1123277050,던킨 대전관평점,대전 유성구 관평동 940,대전 유성구 테크노중앙로 50,127.3902568,36.42612038,042-932-0109,음식점 > 간식 > 도넛 > 던킨,http://place.map.kakao.com/1123277050,,,던킨,0,"127.303125,36.32333333333334,127.634375,36.67666666666666"
1666090043,던킨 대전카이스트점,대전 유성구 구성동 23,대전 유성구 대학로 291,127.3612715,36.36590539,042-867-1419,음식점 > 간식 > 도넛 > 던킨,http://place.map.kakao.com/1666090043,,,던킨,0,"127.303125,36.32333333333334,127.634375,36.67666666666666"
24530185,던킨 옥산휴게소하행점,충북 청주시 흥덕구 옥산면 오산리 589-15,충북 청주시 흥덕구 옥산면 경부고속도로 309,127.369901,36.65788343,043-260-1053,음식점 > 간식 > 도넛 > 던킨,http://place.map.kakao.com/24530185,,,던킨,0,"127.303125,36.32333333333334,127.634375,36.67666666666666"
13558128,던킨 청주하나로점,충북 청주시 상당구 방서동 118,충북 청주시 상당구 무농정로 32,127.507083,36.60480208,043-291-8850,음식점 > 간식 > 도넛 > 던킨,http://place.map.kakao.com/13558128,,,던킨,0,"127.303125,36.32333333333334,127.634375,36.67666666666666"
12323533,던킨 대전유성홈플러스점,대전 유성구 봉명동 669,대전 유성구 한밭대로 502,127.3546054,36.35864568,042-823-4949,음식점 > 간식 > 도넛 > 던킨,http://place.map.kakao.com/12323533,,,던킨,0,"127.303125,36.32333333333334,127.634375,36.67666666666666"
12323483,던킨 대전전민점,대전 유성구 전민동 325-2,대전 유성구 유성대로 1754,127.4041107,36.39937278,042-361-6636,음식점 > 간식 > 도넛 > 던킨,http://place.map.kakao.com/12323483,,,던킨,0,"127.303125,36.32333333333334,127.634375,36.67666666666666"
96847601,던킨 청주가경홈플러스점,충북 청주시 흥덕구 가경동 1696,충북 청주시 흥덕구 서부로 1291,127.4423125,36.61539338,043-231-2390,음식점 > 간식 > 도넛 > 던킨,http://place.map.kakao.com/96847601,,,던킨,0,"127.303125,36.32333333333334,127.634375,36.67666666666666"
12323212,던킨 청주이마트점,충북 청주시 서원구 미평동 123-1,충북 청주시 서원구 청남로 1853,127.4744502,36.60133193,043-283-4568,음식점 > 간식 > 도넛 > 던킨,http://place.map.kakao.com/12323212,,,던킨,0,"127.303125,36.32333333333334,127.634375,36.67666666666666"
201474429,던킨 대전보훈병원점,대전 대덕구 신탄진동 220,대전 대덕구 대청로82번길 147,127.4396956,36.44731505,042-933-5927,음식점 > 간식 > 도넛 > 던킨,http://place.map.kakao.com/201474429,,,던킨,0,"127.303125,36.32333333333334,127.634375,36.67666666666666"
12323307,던킨 죽암휴게소부산방향점,충북 청주시 서원구 현도면 선동리 284-7,충북 청주시 서원구 현도면 경부고속도로 289,127.4292593,36.48688494,070-8635-3793,음식점 > 간식 > 도넛 > 던킨,http://place.map.kakao.com/12323307,,,던킨,0,"127.303125,36.32333333333334,127.634375,36.67666666666666"
1649317667,던킨 오송역사점,충북 청주시 흥덕구 오송읍 봉산리 370-31,충북 청주시 흥덕구 오송읍 오송가락로 123,127.3271432,36.62047456,010-2644-6364,음식점 > 간식 > 도넛 > 던킨,http://place.map.kakao.com/1649317667,,,던킨,0,"127.303125,36.32333333333334,127.634375,36.67666666666666"
607898540,던킨 충북증평점,충북 증평군 증평읍 송산리 741,충북 증평군 증평읍 인삼로 73,127.5781003,36.78863787,043-838-0008,음식점 > 간식 > 도넛 > 던킨,http://place.map.kakao.com/607898540,,,던킨,0,"127.303125,36.656666666666666,127.634375,37.01"
1758835776,던킨 충북혁신점,충북 음성군 맹동면 두성리 1387,충북 음성군 맹동면 대하2나길 6,127.5416106,36.90702596,043-878-1010,음식점 > 간식 > 도넛 > 던킨,http://place.map.kakao.com/1758835776,,,던킨,0,"127.303125,36.656666666666666,127.634375,37.01"
1313722305,던킨 충북오창점,충북 청주시 청원구 오창읍 양청리 821-4,충북 청주시 청원구 오창읍 중심상업로 7,127.4286826,36.71136538,043-211-3404,음식점 > 간식 > 도넛 > 던킨,http://place.map.kakao.com/1313722305,,,던킨,0,"127.303125,36.656666666666666,127.634375,37.01"
1595611076,던킨 충북금왕점,충북 음성군 금왕읍 무극리 513-1,충북 음성군 금왕읍 무극로 255,127.590103,36.99230807,043-877-2388,음식점 > 간식 > 도넛 > 던킨,http://place.map.kakao.com/1595611076,,,던킨,0,"127.303125,36.656666666666666,127.634375,37.01"
19305461,던킨 충북진천점,충북 진천군 진천읍 읍내리 390-6,충북 진천군 진천읍 상산로 81-1,127.4431865,36.85473166,043-532-1900,음식점 > 간식 > 도넛 > 던킨,http://place.map.kakao.com/19305461,,,던킨,0,"127.303125,36.656666666666666,127.634375,37.01"
401310618,던킨 오창휴게소하행점,충북 청주시 청원구 오창읍 화산리 395-15,충북 청주시 청원구 오창읍 중부고속도로 21,127.4817863,36.75849419,043-217-1477,음식점 > 간식 > 도넛 > 던킨,http://place.map.kakao.com/401310618,,,던킨,0,"127.303125,36.656666666666666,127.634375,37.01"
26855916,던킨 마장휴게소하남방향점,경기 이천시 마장면 목리 산 13-32,경기 이천시 마장면 중부고속도로 82,127.4053639,37.26519456,031-630-0001,음식점 > 간식 > 도넛 > 던킨,http://place.map.kakao.com/26855916,,,던킨,0,"127.303125,36.99,127.634375,37.343333333333334"
19003401,던킨 이천장호원점,경기 이천시 장호원읍 장호원리 113-10,경기 이천시 장호원읍 샘재로 159,127.6297249,37.11723816,031-642-9606,음식점 > 간식 > 도넛 > 던킨,http://place.map.kakao.com/19003401,,,던킨,0,"127.303125,36.99,127.634375,37.343333333333334"
11301496,던킨 이천터미널점,경기 이천시 중리동 219,경기 이천시 이섭대천로 1200,127.4469552,37.27767644,031-635-2784,음식점 > 간식 > 도넛 > 던킨,http://place.map.kakao.com/11301496,,,던킨,0,"127.303125,36.99,127.634375,37.343333333333334"
12323366,던킨 양평중앙점,경기 양평군 양평읍 양근리 401-13,경기 양평군 양평읍 역전길 8,127.4894815,37.49160743,031-771-0098,음식점 > 간식 > 도넛 > 던킨,http://place.map.kakao.com/12323366,,,던킨,0,"127.303125,37.32333333333334,127.634375,37.67666666666666"
12323479,던킨 광주곤지암점,경기 광주시 곤지암읍 삼리 134-9,경기 광주시 곤지암읍 평촌길 36,127.3258021,37.35643447,031-768-2249,음식점 > 간식 > 도넛 > 던킨,http://place.map.kakao.com/12323479,,,던킨,0,"127.303125,37.32333333333334,127.634375,37.67666666666666"
2060791483,던킨 양평용문점,경기 양평군 용문면 다문리 728-10,경기 양평군 용문면 용문로 359-2,127.5936566,37.48470127,031-775-3535,음식점 > 간식 > 도넛 > 던킨,http://place.map.kakao.com/2060791483,,,던킨,0,"127.303125,37.32333333333334,127.634375,37.67666666666666"
27529649,던킨 양평만남의광장점,경기 양평군 양서면 대심리 204-14,경기 양평군 양서면 경강로 958,127.3940512,37.50845349,031-773-4588,음식점 > 간식 > 도넛 > 던킨,http://place.map.kakao.com/27529649,,,던킨,0,"127.303125,37.32333333333334,127.634375,37.67666666666666"
127170596,던킨 남한강휴게소점,경기 양평군 강상면 병산리 722-8,경기 양평군 강상면 중부내륙고속도로 298,127.4671183,37.48322676,031-771-5991,음식점 > 간식 > 도넛 > 던킨,http://place.map.kakao.com/127170596,,,던킨,0,"127.303125,37.32333333333334,127.634375,37.67666666666666"
13042057,던킨 마석롯데마트점,경기 남양주시 화도읍 마석우리 255-24,경기 남양주시 화도읍 경춘로 1992,127.3092385,37.6502588,031-559-9955,음식점 > 간식 > 도넛 > 던킨,http://place.map.kakao.com/13042057,,,던킨,0,"127.303125,37.32333333333334,127.634375,37.67666666666666"
17652020,던킨 가평점,경기 가평군 가평읍 읍내리 447-1,경기 가평군 가평읍 보납로 25,127.5132401,37.8310722,031-582-2622,음식점 > 간식 > 도넛 > 던킨,http://place.map.kakao.com/17652020,,,던킨,0,"127.303125,37.656666666666666,127.634375,38.01"
26473039,던킨 가평휴게소 서울방향점,경기 가평군 설악면 미사리 145-3,경기 가평군 설악면 미사리로 544,127.5434031,37.70138856,070-5079-7607,음식점 > 간식 > 도넛 > 던킨,http://place.map.kakao.com/26473039,,,던킨,0,"127.303125,37.656666666666666,127.634375,38.01"
21357677,던킨 가평휴게소 춘천방향점,경기 가평군 설악면 미사리 149-4,경기 가평군 설악면 미사리로540번길 51,127.5466399,37.70161686,0507-1350-5039,음식점 > 간식 > 도넛 > 던킨,http://place.map.kakao.com/21357677,,,던킨,0,"127.303125,37.656666666666666,127.634375,38.01"
254674887,던킨 여수웅천점,전남 여수시 웅천동 1694-1,전남 여수시 예울마루로 37-26,127.6699644,34.74696002,061-692-0855,음식점 > 간식 > 도넛 > 던킨,http://place.map.kakao.com/254674887,,,던킨,0,"127.615625,34.656666666666666,127.946875,35.01"
15591600,던킨 광양중마점,전남 광양시 중동 1759-12,전남 광양시 중마중앙로 60-1,127.6984462,34.93551458,061-793-2188,음식점 > 간식 > 도넛 > 던킨,http://place.map.kakao.com/15591600,,,던킨,0,"127.615625,34.656666666666666,127.946875,35.01"
9974711,던킨 여천제일병원점,전남 여수시 학동 40-9,전남 여수시 학동1길 26,127.6640198,34.76584803,061-692-1010,음식점 > 간식 > 도넛 > 던킨,http://place.map.kakao.com/9974711,,,던킨,0,"127.615625,34.656666666666666,127.946875,35.01"
204991509,던킨 여수이마트점,전남 여수시 오림동 405-1,전남 여수시 좌수영로 277,127.7149893,34.75792638,061-652-0503,음식점 > 간식 > 도넛 > 던킨,http://place.map.kakao.com/204991509,,,던킨,0,"127.615625,34.656666666666666,127.946875,35.01"
19834221,던킨 여수롯데마트점,전남 여수시 국동 37-16,전남 여수시 국포1로 36,127.7215052,34.72840417,061-643-2200,음식점 > 간식 > 도넛 > 던킨,http://place.map.kakao.com/19834221,,,던킨,0,"127.615625,34.656666666666666,127.946875,35.01"
10314884,던킨 충주터미널점,충북 충주시 칠금동 849,충북 충주시 봉계1길 49,127.9144253,36.98150079,043-853-0091,음식점 > 간식 > 도넛 > 던킨,http://place.map.kakao.com/10314884,,,던킨,0,"127.615625,36.656666666666666,127.946875,37.01"
2137855576,던킨 충주호암점,충북 충주시 호암동 1208,충북 충주시 호암토성2로 7,127.9348795,36.95567405,043-855-1003,음식점 > 간식 > 도넛 > 던킨,http://place.map.kakao.com/2137855576,,,던킨,0,"127.615625,36.656666666666666,127.946875,37.01"
1265615253,던킨 건국대충주병원점,충북 충주시 교현동 620-5,충북 충주시 국원대로 82,127.9288757,36.9787395,043-857-0997,음식점 > 간식 > 도넛 > 던킨,http://place.map.kakao.com/1265615253,,,던킨,0,"127.615625,36.656666666666666,127.946875,37.01"
535204665,던킨 원주무실점,강원특별자치도 원주시 무실동 1857-10,강원특별자치도 원주시 능라동길 51,127.9301851,37.33467691,033-745-5758,음식점 > 간식 > 도넛 > 던킨,http://place.map.kakao.com/535204665,,,던킨,0,"127.615625,36.99,127.946875,37.343333333333334"
986881910,던킨 여주오학점,경기 여주시 오학동 263,경기 여주시 도예로 97,127.6445334,37.31101161,031-8087-7999,음식점 > 간식 > 도넛 > 던킨,http://place.map.kakao.com/986881910,,,던킨,0,"127.615625,36.99,127.946875,37.343333333333334"
24529934,던킨 충주휴게소 마산방향점,충북 충주시 중앙탑면 용전리 산 48-86,,127.8369694,37.0223223,043-857-9339,음식점 > 간식 > 도넛 > 던킨,http://place.map.kakao.com/24529934,,,던킨,0,"127.615625,36.99,127.946875,37.343333333333334"
990335532,던킨 원주단계점,강원특별자치도 원주시 단계동 1218,강원특별자치도 원주시 백간길 17-12,127.9255334,37.35237747,033-733-8500,음식점 > 간식 > 도넛 > 던킨,http://place.map.kakao.com/990335532,,,던킨,0,"127.615625,37.32333333333334,127.946875,37.67666666666666"
508917110,던킨 제천청전점,강원특별자치도 원주시 지정면 가곡리 1350-1,강원특별자치도 원주시 지정면 신지정로 211,127.8730255,37.37398889,033-647-1357,음식점 > 간식 > 도넛 > 던킨,http://place.map.kakao.com/508917110,,,던킨,0,"127.615625,37.32333333333334,127.946875,37.67666666666666"
976197178,던킨 원주휴게소부산방향점,강원특별자치도 원주시 호저면 옥산리 211,강원특별자치도 원주시 호저면 마근거리길 120,127.9291169,37.43516847,033-731-4291,음식점 > 간식 > 도넛 > 던킨,http://place.map.kakao.com/976197178,,,던킨,0,"127.615625,37.32333333333334,127.946875,37.67666666666666"
930336179,던킨 춘천장학점,강원특별자치도 춘천시 동면 장학리 996-1,강원특별자치도 춘천시 동면 춘천로449번길 30,127.7537623,37.89484462,0507-2087-0730,음식점 > 간식 > 도넛 > 던킨,http://place.map.kakao.com/930336179,,,던킨,0,"127.615625,37.656666666666666,127.946875,38.01"
12323428,던킨 춘천롯데마트점,강원특별자치도 춘천시 온의동 6-25,강원특별자치도 춘천시 방송길 84,127.7181042,37.868655,033-251-7740,음식점 > 간식 > 도넛 > 던킨,http://place.map.kakao.com/12323428,,,던킨,0,"127.615625,37.656666666666666,127.946875,38.01"
18513573,던킨 강원대병원점,강원특별자치도 춘천시 효자동 17-1,강원특별자치도 춘천시 백령로 156,127.7448057,37.87473436,033-255-5716,음식점 > 간식 > 도넛 > 던킨,http://place.map.kakao.com/18513573,,,던킨,0,"127.615625,37.656666666666666,127.946875,38.01"
7836180,던킨 홍천중앙점,강원특별자치도 홍천군 홍천읍 신장대리 79-95,강원특별자치도 홍천군 홍천읍 꽃뫼로 94,127.8842573,37.6911309,033-434-0527,음식점 > 간식 > 도넛 > 던킨,http://place.map.kakao.com/7836180,,,던킨,0,"127.615625,37.656666666666666,127.946875,38.01"
23010554,던킨 강원화천점,강원특별자치도 화천군 화천읍 하리 101-1,강원특별자치도 화천군 화천읍 상승로 41,127.7038792,38.10472294,,음식점 > 간식 > 도넛 > 던킨,http://place.map.kakao.com/23010554,,,던킨,0,"127.615625,37.99,127.946875,38.343333333333334"
1268785745,던킨 진주혁신점,경남 진주시 충무공동 328-3,경남 진주시 사들로 42,128.148192,35.17154574,055-759-8320,음식점 > 간식 > 도넛 > 던킨,http://place.map.kakao.com/1268785745,,,던킨,0,"127.928125,34.99,128.259375,35.343333333333334"
181045420,던킨 진주평거점,경남 진주시 평거동 900,경남 진주시 진양호로 206,128.0602433,35.17248723,,음식점 > 간식 > 도넛 > 던킨,http://place.map.kakao.com/181045420,,,던킨,0,"127.928125,34.99,128.259375,35.343333333333334"
11094292,던킨 진주대안점,경남 진주시 대안동 13-2,경남 진주시 진주대로 1061,128.0837456,35.19423132,055-744-8090,음식점 > 간식 > 도넛 > 던킨,http://place.map.kakao.com/11094292,,,던킨,0,"127.928125,34.99,128.259375,35.343333333333334"
774317774,던킨 진주평거퀸즈웰가점,경남 진주시 평거동 1130,경남 진주시 새평거로 25,128.0506268,35.16618707,055-745-0333,음식점 > 간식 > 도넛 > 던킨,http://place.map.kakao.com/774317774,,,던킨,0,"127.928125,34.99,128.259375,35.343333333333334"
12323524,던킨 진주인벤스점,경남 진주시 평안동 47,경남 진주시 향교로 3,128.0830671,35.1977074,055-745-0550,음식점 > 간식 > 도넛 > 던킨,http://place.map.kakao.com/12323524,,,던킨,0,"127.928125,34.99,128.259375,35.343333333333334"
13042017,던킨 진주휴게소부산방향점,경남 진주시 호탄동 382,경남 진주시 남해고속도로 194,128.1222297,35.15975671,055-759-3205,음식점 > 간식 > 도넛 > 던킨,http://place.map.kakao.com/13042017,,,던킨,0,"127.928125,34.99,128.259375,35.343333333333334"
400678265,던킨 김천율곡점,경북 김천시 율곡동 654,경북 김천시 용전1로 48,128.1879088,36.12169286,054-435-4295,음식점 > 간식 > 도넛 > 던킨,http://place.map.kakao.com/400678265,,,던킨,0,"127.928125,35.99,128.259375,36.343333333333334"
899566884,던킨 김천신음점,경북 김천시 신음동 991-3,경북 김천시 부거리길 8,128.116881,36.13433463,054-432-2282,음식점 > 간식 > 도넛 > 던킨,http://place.map.kakao.com/899566884,,,던킨,0,"127.928125,35.99,128.259375,36.343333333333334"
138457120,던킨 김천구미역점,경북 김천시 남면 옥산리 787-1,경북 김천시 남면 혁신1로 51,128.180795,36.11356447,070-4118-3300,음식점 > 간식 > 도넛 > 던킨,http://place.map.kakao.com/138457120,,,던킨,0,"127.928125,35.99,128.259375,36.343333333333334"
27463379,던킨 한국도로공사본사점,경북 김천시 율곡동 941,경북 김천시 혁신8로 77,128.1892341,36.1287736,054-430-1119,음식점 > 간식 > 도넛 > 던킨,http://place.map.kakao.com/27463379,,,던킨,0,"127.928125,35.99,128.259375,36.343333333333334"
7837816,던킨 상주터미널점,경북 상주시 무양동 276-4,경북 상주시 삼백로 85,128.1528953,36.41855888,054-535-9212,음식점 > 간식 > 도넛 > 던킨,http://place.map.kakao.com/7837816,,,던킨,0,"127.928125,36.32333333333334,128.259375,36.67666666666666"
7836900,던킨 문경중앙점,경북 문경시 점촌동 250-5,경북 문경시 호서로 9,128.1983953,36.59596258,054-553-8808,음식점 > 간식 > 도넛 > 던킨,http://place.map.kakao.com/7836900,,,던킨,0,"127.928125,36.32333333333334,128.259375,36.67666666666666"
526950656,던킨 문경제일병원점,경북 문경시 모전동 188,경북 문경시 당교3길 25,128.1893249,36.58447897,054-552-1177,음식점 > 간식 > 도넛 > 던킨,http://place.map.kakao.com/526950656,,,던킨,0,"127.928125,36.32333333333334,128.259375,36.67666666666666"
26473047,던킨 문경휴게소하행점,경북 문경시 유곡동 460-10,경북 문경시 중부내륙고속도로 173,128.1497919,36.62086995,,음식점 > 간식 > 도넛 > 던킨,http://place.map.kakao.com/26473047,,,던킨,0,"127.928125,36.32333333333334,128.259375,36.67666666666666"
24530179,던킨 괴산휴게소마산방향점,충북 괴산군 장연면 오가리 103-2,충북 괴산군 장연면 중부내륙고속도로 205,127.9578676,36.83140904,043-832-7966,음식점 > 간식 > 도넛 > 던킨,http://place.map.kakao.com/24530179,,,던킨,0,"127.928125,36.656666666666666,128.259375,37.01"
1243372018,던킨 제천청전점,충북 제천시 청전동 634,충북 제천시 청전대로 161,128.2153955,37.15190954,043-647-1357,음식점 > 간식 > 도넛 > 던킨,http://place.map.kakao.com/1243372018,,,던킨,0,"127.928125,36.99,128.259375,37.343333333333334"
597794357,던킨 하소점,충북 제천시 하소동 72-16,충북 제천시 용두대로15가길 3,128.2000635,37.13973822,,음식점 > 간식 > 도넛 > 던킨,http://place.map.kakao.com/597794357,,,던킨,0,"127.928125,36.99,128.259375,37.343333333333334"
521661539,던킨 원주혁신점,강원특별자치도 원주시 반곡동 1886-1,강원특별자치도 원주시 혁신로 53,127.9799816,37.32349447,033-744-8066,음식점 > 간식 > 도넛 > 던킨,http://place.map.kakao.com/521661539,,,던킨,0,"127.928125,36.99,128.259375,37.343333333333334"
1516441631,던킨 원주태장점,강원특별자치도 원주시 태장동 692-2,강원특별자치도 원주시 현충로 54,127.9545837,37.36033033,033-745-2255,음식점 > 간식 > 도넛 > 던킨,http://place.map.kakao.com/1516441631,,,던킨,0,"127.928125,37.32333333333334,128.259375,37.67666666666666"
1641492700,던킨 원주세브란스병원점,강원특별자치도 원주시 일산동 162-33,강원특별자치도 원주시 일산로 20,127.9467358,37.34858136,033-748-3332,음식점 > 간식 > 도넛 > 던킨,http://place.map.kakao.com/1641492700,,,던킨,0,"127.928125,37.32333333333334,128.259375,37.67666666666666"
604969327,던킨 속초조양점,강원특별자치도 인제군 인제읍 상동리 96-3,강원특별자치도 인제군 인제읍 비봉로 43,128.1749159,38.06589404,033-636-9354,음식점 > 간식 > 도넛 > 던킨,http://place.map.kakao.com/604969327,,,던킨,0,"127.928125,37.99,128.259375,38.343333333333334"
10305885,던킨 통영중앙점,경남 통영시 항남동 197-38,경남 통영시 중앙로 122,128.4223924,34.8424287,055-645-6139,음식점 > 간식 > 도넛 > 던킨,http://place.map.kakao.com/10305885,,,던킨,0,"128.240625,34.656666666666666,128.571875,35.01"
261678972,던킨 경남고성점,경남 고성군 고성읍 동외리 288-2,경남 고성군 고성읍 동외로 157,128.3258132,34.97540454,055-674-2228,음식점 > 간식 > 도넛 > 던킨,http://place.map.kakao.com/261678972,,,던킨,0,"128.240625,34.656666666666666,128.571875,35.01"
12323548,던킨 마산삼계점,경남 창원시 마산회원구 내서읍 삼계리 27-1,경남 창원시 마산회원구 내서읍 삼계로 6,128.5042044,35.23222199,055-232-2586,음식점 > 간식 > 도넛 > 던킨,http://place.map.kakao.com/12323548,,,던킨,0,"128.240625,34.99,128.571875,35.343333333333334"
583280177,던킨 대구구지점,대구 달성군 구지면 응암리 1205-3,대구 달성군 구지면 과학마을로 47,128.4183428,35.65596164,053-261-9001,음식점 > 간식 > 도넛 > 던킨,http://place.map.kakao.com/583280177,,,던킨,0,"128.240625,35.32333333333334,128.571875,35.67666666666666"
1900076443,던킨 한영아동병원점,대구 남구 대명동 1583-7,대구 남구 월배로 468,128.5558728,35.83474854,053-622-2003,음식점 > 간식 > 도넛 > 던킨,http://place.map.kakao.com/1900076443,,,던킨,0,"128.240625,35.656666666666666,128.571875,36.01"
713586045,던킨 대구대천점,대구 달서구 대천동 940-2,대구 달서구 조암남로32길 20-4,128.5166062,35.8179402,053-636-6789,음식점 > 간식 > 도넛 > 던킨,http://place.map.kakao.com/713586045,,,던킨,0,"128.240625,35.656666666666666,128.571875,36.01"
12323464,던킨 대구본리점,대구 달서구 본리동 66-16,대구 달서구 장기로 193,128.5393933,35.84332892,053-524-1358,음식점 > 간식 > 도넛 > 던킨,http://place.map.kakao.com/12323464,,,던킨,0,"128.240625,35.656666666666666,128.571875,36.01"
1640186110,던킨 대구광장점,대구 서구 내당동 463-62,대구 서구 달구벌대로 1691,128.5504844,35.85555281,053-563-5777,음식점 > 간식 > 도넛 > 던킨,http://place.map.kakao.com/1640186110,,,던킨,0,"128.240625,35.656666666666666,128.571875,36.01"
10305333,던킨 대구성서롯데점,대구 달서구 이곡동 1244-1,대구 달서구 성서로 414,128.5076206,35.85430601,053-581-8685,음식점 > 간식 > 도넛 > 던킨,http://place.map.kakao.com/10305333,,,던킨,0,"128.240625,35.656666666666666,128.571875,36.01"
457105622,던킨 대구대곡점,대구 달서구 도원동 1435-3,대구 달서구 도원로 17,128.5360397,35.80812759,053-201-2620,음식점 > 간식 > 도넛 > 던킨,http://place.map.kakao.com/457105622,,,던킨,0,"128.240625,35.656666666666666,128.571875,36.01"
665733913,던킨 현풍테크노점,대구 달성군 유가읍 봉리 619,대구 달성군 유가읍 테크노상업로 120,128.4631145,35.69331998,053-615-2100,음식점 > 간식 > 도넛 > 던킨,http://place.map.kakao.com/665733913,,,던킨,0,"128.240625,35.656666666666666,128.571875,36.01"
205355456,던킨 대구신월성점,대구 달서구 월성동 1846,대구 달서구 조암로 29,128.5266917,35.82460544,070-7576-1846,음식점 > 간식 > 도넛 > 던킨,http://place.map.kakao.com/205355456,,,던킨,0,"128.240625,35.656666666666666,128.571875,36.01"
863865694,던킨 대구세천점,대구 달성군 다사읍 세천리 1588,대구 달성군 다사읍 세천로 160,128.4793564,35.87445947,053-593-2125,음식점 > 간식 > 도넛 > 던킨,http://place.map.kakao.com/863865694,,,던킨,0,"128.240625,35.656666666666666,128.571875,36.01"
1458024434,던킨 대구평리점,대구 서구 평리동 1053-1,대구 서구 국채보상로 293,128.5630933,35.87221834,053-621-1050,음식점 > 간식 > 도넛 > 던킨,http://place.map.kakao.com/1458024434,,,던킨,0,"128.240625,35.656666666666666,128.571875,36.01"
12323463,던킨 화원하나로점,대구 달성군 화원읍 설화리 555,대구 달성군 화원읍 성천로 9,128.4877378,35.79941711,053-638-8830,음식점 > 간식 > 도넛 > 던킨,http://place.map.kakao.com/12323463,,,던킨,0,"128.240625,35.656666666666666,128.571875,36.01"
1831549565,던킨 칠곡경북대병원점,대구 북구 학정동 474,대구 북구 호국로 807,128.5635152,35.95743106,053-312-8889,음식점 > 간식 > 도넛 > 던킨,http://place.map.kakao.com/1831549565,,,던킨,0,"128.240625,35.656666666666666,128.571875,36.01"
15646828,던킨 성서홈플러스점,대구 달서구 용산동 230-11,대구 달서구 달구벌대로 1467,128.52779,35.84950937,053-568-1253,음식점 > 간식 > 도넛 > 던킨,http://place.map.kakao.com/15646828,,,던킨,0,"128.240625,35.656666666666666,128.571875,36.01"
12323489,던킨 칠곡홈플러스점,대구 북구 동천동 968,대구 북구 동암로12길 8,128.5559324,35.94486415,053-314-0300,음식점 > 간식 > 도넛 > 던킨,http://place.map.kakao.com/12323489,,,던킨,0,"128.240625,35.656666666666666,128.571875,36.01"
1274481561,던킨 경북왜관점,경북 칠곡군 왜관읍 왜관리 777-248,경북 칠곡군 왜관읍 중앙로 98-1,128.3989064,35.98371585,054-977-9293,음식점 > 간식 > 도넛 > 던킨,http://place.map.kakao.com/1274481561,,,던킨,0,"128.240625,35.656666666666666,128.571875,36.01"
1462981091,던킨 계명대동산병원,대구 달서구 신당동 1000-2,대구 달서구 달구벌대로 1035,128.4802261,35.85395639,053-258-5832,음식점 > 간식 > 도넛 > 던킨,http://place.map.kakao.com/1462981091,,,던킨,0,"128.240625,35.656666666666666,128.571875,36.01"
1500235095,던킨 구미형곡점,경북 구미시 형곡동 144-1,경북 구미시 신시로 77,128.3385856,36.11494651,054-454-1100,음식점 > 간식 > 도넛 > 던킨,http://place.map.kakao.com/1500235095,,,던킨,0,"128.240625,35.99,128.571875,36.343333333333334"
7835353,던킨 구미인동점,경북 구미시 인의동 368-9,경북 구미시 인동중앙로6길 1,128.4214103,36.10717795,054-472-9817,음식점 > 간식 > 도넛 > 던킨,http://place.map.kakao.com/7835353,,,던킨,0,"128.240625,35.99,128.571875,36.343333333333334"
1528776438,던킨 구미봉곡점,경북 구미시 봉곡동 377,경북 구미시 봉곡로 96,128.3105364,36.14711383,,음식점 > 간식 > 도넛 > 던킨,http://place.map.kakao.com/1528776438,,,던킨,0,"128.240625,35.99,128.571875,36.343333333333334"
34526397,던킨 구미북삼점,경북 구미시 오태동 737-6,경북 구미시 금오대로5길 3,128.348729,36.07148957,070-7766-3300,음식점 > 간식 > 도넛 > 던킨,http://place.map.kakao.com/34526397,,,던킨,0,"128.240625,35.99,128.571875,36.343333333333334"
1775642269,던킨 구미순천향대병원점,경북 구미시 공단동 250,경북 구미시 1공단로 179,128.382921,36.10245774,054-468-9828,음식점 > 간식 > 도넛 > 던킨,http://place.map.kakao.com/1775642269,,,던킨,0,"128.240625,35.99,128.571875,36.343333333333334"
1507239581,던킨 구미옥계점,경북 구미시 옥계동 834-1,경북 구미시 옥계북로 36,128.4215635,36.13815878,054-471-2100,음식점 > 간식 > 도넛 > 던킨,http://place.map.kakao.com/1507239581,,,던킨,0,"128.240625,35.99,128.571875,36.343333333333334"
1540597077,던킨 구미롯데마트점,경북 구미시 신평동 465,경북 구미시 구미대로22길 11,128.365409,36.11378858,054-464-9900,음식점 > 간식 > 도넛 > 던킨,http://place.map.kakao.com/1540597077,,,던킨,0,"128.240625,35.99,128.571875,36.343333333333334"
368320404,던킨 구미확장점,경북 구미시 산동읍 신당리 1419,경북 구미시 산동읍 신당1로3길 19,128.4312882,36.15593298,0507-2093-5886,음식점 > 간식 > 도넛 > 던킨,http://place.map.kakao.com/368320404,,,던킨,0,"128.240625,35.99,128.571875,36.343333333333334"
2134228440,던킨 평창휴게소강릉방향점,강원특별자치도 평창군 용평면 이목정리 775,강원특별자치도 평창군 용평면 경강로 2159-58,128.4529434,37.60534359,,음식점 > 간식 > 도넛 > 던킨,http://place.map.kakao.com/2134228440,,,던킨,0,"128.240625,37.32333333333334,128.571875,37.67666666666666"
1834081195,던킨 내린천휴게소 양양방향점,강원특별자치도 인제군 상남면 하남리 371,강원특별자치도 인제군 상남면 서울양양고속도로 117,128.2877604,37.91594839,033-852-8635,음식점 > 간식 > 도넛 > 던킨,http://place.map.kakao.com/1834081195,,,던킨,0,"128.240625,37.656666666666666,128.571875,38.01"
285936154,던킨 델피노점,강원특별자치도 고성군 토성면 원암리 403-1,강원특별자치도 고성군 토성면 미시령옛길 1153,128.4948091,38.21223695,033-636-3364,음식점 > 간식 > 도넛 > 던킨,http://place.map.kakao.com/285936154,,,던킨,0,"128.240625,37.99,128.571875,38.343333333333334"
12323827,던킨 거제고현점,경남 거제시 고현동 978-12,경남 거제시 거제중앙로 1928,128.6224633,34.8900306,055-638-3337,음식점 > 간식 > 도넛 > 던킨,http://place.map.kakao.com/12323827,,,던킨,0,"128.553125,34.656666666666666,128.884375,35.01"
1187615114,던킨 거제아주점,경남 거제시 아주동 1685-9,경남 거제시 아주1로 66,128.685746,34.86668903,055-682-6434,음식점 > 간식 > 도넛 > 던킨,http://place.map.kakao.com/1187615114,,,던킨,0,"128.553125,34.656666666666666,128.884375,35.01"
1254368881,던킨 창원한마음병원점,경남 창원시 의창구 사림동 162-4,경남 창원시 의창구 용동로57번길 18,128.6977617,35.23820395,055-262-5004,음식점 > 간식 > 도넛 > 던킨,http://place.map.kakao.com/1254368881,,,던킨,0,"128.553125,34.99,128.884375,35.343333333333334"
12323522,던킨 창원팔용점,경남 창원시 의창구 팔용동 102-10,경남 창원시 의창구 팔용로 449,128.6139056,35.25649819,055-291-8199,음식점 > 간식 > 도넛 > 던킨,http://place.map.kakao.com/12323522,,,던킨,0,"128.553125,34.99,128.884375,35.343333333333334"
1699510274,던킨 김해율하점,경남 김해시 장유동 825-3,경남 김해시 율하6로 60,128.8240751,35.17215172,055-311-2260,음식점 > 간식 > 도넛 > 던킨,http://place.map.kakao.com/1699510274,,,던킨,0,"128.553125,34.99,128.884375,35.343333333333334"
18381256,던킨 마산양덕점,경남 창원시 마산회원구 양덕동 59-3,경남 창원시 마산회원구 율림교로 6,128.5842162,35.22873345,055-292-0110,음식점 > 간식 > 도넛 > 던킨,http://place.map.kakao.com/18381256,,,던킨,0,"128.553125,34.99,128.884375,35.343333333333334"
27529148,던킨 김해터미널점,경남 김해시 외동 1264,경남 김해시 김해대로 2232,128.8733895,35.22791432,055-321-0698,음식점 > 간식 > 도넛 > 던킨,http://place.map.kakao.com/27529148,,,던킨,0,"128.553125,34.99,128.884375,35.343333333333334"
15583943,던킨 진해석동점,경남 창원시 진해구 석동 141-11,경남 창원시 진해구 냉천로 63,128.7040983,35.15219983,055-552-3482,음식점 > 간식 > 도넛 > 던킨,http://place.map.kakao.com/15583943,,,던킨,0,"128.553125,34.99,128.884375,35.343333333333334"
1928784227,던킨 마산합성점,경남 창원시 마산회원구 합성동 267,경남 창원시 마산회원구 3.15대로 756,128.5834767,35.23917309,055-292-7600,음식점 > 간식 > 도넛 > 던킨,http://place.map.kakao.com/1928784227,,,던킨,0,"128.553125,34.99,128.884375,35.343333333333334"
242490231,던킨 진영휴게소순천방향점,경남 김해시 진영읍 우동리 295,경남 김해시 진영읍 하계로96번길 68,128.7158416,35.28006513,055-342-3959,음식점 > 간식 > 도넛 > 던킨,http://place.map.kakao.com/242490231,,,던킨,0,"128.553125,34.99,128.884375,35.343333333333334"
809032741,던킨장유 여객터미널점,경남 김해시 무계동 93,경남 김해시 무계로 56,128.8193639,35.20043832,055-312-2484,음식점 > 간식 > 도넛 > 던킨,http://place.map.kakao.com/809032741,,,던킨,0,"128.553125,34.99,128.884375,35.343333333333334"
940307008,던킨 경산꿈나무점,경북 경산시 중산동 488,경북 경산시 대학로 11,128.7240904,35.83524692,053-816-5009,음식점 > 간식 > 도넛 > 던킨,http://place.map.kakao.com/940307008,,,던킨,0,"128.553125,35.656666666666666,128.884375,36.01"
2067328640,던킨 대구침산점,대구 북구 침산동 147-2,대구 북구 침산남로 180-6,128.594908,35.8867383,053-292-7070,음식점 > 간식 > 도넛 > 던킨,http://place.map.kakao.com/2067328640,,,던킨,0,"128.553125,35.656666666666666,128.884375,36.01"
526799942,던킨 대구은행역점,대구 수성구 수성동1가 42-3,대구 수성구 수성로 377,128.6138387,35.85917993,053-288-8997,음식점 > 간식 > 도넛 > 던킨,http://place.map.kakao.com/526799942,,,던킨,0,"128.553125,35.656666666666666,128.884375,36.01"
19392787,던킨 대구KB빌딩점,대구 수성구 범어동 41-3,대구 수성구 달구벌대로 2397,128.6248624,35.85984415,053-754-7654,음식점 > 간식 > 도넛 > 던킨,http://place.map.kakao.com/19392787,,,던킨,0,"128.553125,35.656666666666666,128.884375,36.01"
205462696,던킨 대구중앙로역점,대구 중구 동성로2가 41-8,대구 중구 국채보상로 지하 580,128.5951962,35.87085185,053-423-5578,음식점 > 간식 > 도넛 > 던킨,http://place.map.kakao.com/205462696,,,던킨,0,"128.553125,35.656666666666666,128.884375,36.01"
862785557,던킨 대구신천점,대구 동구 신천동 127-1,대구 동구 장등로 20,128.6234835,35.86898593,053-216-7722,음식점 > 간식 > 도넛 > 던킨,http://place.map.kakao.com/862785557,,,던킨,0,"128.553125,35.656666666666666,128.884375,36.01"
26473041,던킨 경산세명병원점,경북 경산시 중방동 848-2,경북 경산시 경안로 208,128.7374176,35.82626443,053-819-8843,음식점 > 간식 > 도넛 > 던킨,http://place.map.kakao.com/26473041,,,던킨,0,"128.553125,35.656666666666666,128.884375,36.01"
776640137,던킨 대구남산점,대구 중구 남산동 2990,대구 중구 달구벌대로 1960,128.5779228,35.86316797,053-252-8972,음식점 > 간식 > 도넛 > 던킨,http://place.map.kakao.com/776640137,,,던킨,0,"128.553125,35.656666666666666,128.884375,36.01"
1986672023,던킨 경산하양점,경북 경산시 하양읍 금락리 116-268,경북 경산시 하양읍 하양로 34,128.8133563,35.90867361,053-710-5482,음식점 > 간식 > 도넛 > 던킨,http://place.map.kakao.com/1986672023,,,던킨,0,"128.553125,35.656666666666666,128.884375,36.01"
299813782,던킨 대구혁신점,대구 동구 각산동 1033-2,대구 동구 경안로 855,128.7137925,35.87861143,053-719-4048,음식점 > 간식 > 도넛 > 던킨,http://place.map.kakao.com/299813782,,,던킨,0,"128.553125,35.656666666666666,128.884375,36.01"
694319101,던킨 대구이시아점,대구 동구 봉무동 1539-8,대구 동구 팔공로51길 15-11,128.6397607,35.92209387,053-985-0988,음식점 > 간식 > 도넛 > 던킨,http://place.map.kakao.com/694319101,,,던킨,0,"128.553125,35.656666666666666,128.884375,36.01"
13042071,던킨 대구롯데마트점,대구 동구 율하동 1117,대구 동구 안심로 80,128.6933615,35.86841213,053-607-2737,음식점 > 간식 > 도넛 > 던킨,http://place.map.kakao.com/13042071,,,던킨,0,"128.553125,35.656666666666666,128.884375,36.01"
13042049,던킨 수성홈플러스점,대구 수성구 두산동 113,대구 수성구 동대구로 95,128.6235386,35.83955211,053-763-8799,음식점 > 간식 > 도넛 > 던킨,http://place.map.kakao.com/13042049,,,던킨,0,"128.553125,35.656666666666666,128.884375,36.01"
1012330041,던킨 경산휴게소점,경북 경산시 진량읍 신상리 968-1,경북 경산시 진량읍 대학로 1089,128.8104038,35.87922671,053-852-5243,음식점 > 간식 > 도넛 > 던킨,http://place.map.kakao.com/1012330041,,,던킨,0,"128.553125,35.656666666666666,128.884375,36.01"
12323462,던킨 대구NC아울렛점,대구 북구 산격동 1668,대구 북구 유통단지로14길 22,128.6103965,35.90525271,070-4211-4040,음식점 > 간식 > 도넛 > 던킨,http://place.map.kakao.com/12323462,,,던킨,0,"128.553125,35.656666666666666,128.884375,36.01"
12323516,던킨 동대구역사점,대구 동구 신암동 294,대구 동구 동대구로 550,128.6280051,35.87964736,053-952-1632,음식점 > 간식 > 도넛 > 던킨,http://place.map.kakao.com/12323516,,,던킨,0,"128.553125,35.656666666666666,128.884375,36.01"
1893799561,던킨 대구공항국내선점,대구 동구 지저동 400-5,대구 동구 공항로 221,128.6387236,35.89926255,053-984-8777,음식점 > 간식 > 도넛 > 던킨,http://place.map.kakao.com/1893799561,,,던킨,0,"128.553125,35.656666666666666,128.884375,36.01"
203476412,던킨 대백프라자점,대구 중구 대봉동 214,대구 중구 명덕로 333,128.6063345,35.85594989,053-253-8070,음식점 > 간식 > 도넛 > 던킨,http://place.map.kakao.com/203476412,,,던킨,0,"128.553125,35.656666666666666,128.884375,36.01"
1203666485,던킨 안동옥동점,경북 안동시 옥동 616-7,경북 안동시 광명로 193,128.7040095,36.56381766,054-841-3100,음식점 > 간식 > 도넛 > 던킨,http://place.map.kakao.com/1203666485,,,던킨,0,"128.553125,36.32333333333334,128.884375,36.67666666666666"
1914251376,던킨 경북의성점,경북 의성군 의성읍 후죽리 725-1,경북 의성군 의성읍 문소3길 52,128.6953289,36.35060666,054-834-8888,음식점 > 간식 > 도넛 > 던킨,http://place.map.kakao.com/1914251376,,,던킨,0,"128.553125,36.32333333333334,128.884375,36.67666666666666"
1287530949,던킨 영주가흥점,경북 영주시 가흥동 1808-1,경북 영주시 대동로 20,128.6044876,36.8149475,054-633-7955,음식점 > 간식 > 도넛 > 던킨,http://place.map.kakao.com/1287530949,,,던킨,0,"128.553125,36.656666666666666,128.884375,37.01"
526914847,던킨 강릉교동점,강원특별자치도 강릉시 교동 1880-4,강원특별자치도 강릉시 교동광장로 105,128.8764986,37.76500505,033-655-2426,음식점 > 간식 > 도넛 > 던킨,http://place.map.kakao.com/526914847,,,던킨,0,"128.553125,37.656666666666666,128.884375,38.01"
254162282,던킨 속초조양점,강원특별자치도 속초시 조양동 1497-2,강원특별자치도 속초시 동해대로 4169,128.5790448,38.19145914,,음식점 > 간식 > 도넛 > 던킨,http://place.map.kakao.com/254162282,,,던킨,0,"128.553125,37.99,128.884375,38.343333333333334"
1358827394,던킨 양양점,강원특별자치도 양양군 양양읍 남문리 79-4,강원특별자치도 양양군 양양읍 양양로 73,128.6213328,38.07478917,033-850-8000,음식점 > 간식 > 도넛 > 던킨,http://place.map.kakao.com/1358827394,,,던킨,0,"128.553125,37.99,128.884375,38.343333333333334"
1156650932,던킨 양양쏠비치점,강원특별자치도 양양군 손양면 오산리 23-4,강원특별자치도 양양군 손양면 선사유적로 678,128.6644888,38.08861788,033-670-3598,음식점 > 간식 > 도넛 > 던킨,http://place.map.kakao.com/1156650932,,,던킨,0,"128.553125,37.99,128.884375,38.343333333333334"
1964827201,던킨 부산역라마다점,부산 동구 초량동 1204-1,부산 동구 중앙대로196번길 10,129.0404591,35.11425482,051-469-1211,음식점 > 간식 > 도넛 > 던킨,http://place.map.kakao.com/1964827201,,,던킨,0,"128.865625,34.99,129.196875,35.343333333333334"
325070426,던킨 부산거제역점,부산 연제구 거제동 23-6,부산 연제구 월드컵대로 180,129.0771513,35.18785541,051-865-0077,음식점 > 간식 > 도넛 > 던킨,http://place.map.kakao.com/325070426,,,던킨,0,"128.865625,34.99,129.196875,35.343333333333334"
963621991,던킨 부산서면점,부산 부산진구 부전동 486-5,부산 부산진구 가야대로 779,129.0567637,35.15788575,051-805-4425,음식점 > 간식 > 도넛 > 던킨,http://place.map.kakao.com/963621991,,,던킨,0,"128.865625,34.99,129.196875,35.343333333333334"
1749819374,던킨 부산동래역점,부산 동래구 온천동 1441-17,부산 동래구 충렬대로 154,129.0769475,35.20450953,051-531-6979,음식점 > 간식 > 도넛 > 던킨,http://place.map.kakao.com/1749819374,,,던킨,0,"128.865625,34.99,129.196875,35.343333333333334"
288039888,던킨 부산종합운동장역점,부산 연제구 거제동 894-4,부산 연제구 아시아드대로 89,129.0667511,35.19264012,051-507-2872,음식점 > 간식 > 도넛 > 던킨,http://place.map.kakao.com/288039888,,,던킨,0,"128.865625,34.99,129.196875,35.343333333333334"
747044244,던킨 부산덕천점,부산 북구 덕천동 401-17,부산 북구 만덕대로16번길 7,129.0071222,35.21013303,051-913-0778,음식점 > 간식 > 도넛 > 던킨,http://place.map.kakao.com/747044244,,,던킨,0,"128.865625,34.99,129.196875,35.343333333333334"
2099368047,던킨 부산메트로시티점,부산 남구 용호동 198-6,부산 남구 용호로 48,129.1092075,35.1263688,051-626-7250,음식점 > 간식 > 도넛 > 던킨,http://place.map.kakao.com/2099368047,,,던킨,0,"128.865625,34.99,129.196875,35.343333333333334"
248826309,던킨 부산동대신점,부산 서구 서대신동3가 387-12,부산 서구 구덕로 331,129.0159551,35.11319336,051-248-0022,음식점 > 간식 > 도넛 > 던킨,http://place.map.kakao.com/248826309,,,던킨,0,"128.865625,34.99,129.196875,35.343333333333334"
1957841095,던킨 부산명지오션시티점,부산 강서구 명지동 3238-12,부산 강서구 명지오션시티4로 70,128.9032592,35.08278445,051-203-3668,음식점 > 간식 > 도넛 > 던킨,http://place.map.kakao.com/1957841095,,,던킨,0,"128.865625,34.99,129.196875,35.343333333333334"
1475863788,던킨 부산개금역점,부산 부산진구 개금동 204-6,부산 부산진구 가야대로 459,129.0223455,35.15349815,051-892-6635,음식점 > 간식 > 도넛 > 던킨,http://place.map.kakao.com/1475863788,,,던킨,0,"128.865625,34.99,129.196875,35.343333333333334"
467893622,던킨 부산화명점,부산 북구 화명동 2276-6,부산 북구 금곡대로285번길 30,129.0119548,35.23420575,051-364-3640,음식점 > 간식 > 도넛 > 던킨,http://place.map.kakao.com/467893622,,,던킨,0,"128.865625,34.99,129.196875,35.343333333333334"
1624998874,던킨 부산구서점,부산 금정구 구서동 87-26,부산 금정구 구서로 20,129.0890941,35.24683285,051-583-2606,음식점 > 간식 > 도넛 > 던킨,http://place.map.kakao.com/1624998874,,,던킨,0,"128.865625,34.99,129.196875,35.343333333333334"
995765271,던킨 부산온천장역점,부산 동래구 온천동 153-8,부산 동래구 중앙대로 1523,129.0854824,35.22153418,051-555-8678,음식점 > 간식 > 도넛 > 던킨,http://place.map.kakao.com/995765271,,,던킨,0,"128.865625,34.99,129.196875,35.343333333333334"
56946293,던킨 사상터미널점,부산 사상구 괘법동 533-1,부산 사상구 사상로 201,128.982525,35.16322146,051-323-0306,음식점 > 간식 > 도넛 > 던킨,http://place.map.kakao.com/56946293,,,던킨,0,"128.865625,34.99,129.196875,35.343333333333334"
849379455,던킨 센텀KNN점,부산 해운대구 우동 1469,부산 해운대구 센텀서로 30,129.1284343,35.17205967,051-664-7770,음식점 > 간식 > 도넛 > 던킨,http://place.map.kakao.com/849379455,,,던킨,0,"128.865625,34.99,129.196875,35.343333333333334"
4218558,던킨 부산세웅병원점,부산 금정구 서동 199-16,부산 금정구 서동로 162,129.1041327,35.21444372,051-525-6869,음식점 > 간식 > 도넛 > 던킨,http://place.map.kakao.com/4218558,,,던킨,0,"128.865625,34.99,129.196875,35.343333333333334"
21702363,던킨 양산물금점,경남 양산시 물금읍 범어리 2680-17,경남 양산시 물금읍 범어로 46,129.0130943,35.32992188,055-363-4343,음식점 > 간식 > 도넛 > 던킨,http://place.map.kakao.com/21702363,,,던킨,0,"128.865625,34.99,129.196875,35.343333333333334"
1226212544,던킨 하단아트몰링점,부산 사하구 하단동 526-6,부산 사하구 낙동남로 1413,128.9664754,35.10675459,051-999-7514,음식점 > 간식 > 도넛 > 던킨,http://place.map.kakao.com/1226212544,,,던킨,0,"128.865625,34.99,129.196875,35.343333333333334"
554120649,던킨 트레이더스연산점,부산 연제구 연산동 137-5,부산 연제구 좌수영로 241,129.1119494,35.18509419,051-755-7553,음식점 > 간식 > 도넛 > 던킨,http://place.map.kakao.com/554120649,,,던킨,0,"128.865625,34.99,129.196875,35.343333333333334"
31928527,던킨 해운대역사점,부산 해운대구 우동 656,부산 해운대구 해운대로 지하 626,129.1588752,35.16364475,051-741-3130,음식점 > 간식 > 도넛 > 던킨,http://place.map.kakao.com/31928527,,,던킨,0,"128.865625,34.99,129.196875,35.343333333333334"
1844122070,던킨 서면역점,부산 부산진구 부전동 573-1,부산 부산진구 중앙대로 지하 730,129.0590353,35.15776425,051-512-5280,음식점 > 간식 > 도넛 > 던킨,http://place.map.kakao.com/1844122070,,,던킨,0,"128.865625,34.99,129.196875,35.343333333333334"
16230323,던킨 홈플러스아시아드점,부산 연제구 거제동 1208,부산 연제구 종합운동장로 7,129.0620081,35.19126834,051-506-5072,음식점 > 간식 > 도넛 > 던킨,http://place.map.kakao.com/16230323,,,던킨,0,"128.865625,34.99,129.196875,35.343333333333334"
17341456,던킨 롯데마트부암점,부산 부산진구 부암동 257,부산 부산진구 신천대로 241,129.0493089,35.16327763,051-816-5776,음식점 > 간식 > 도넛 > 던킨,http://place.map.kakao.com/17341456,,,던킨,0,"128.865625,34.99,129.196875,35.343333333333334"
19083160,던킨 김해공항국제선점,부산 강서구 대저2동 2806-1,,128.9470823,35.17187379,051-971-8333,음식점 > 간식 > 도넛 > 던킨,http://place.map.kakao.com/19083160,,,던킨,0,"128.865625,34.99,129.196875,35.343333333333334"
1331764615,던킨 경성대부경대역사점,부산 남구 대연동 77,부산 남구 수영로 지하 324,129.1004348,35.13755859,051-628-2993,음식점 > 간식 > 도넛 > 던킨,http://place.map.kakao.com/1331764615,,,던킨,0,"128.865625,34.99,129.196875,35.343333333333334"
994786043,던킨 김해인제대점(휴업중),경남 김해시 어방동 607,경남 김해시 인제로 197,128.9030035,35.24981502,055-320-4040,음식점 > 간식 > 도넛 > 던킨,http://place.map.kakao.com/994786043,,,던킨,0,"128.865625,34.99,129.196875,35.343333333333334"
537370912,던킨 부산시청역사점,부산 연제구 연산동 1416-2,부산 연제구 중앙대로 지하 1017,129.0766164,35.17977401,051-862-3133,음식점 > 간식 > 도넛 > 던킨,http://place.map.kakao.com/537370912,,,던킨,0,"128.865625,34.99,129.196875,35.343333333333334"
15529431,던킨 센텀시티홈플러스점,부산 해운대구 우동 1499,부산 해운대구 센텀동로 6,129.1336898,35.17091463,051-747-0166,음식점 > 간식 > 도넛 > 던킨,http://place.map.kakao.com/15529431,,,던킨,0,"128.865625,34.99,129.196875,35.343333333333334"
1739743613,던킨 양산사송점,경남 양산시 동면 내송리 879-3,경남 양산시 동면 내송내안2길 35,129.0671855,35.31875288,055-388-3006,음식점 > 간식 > 도넛 > 던킨,http://place.map.kakao.com/1739743613,,,던킨,0,"128.865625,34.99,129.196875,35.343333333333334"
819257065,던킨 양산증산점,경남 양산시 물금읍 가촌리 1296-1,경남 양산시 물금읍 증산역로 135,129.0054251,35.3107233,055-372-3132,음식점 > 간식 > 도넛 > 던킨,http://place.map.kakao.com/819257065,,,던킨,0,"128.865625,34.99,129.196875,35.343333333333334"
812746809,던킨 부산미래병원점,부산 동래구 안락동 752-2,부산 동래구 충렬대로 358,129.0975621,35.19772252,051-529-9101,음식점 > 간식 > 도넛 > 던킨,http://place.map.kakao.com/812746809,,,던킨,0,"128.865625,34.99,129.196875,35.343333333333334"
1005332787,던킨 양산석산점,경남 양산시 동면 석산리 1449-1,경남 양산시 동면 금오13길 54,129.0246139,35.32039086,055-366-6353,음식점 > 간식 > 도넛 > 던킨,http://place.map.kakao.com/1005332787,,,던킨,0,"128.865625,34.99,129.196875,35.343333333333334"
1680129809,던킨 부산부민병원점,부산 북구 덕천동 380-4,부산 북구 만덕대로 59,129.011249,35.21188577,051-341-0857,음식점 > 간식 > 도넛 > 던킨,http://place.map.kakao.com/1680129809,,,던킨,0,"128.865625,34.99,129.196875,35.343333333333334"
42712421,던킨 홈플러스기장정관점,부산 기장군 정관읍 매학리 712-1,부산 기장군 정관읍 정관5로 50,129.1763795,35.32305099,051-727-1197,음식점 > 간식 > 도넛 > 던킨,http://place.map.kakao.com/42712421,,,던킨,0,"128.865625,34.99,129.196875,35.343333333333334"
2041108509,던킨 울산언양점,울산 울주군 언양읍 서부리 176-3,울산 울주군 언양읍 헌양길 167,129.1174152,35.56703514,052-254-5777,음식점 > 간식 > 도넛 > 던킨,http://place.map.kakao.com/2041108509,,,던킨,0,"128.865625,35.32333333333334,129.196875,35.67666666666666"
13042032,던킨 울산역사점,울산 울주군 삼남읍 신화리 88,,129.1384678,35.55132043,052-710-5994,음식점 > 간식 > 도넛 > 던킨,http://place.map.kakao.com/13042032,,,던킨,0,"128.865625,35.32333333333334,129.196875,35.67666666666666"
12323498,던킨 양산덕계점(휴업중),경남 양산시 덕계동 941,경남 양산시 덕계로 87,129.1521522,35.37541457,055-363-8964,음식점 > 간식 > 도넛 > 던킨,http://place.map.kakao.com/12323498,,,던킨,0,"128.865625,35.32333333333334,129.196875,35.67666666666666"
12323824,던킨 삼척중앙점,강원특별자치도 삼척시 남양동 32-11,강원특별자치도 삼척시 진주로 38,129.1640867,37.44412935,033-575-7658,음식점 > 간식 > 도넛 > 던킨,http://place.map.kakao.com/12323824,,,던킨,0,"128.865625,37.32333333333334,129.196875,37.67666666666666"
12323358,던킨 동해천곡점,강원특별자치도 동해시 천곡동 845,강원특별자치도 동해시 천곡로 86-2,129.1150698,37.52274675,033-533-5800,음식점 > 간식 > 도넛 > 던킨,http://place.map.kakao.com/12323358,,,던킨,0,"128.865625,37.32333333333334,129.196875,37.67666666666666"
1231231717,던킨 강릉역사점,강원특별자치도 강릉시 교동 95-10,강원특별자치도 강릉시 용지로 176,128.8995665,37.76431104,010-2519-3850,음식점 > 간식 > 도넛 > 던킨,http://place.map.kakao.com/1231231717,,,던킨,0,"128.865625,37.656666666666666,129.196875,38.01"
280115161,던킨 강릉고속터미널 (휴업중),강원특별자치도 강릉시 홍제동 992-2,강원특별자치도 강릉시 하슬라로 15,128.879796,37.75464052,033-641-2047,음식점 > 간식 > 도넛 > 던킨,http://place.map.kakao.com/280115161,,,던킨,0,"128.865625,37.656666666666666,129.196875,38.01"
526758371,던킨 울산무거점,울산 남구 무거동 860-7,울산 남구 대학로 161,129.2627177,35.54906892,052-249-5579,음식점 > 간식 > 도넛 > 던킨,http://place.map.kakao.com/526758371,,,던킨,0,"129.178125,35.32333333333334,129.509375,35.67666666666666"
12323185,던킨 울산반구점,울산 중구 반구동 54-1,울산 중구 번영로 482,129.336373,35.56402945,052-294-7005,음식점 > 간식 > 도넛 > 던킨,http://place.map.kakao.com/12323185,,,던킨,0,"129.178125,35.32333333333334,129.509375,35.67666666666666"
1456469116,던킨 울산매곡점,울산 북구 매곡동 638,울산 북구 매산로 92-15,129.3581191,35.6406948,052-236-1718,음식점 > 간식 > 도넛 > 던킨,http://place.map.kakao.com/1456469116,,,던킨,0,"129.178125,35.32333333333334,129.509375,35.67666666666666"
53632368,던킨 울산성남점,울산 중구 옥교동 84-5,울산 중구 시계탑거리 39,129.3218751,35.55344472,052-242-2120,음식점 > 간식 > 도넛 > 던킨,http://place.map.kakao.com/53632368,,,던킨,0,"129.178125,35.32333333333334,129.509375,35.67666666666666"
12323186,던킨 울산남구홈플러스점,울산 남구 야음동 789-91,울산 남구 수암로 148,129.3228641,35.52657946,052-260-6500,음식점 > 간식 > 도넛 > 던킨,http://place.map.kakao.com/12323186,,,던킨,0,"129.178125,35.32333333333334,129.509375,35.67666666666666"
2067392593,던킨 울산중산점,울산 북구 중산동 1320-7,울산 북구 매곡2로 39,129.3543747,35.64832061,052-282-3230,음식점 > 간식 > 도넛 > 던킨,http://place.map.kakao.com/2067392593,,,던킨,0,"129.178125,35.32333333333334,129.509375,35.67666666666666"
761431711,던킨 울산이마트점,울산 남구 삼산동 1646,울산 남구 남중로 48,129.3484004,35.53801739,052-227-3787,음식점 > 간식 > 도넛 > 던킨,http://place.map.kakao.com/761431711,,,던킨,0,"129.178125,35.32333333333334,129.509375,35.67666666666666"
1617900595,던킨 메가마트울산점,울산 북구 진장동 705,울산 북구 진장17길 10,129.3564428,35.56243753,052-961-0167,음식점 > 간식 > 도넛 > 던킨,http://place.map.kakao.com/1617900595,,,던킨,0,"129.178125,35.32333333333334,129.509375,35.67666666666666"
12323232,던킨 울산원예농협하나로점,울산 울주군 범서읍 굴화리 295-1,울산 울주군 범서읍 장검길 10,129.254062,35.55759307,052-223-3225,음식점 > 간식 > 도넛 > 던킨,http://place.map.kakao.com/12323232,,,던킨,0,"129.178125,35.32333333333334,129.509375,35.67666666666666"
13108442,던킨 울산하나로점,울산 북구 진장동 282-1,울산 북구 진장유통로 90,129.3587495,35.57908885,052-288-3530,음식점 > 간식 > 도넛 > 던킨,http://place.map.kakao.com/13108442,,,던킨,0,"129.178125,35.32333333333334,129.509375,35.67666666666666"
12323664,던킨 울산동구홈플러스점,울산 동구 일산동 577-1,울산 동구 방어진순환도로 637,129.4274582,35.49906332,052-209-1100,음식점 > 간식 > 도넛 > 던킨,http://place.map.kakao.com/12323664,,,던킨,0,"129.178125,35.32333333333334,129.509375,35.67666666666666"
264878614,던킨 포항효자점,경북 포항시 남구 효자동 576-11,경북 포항시 남구 효성로29번길 2,129.3371237,36.0064246,054-276-3340,음식점 > 간식 > 도넛 > 던킨,http://place.map.kakao.com/264878614,,,던킨,0,"129.178125,35.656666666666666,129.509375,36.01"
1162744521,던킨 경주용황점,경북 경주시 용강동 1621,경북 경주시 용황로10길 16-8,129.2290594,35.88422269,054-745-9919,음식점 > 간식 > 도넛 > 던킨,http://place.map.kakao.com/1162744521,,,던킨,0,"129.178125,35.656666666666666,129.509375,36.01"
12323494,던킨 포항문덕점,경북 포항시 남구 오천읍 문덕리 176-4,경북 포항시 남구 오천읍 원동로 17,129.4027979,35.96459441,054-293-3223,음식점 > 간식 > 도넛 > 던킨,http://place.map.kakao.com/12323494,,,던킨,0,"129.178125,35.656666666666666,129.509375,36.01"
1019156094,던킨 경주시청점,경북 경주시 동천동 790-17,경북 경주시 양정로 263,129.2240452,35.8563186,054-620-2775,음식점 > 간식 > 도넛 > 던킨,http://place.map.kakao.com/1019156094,,,던킨,0,"129.178125,35.656666666666666,129.509375,36.01"
26855099,던킨 포항역사점,경북 포항시 북구 흥해읍 이인리 137-1,경북 포항시 북구 흥해읍 포항역로 1,129.3419118,36.07131628,054-727-4795,음식점 > 간식 > 도넛 > 던킨,http://place.map.kakao.com/26855099,,,던킨,0,"129.178125,35.99,129.509375,36.343333333333334"
527781013,던킨 울진덕구온천점,경북 울진군 북면 덕구리 575,경북 울진군 북면 덕구온천로 924,129.2837963,37.07893863,,음식점 > 간식 > 도넛 > 던킨,http://place.map.kakao.com/527781013,,,던킨,0,"129.178125,36.99,129.509375,37.343333333333334"
238730666,던킨 시흥은계점,경기 시흥시 은행동 638-1,경기 시흥시 은계로142번길 3-15,126.8047839,37.43599565,070-8865-1111,음식점 > 간식 > 도넛 > 던킨,http://place.map.kakao.com/238730666,,,던킨,1,"126.678125,37.32333333333334,126.84375,37.5"
1815812395,던킨 시흥정왕점,경기 시흥시 정왕동 1734-7,경기 시흥시 정왕대로 230,126.7385516,37.34472409,031-497-2005,음식점 > 간식 > 도넛 > 던킨,http://place.map.kakao.com/1815812395,,,던킨,1,"126.678125,37.32333333333334,126.84375,37.5"
1448555138,던킨 인천신논현점,인천 남동구 논현동 733-2,인천 남동구 논고개로 88,126.7260039,37.39946167,070-7537-1096,음식점 > 간식 > 도넛 > 던킨,http://place.map.kakao.com/1448555138,,,던킨,1,"126.678125,37.32333333333334,126.84375,37.5"
2076589744,던킨 시흥하중점,경기 시흥시 하중동 856-3,경기 시흥시 하중로 195,126.8047048,37.39424326,031-315-3559,음식점 > 간식 > 도넛 > 던킨,http://place.map.kakao.com/2076589744,,,던킨,1,"126.678125,37.32333333333334,126.84375,37.5"
535736443,던킨 배곧아브뉴프랑점,경기 시흥시 배곧동 214,경기 시흥시 서울대학로278번길 8,126.7267924,37.36952527,031-433-1500,음식점 > 간식 > 도넛 > 던킨,http://place.map.kakao.com/535736443,,,던킨,1,"126.678125,37.32333333333334,126.84375,37.5"
1043416656,던킨 시흥장곡점,경기 시흥시 장곡동 818-1,경기 시흥시 인선길 36,126.7846886,37.37739814,031-311-8852,음식점 > 간식 > 도넛 > 던킨,http://place.map.kakao.com/1043416656,,,던킨,1,"126.678125,37.32333333333334,126.84375,37.5"
1998717828,던킨 시흥능곡점,경기 시흥시 능곡동 722,경기 시흥시 승지로59번길 12,126.8091605,37.36903541,031-503-8885,음식점 > 간식 > 도넛 > 던킨,http://place.map.kakao.com/1998717828,,,던킨,1,"126.678125,37.32333333333334,126.84375,37.5"
1331324629,던킨 시흥신천역사점,경기 시흥시 신천동 768-4,경기 시흥시 신천로 지하 92,126.7867659,37.43925142,,음식점 > 간식 > 도넛 > 던킨,http://place.map.kakao.com/1331324629,,,던킨,1,"126.678125,37.32333333333334,126.84375,37.5"
207405711,던킨 포포인츠쉐라톤구로점,서울 구로구 구로동 1128-1,서울 구로구 디지털로32길 72,126.8989295,37.48327621,02-6905-9569,음식점 > 간식 > 도넛 > 던킨,http://place.map.kakao.com/207405711,,,던킨,1,"126.84375,37.32333333333334,127.009375,37.5"
12323451,던킨 산본수리점,경기 군포시 산본동 1151,경기 군포시 고산로 515,126.9227054,37.35947988,031-395-8090,음식점 > 간식 > 도넛 > 던킨,http://place.map.kakao.com/12323451,,,던킨,1,"126.84375,37.32333333333334,127.009375,37.5"
324880756,던킨 산본역점,경기 군포시 산본동 1142-12,경기 군포시 산본로323번길 13,126.9327002,37.35887869,031-397-0111,음식점 > 간식 > 도넛 > 던킨,http://place.map.kakao.com/324880756,,,던킨,1,"126.84375,37.32333333333334,127.009375,37.5"
1440108807,던킨 인덕원IT점,경기 의왕시 포일동 653,경기 의왕시 이미로 40,126.9914357,37.4010934,031-8069-7310,음식점 > 간식 > 도넛 > 던킨,http://place.map.kakao.com/1440108807,,,던킨,1,"126.84375,37.32333333333334,127.009375,37.5"
389756757,던킨 군포당동점,경기 군포시 당동 921-5,경기 군포시 고산로 256,126.9443368,37.34657128,031-397-0110,음식점 > 간식 > 도넛 > 던킨,http://place.map.kakao.com/389756757,,,던킨,1,"126.84375,37.32333333333334,127.009375,37.5"
777085484,던킨 시흥조남점,경기 시흥시 조남동 666,경기 시흥시 목감둘레로 59-9,126.8482358,37.37367011,070-4106-0000,음식점 > 간식 > 도넛 > 던킨,http://place.map.kakao.com/777085484,,,던킨,1,"126.84375,37.32333333333334,127.009375,37.5"
542688179,던킨 지샘병원점,경기 군포시 당동 730,경기 군포시 군포로 591,126.9476567,37.35853215,031-466-3076,음식점 > 간식 > 도넛 > 던킨,http://place.map.kakao.com/542688179,,,던킨,1,"126.84375,37.32333333333334,127.009375,37.5"
1614688213,던킨 시흥휴게소점,경기 시흥시 조남동 산 15-1,경기 시흥시 수도권제1순환고속도로 105,126.8558328,37.38427295,070-4120-0116,음식점 > 간식 > 도넛 > 던킨,http://place.map.kakao.com/1614688213,,,던킨,1,"126.84375,37.32333333333334,127.009375,37.5"
93677422,던킨 시흥하늘휴게소 판교방향점,경기 시흥시 조남동 193,경기 시흥시 수도권제1순환고속도로 105,126.8555029,37.38380492,070-4230-9501,음식점 > 간식 > 도넛 > 던킨,http://place.map.kakao.com/93677422,,,던킨,1,"126.84375,37.32333333333334,127.009375,37.5"
21658182,던킨 인덕원역사점,경기 안양시 동안구 관양동 1563,경기 안양시 동안구 흥안대로 지하 529,126.9766889,37.40161311,031-421-6793,음식점 > 간식 > 도넛 > 던킨,http://place.map.kakao.com/21658182,,,던킨,1,"126.84375,37.32333333333334,127.009375,37.5"
308722162,던킨 광명역사점,경기 광명시 일직동 276-1,경기 광명시 광명역로 21,126.8853729,37.41673932,070-5143-8381,음식점 > 간식 > 도넛 > 던킨,http://place.map.kakao.com/308722162,,,던킨,1,"126.84375,37.32333333333334,127.009375,37.5"
50236716,던킨 안양관양점,경기 안양시 동안구 관양동 1443,경기 안양시 동안구 관평로 296,126.957234,37.40269881,,음식점 > 간식 > 도넛 > 던킨,http://place.map.kakao.com/50236716,,,던킨,1,"126.84375,37.32333333333334,127.009375,37.5"
57817335,던킨 부평테크시티점,인천 부평구 청천동 425-4,인천 부평구 부평대로 293,126.721212,37.51756653,032-650-5880,음식점 > 간식 > 도넛 > 던킨,http://place.map.kakao.com/57817335,,,던킨,1,"126.678125,37.5,126.84375,37.67666666666666"
828759356,던킨 인천검단점,인천 서구 원당동 1041,인천 서구 이음대로 378,126.7123792,37.59373526,032-561-7772,음식점 > 간식 > 도넛 > 던킨,http://place.map.kakao.com/828759356,,,던킨,1,"126.678125,37.5,126.84375,37.67666666666666"
1738814023,던킨 김포풍무역점,경기 김포시 풍무동 270-4,경기 김포시 유현로238번길 36,126.7327455,37.61097578,031-988-2552,음식점 > 간식 > 도넛 > 던킨,http://place.map.kakao.com/1738814023,,,던킨,1,"126.678125,37.5,126.84375,37.67666666666666"
577436849,던킨 김포사우점,경기 김포시 사우동 237,경기 김포시 돌문로 49,126.7174683,37.6193536,031-989-2353,음식점 > 간식 > 도넛 > 던킨,http://place.map.kakao.com/577436849,,,던킨,1,"126.678125,37.5,126.84375,37.67666666666666"
247314703,던킨 원종역점,경기 부천시 오정구 원종동 281-6,경기 부천시 오정구 소사로 742,126.8050571,37.52228653,,음식점 > 간식 > 도넛 > 던킨,http://place.map.kakao.com/247314703,,,던킨,1,"126.678125,37.5,126.84375,37.67666666666666"
1824399315,던킨 김포공항국제선점,서울 강서구 방화동 886,서울 강서구 하늘길 38,126.8010742,37.56566384,02-2666-3053,음식점 > 간식 > 도넛 > 던킨,http://place.map.kakao.com/1824399315,,,던킨,1,"126.678125,37.5,126.84375,37.67666666666666"
1325955917,던킨 걸포북변역점,경기 김포시 걸포동 1574-3,경기 김포시 걸포로 6,126.707071,37.63212492,031-983-2572,음식점 > 간식 > 도넛 > 던킨,http://place.map.kakao.com/1325955917,,,던킨,1,"126.678125,37.5,126.84375,37.67666666666666"
1550500181,던킨 검단중앙역점,인천 서구 불로동 999-9,인천 서구 고산후로 279,126.6982869,37.60877089,032-563-2228,음식점 > 간식 > 도넛 > 던킨,http://place.map.kakao.com/1550500181,,,던킨,1,"126.678125,37.5,126.84375,37.67666666666666"
1875096585,던킨 부평롯데마트점,인천 부평구 산곡동 159-52,인천 부평구 마장로 296,126.7040748,37.50501173,032-511-8110,음식점 > 간식 > 도넛 > 던킨,http://place.map.kakao.com/1875096585,,,던킨,1,"126.678125,37.5,126.84375,37.67666666666666"
629375582,던킨 마곡나루역사점,서울 강서구 마곡동 372-5,서울 강서구 마곡중앙로 지하 135,126.8276358,37.56582274,010-2978-6091,음식점 > 간식 > 도넛 > 던킨,http://place.map.kakao.com/629375582,,,던킨,1,"126.678125,37.5,126.84375,37.67666666666666"
574805572,던킨 부평세림병원점,인천 부평구 청천동 302-31,인천 부평구 부평대로 175,126.7204682,37.50682213,032-330-1369,음식점 > 간식 > 도넛 > 던킨,http://place.map.kakao.com/574805572,,,던킨,1,"126.678125,37.5,126.84375,37.67666666666666"
12323355,던킨 원당역사점,경기 고양시 덕양구 성사동 410-7,경기 고양시 덕양구 고양대로 1429,126.8431217,37.65343843,031-966-9684,음식점 > 간식 > 도넛 > 던킨,http://place.map.kakao.com/12323355,,,던킨,1,"126.678125,37.5,126.84375,37.67666666666666"
151532550,던킨 서울역서부점,서울 중구 만리동1가 33-1,서울 중구 만리재로 211,126.9681527,37.55630721,02-363-2111,음식점 > 간식 > 도넛 > 던킨,http://place.map.kakao.com/151532550,,,던킨,1,"126.84375,37.5,127.009375,37.67666666666666"
1216386563,던킨 용산이마트점,서울 용산구 한강로3가 40-999,서울 용산구 한강대로23길 55,126.9657768,37.52979283,02-2012-1280,음식점 > 간식 > 도넛 > 던킨,http://place.map.kakao.com/1216386563,,,던킨,1,"126.84375,37.5,127.009375,37.67666666666666"
7342467,던킨 원흥역점,경기 고양시 덕양구 원흥동 638,경기 고양시 덕양구 권율대로 685,126.8739425,37.65106887,031-963-5009,음식점 > 간식 > 도넛 > 던킨,http://place.map.kakao.com/7342467,,,던킨,1,"126.84375,37.5,127.009375,37.67666666666666"
509777846,던킨 CF연세세브란스빌딩점,서울 중구 남대문로5가 84-11,서울 중구 통일로 10,126.9739379,37.5569141,02-771-9843,음식점 > 간식 > 도넛 > 던킨,http://place.map.kakao.com/509777846,,,던킨,1,"126.84375,37.5,127.009375,37.67666666666666"
1803742990,던킨 흑석DT점,서울 동작구 흑석동 9-46,서울 동작구 현충로 101,126.9652371,37.5079929,02-812-0172,음식점 > 간식 > 도넛 > 던킨,http://place.map.kakao.com/1803742990,,,던킨,1,"126.84375,37.5,127.009375,37.67666666666666"
1374436878,던킨 불광역점,서울 은평구 불광동 285-10,서울 은평구 통일로 712,126.9310843,37.60944999,02-356-9068,음식점 > 간식 > 도넛 > 던킨,http://place.map.kakao.com/1374436878,,,던킨,1,"126.84375,37.5,127.009375,37.67666666666666"
12323680,던킨 뉴코아강남점,서울 서초구 잠원동 70-2,서울 서초구 잠원로 51,127.0074388,37.50923936,02-530-5511,음식점 > 간식 > 도넛 > 던킨,http://place.map.kakao.com/12323680,,,던킨,1,"126.84375,37.5,127.009375,37.67666666666666"
1999867391,던킨 상암DMC역사점,서울 마포구 상암동 1139,서울 마포구 성암로 지하 184,126.8990205,37.57682544,070-7725-5783,음식점 > 간식 > 도넛 > 던킨,http://place.map.kakao.com/1999867391,,,던킨,1,"126.84375,37.5,127.009375,37.67666666666666"
1413206274,던킨 서울역트윈시티점,서울 용산구 동자동 56,서울 용산구 한강대로 366,126.9726172,37.55061672,010-2340-1554,음식점 > 간식 > 도넛 > 던킨,http://place.map.kakao.com/1413206274,,,던킨,1,"126.84375,37.5,127.009375,37.67666666666666"
26473053,던킨 LG트윈타워점,서울 영등포구 여의도동 20,서울 영등포구 여의대로 128,126.9292587,37.52797189,02-3773-0740,음식점 > 간식 > 도넛 > 던킨,http://place.map.kakao.com/26473053,,,던킨,1,"126.84375,37.5,127.009375,37.67666666666666"
121631312,던킨 영등포역사2호점,서울 영등포구 영등포동 618-496,서울 영등포구 경인로 846,126.9075774,37.51569968,02-2068-8249,음식점 > 간식 > 도넛 > 던킨,http://place.map.kakao.com/121631312,,,던킨,1,"126.84375,37.5,127.009375,37.67666666666666"
54976557,던킨 공항철도홍대역사점,서울 마포구 동교동 190-66,서울 마포구 양화로 지하 188,126.9269017,37.55735565,02-336-8004,음식점 > 간식 > 도넛 > 던킨,http://place.map.kakao.com/54976557,,,던킨,1,"126.84375,37.5,127.009375,37.67666666666666"
121859556,던킨 반포자이점,서울 서초구 잠원동 68-17,서울 서초구 신반포로 지하 200,127.0091069,37.50773547,02-6439-6161,음식점 > 간식 > 도넛 > 던킨,http://place.map.kakao.com/121859556,,,던킨,1,"126.84375,37.5,127.009375,37.67666666666666"
26473051,던킨 삼송하나로점,경기 고양시 덕양구 동산동 373,경기 고양시 덕양구 동송로 20,126.8988667,37.64863409,02-371-1667,음식점 > 간식 > 도넛 > 던킨,http://place.map.kakao.com/26473051,,,던킨,1,"126.84375,37.5,127.009375,37.67666666666666"
21238496,던킨 중앙대병원점,서울 동작구 흑석동 224-1,서울 동작구 흑석로 102,126.9607905,37.50695175,02-811-0651,음식점 > 간식 > 도넛 > 던킨,http://place.map.kakao.com/21238496,,,던킨,1,"126.84375,37.5,127.009375,37.67666666666666"
1957498302,던킨 은평성모병원점,서울 은평구 진관동 55,서울 은평구 통일로 1021,126.9161528,37.63360931,,음식점 > 간식 > 도넛 > 던킨,http://place.map.kakao.com/1957498302,,,던킨,1,"126.84375,37.5,127.009375,37.67666666666666"
1335511392,던킨 평택프리미엄아울렛점(휴업중),경기 평택시 장당동 154,경기 평택시 경기대로 945,127.0695759,37.03410389,031-8053-5365,음식점 > 간식 > 도넛 > 던킨,http://place.map.kakao.com/1335511392,,,던킨,1,"126.990625,36.99,127.15625,37.16666666666667"
79157401,던킨 오산에어베이스점,경기 평택시 신장동 302-112,경기 평택시 쇼핑로 2,127.0500168,37.0801478,070-7597-4070,음식점 > 간식 > 도넛 > 던킨,http://place.map.kakao.com/79157401,,,던킨,1,"126.990625,36.99,127.15625,37.16666666666667"
1953034435,던킨 기흥테라타워점,경기 용인시 기흥구 농서동 452,경기 용인시 기흥구 서천로201번길 11,127.0715592,37.23083159,031-888-1775,음식점 > 간식 > 도넛 > 던킨,http://place.map.kakao.com/1953034435,,,던킨,1,"126.990625,37.16666666666667,127.15625,37.343333333333334"
934855408,던킨 가든파이브점,서울 송파구 문정동 634,서울 송파구 충민로 66,127.1249256,37.4769193,02-2157-2626,음식점 > 간식 > 도넛 > 던킨,http://place.map.kakao.com/934855408,,,던킨,1,"126.990625,37.32333333333334,127.15625,37.5"
1595367470,던킨 성남하대원점,경기 성남시 중원구 하대원동 143-1,경기 성남시 중원구 둔촌대로 274,127.1490275,37.42898002,031-758-1988,음식점 > 간식 > 도넛 > 던킨,http://place.map.kakao.com/1595367470,,,던킨,1,"126.990625,37.32333333333334,127.15625,37.5"
1852701099,던킨 광주신현점,경기 광주시 신현동 699-3,경기 광주시 신현로 74,127.1549476,37.36029386,031-711-9570,음식점 > 간식 > 도넛 > 던킨,http://place.map.kakao.com/1852701099,,,던킨,1,"126.990625,37.32333333333334,127.15625,37.5"
223402213,던킨 판교테크노밸리점,경기 성남시 분당구 삼평동 618,경기 성남시 분당구 판교로255번길 9-22,127.1000706,37.40401032,031-607-3155,음식점 > 간식 > 도넛 > 던킨,http://place.map.kakao.com/223402213,,,던킨,1,"126.990625,37.32333333333334,127.15625,37.5"
650171631,던킨 수서역사점,서울 강남구 수서동 728,서울 강남구 광평로 지하 270,127.1018585,37.48738773,02-451-3159,음식점 > 간식 > 도넛 > 던킨,http://place.map.kakao.com/650171631,,,던킨,1,"126.990625,37.32333333333334,127.15625,37.5"
12323445,던킨 분당차병원점,경기 성남시 분당구 야탑동 351,경기 성남시 분당구 야탑로 59,127.1255558,37.41026341,031-707-2022,음식점 > 간식 > 도넛 > 던킨,http://place.map.kakao.com/12323445,,,던킨,1,"126.990625,37.32333333333334,127.15625,37.5"
27529641,던킨 양재오토갤러리점,서울 서초구 양재동 217,서울 서초구 양재대로11길 36,127.0349384,37.46215134,,음식점 > 간식 > 도넛 > 던킨,http://place.map.kakao.com/27529641,,,던킨,1,"126.990625,37.32333333333334,127.15625,37.5"
15800640,던킨 분당효자촌점,경기 성남시 분당구 서현동 305-1,경기 성남시 분당구 불정로 381,127.1368406,37.37457763,031-706-8777,음식점 > 간식 > 도넛 > 던킨,http://place.map.kakao.com/15800640,,,던킨,1,"126.990625,37.32333333333334,127.15625,37.5"
12323711,던킨 양재하나로점,서울 서초구 양재동 230,서울 서초구 청계산로 10,127.0436032,37.4636081,02-571-1205,음식점 > 간식 > 도넛 > 던킨,http://place.map.kakao.com/12323711,,,던킨,1,"126.990625,37.32333333333334,127.15625,37.5"
217731422,던킨 광주능평점,경기 광주시 능평동 340-4,경기 광주시 능평로 63,127.1657977,37.35215179,031-717-0336,음식점 > 간식 > 도넛 > 던킨,http://place.map.kakao.com/217731422,,,던킨,1,"127.15625,37.32333333333334,127.321875,37.5"
767743667,던킨 구리갈매점,경기 구리시 갈매동 601,경기 구리시 갈매중앙로 89-10,127.1169841,37.63300178,031-527-3359,음식점 > 간식 > 도넛 > 던킨,http://place.map.kakao.com/767743667,,,던킨,1,"126.990625,37.5,127.15625,37.67666666666666"
1555685533,던킨 현대아이파크타워점,서울 강남구 삼성동 160,서울 강남구 영동대로 520,127.0611587,37.51360445,02-6294-0002,음식점 > 간식 > 도넛 > 던킨,http://place.map.kakao.com/1555685533,,,던킨,1,"126.990625,37.5,127.15625,37.67666666666666"
2008781309,던킨 하남감일점,경기 하남시 감이동 438,경기 하남시 감일중앙로 80,127.1557234,37.51042359,02-477-9851,음식점 > 간식 > 도넛 > 던킨,http://place.map.kakao.com/2008781309,,,던킨,1,"126.990625,37.5,127.15625,37.67666666666666"
1343169335,던킨 하남중앙미사역점,경기 하남시 망월동 1096,경기 하남시 미사강변중앙로204번길 22,127.1908095,37.56493572,031-795-3010,음식점 > 간식 > 도넛 > 던킨,http://place.map.kakao.com/1343169335,,,던킨,1,"127.15625,37.5,127.321875,37.67666666666666"
273312580,던킨 서하남휴게소 판교방향점,경기 하남시 춘궁동 212,경기 하남시 수도권제1순환고속도로 19,127.1931222,37.52600615,031-795-5870,음식점 > 간식 > 도넛 > 던킨,http://place.map.kakao.com/273312580,,,던킨,1,"127.15625,37.5,127.321875,37.67666666666666"
205612141,던킨 삼성GEC점,서울 강동구 상일동 500,서울 강동구 상일로6길 26,127.1753263,37.54886884,070-4015-5555,음식점 > 간식 > 도넛 > 던킨,http://place.map.kakao.com/205612141,,,던킨,1,"127.15625,37.5,127.321875,37.67666666666666"
1460370772,던킨 고양휴게소서울방향점,경기 고양시 덕양구 성사동 95-1,경기 고양시 덕양구 수원문산고속도로 51,126.8495355,37.63109519,031-979-5833,음식점 > 간식 > 도넛 > 던킨,http://place.map.kakao.com/1460370772,,,던킨,2,"126.84375,37.58833333333333,126.9265625,37.67666666666666"
1763241051,던킨 고양휴게소문산방향점,경기 고양시 덕양구 성사동 97,경기 고양시 덕양구 수원문산고속도로 52,126.8522223,37.63070395,031-979-5833,음식점 > 간식 > 도넛 > 던킨,http://place.map.kakao.com/1763241051,,,던킨,2,"126.84375,37.58833333333333,126.9265625,37.67666666666666"
